{"type": "FeatureCollection", "name": "Crocus sativus", "features": [{"type": "Feature", "geometry": {"type": "Point", "coordinates": [5.05, 52.1]}, "properties": {}}, {"type": "Feature", "geometry": {"type": "Point", "coordinates": [4.8, 52.65]}, "properties": {}}, {"type": "Feature", "geometry": {"type": "Point", "coordinates": [5.55, 51.8]}, "properties": {}}, {"type": "Feature", "geometry": {"type": "Point", "coordinates": [4.55, 51.95]}, "properties": {}}, {"type": "Feature", "geometry": {"type": "Point", "coordinates": [5.85, 50.95]}, "properties": {}}, {"type": "Feature", "geometry": {"type": "Point", "coordinates": [-4.847364, 37.967333]}, "properties": {}}, {"type": "Feature", "geometry": {"type": "Point", "coordinates": [0.657549, 41.134748]}, "properties": {}}, {"type": "Feature", "geometry": {"type": "Point", "coordinates": [7.73066, 46.29854]}, "properties": {}}, {"type": "Feature", "geometry": {"type": "Point", "coordinates": [4.65, 51.8]}, "properties": {}}, {"type": "Feature", "geometry": {"type": "Point", "coordinates": [4.3, 52.05]}, "properties": {}}, {"type": "Feature", "geometry": {"type": "Point", "coordinates": [7.92533, 46.29787]}, "properties": {}}, {"type": "Feature", "geometry": {"type": "Point", "coordinates": [16.513361, 39.075268]}, "properties": {}}, {"type": "Feature", "geometry": {"type": "Point", "coordinates": [8.666899, 44.459883]}, "properties": {}}, {"type": "Feature", "geometry": {"type": "Point", "coordinates": [14.383274, 35.851903]}, "properties": {}}, {"type": "Feature", "geometry": {"type": "Point", "coordinates": [23.694121, 37.941349]}, "properties": {}}, {"type": "Feature", "geometry": {"type": "Point", "coordinates": [-3.10928, 36.781339]}, "properties": {}}, {"type": "Feature", "geometry": {"type": "Point", "coordinates": [7.27395, 47.10838]}, "properties": {}}, {"type": "Feature", "geometry": {"type": "Point", "coordinates": [-7.801236, 30.204798]}, "properties": {}}, {"type": "Feature", "geometry": {"type": "Point", "coordinates": [16.648678, 49.132867]}, "properties": {}}, {"type": "Feature", "geometry": {"type": "Point", "coordinates": [9.609388, 44.792578]}, "properties": {}}, {"type": "Feature", "geometry": {"type": "Point", "coordinates": [4.9, 52.3]}, "properties": {}}, {"type": "Feature", "geometry": {"type": "Point", "coordinates": [8.753611, 52.090557]}, "properties": {}}, {"type": "Feature", "geometry": {"type": "Point", "coordinates": [8.657827, 50.126633]}, "properties": {}}, {"type": "Feature", "geometry": {"type": "Point", "coordinates": [8.753611, 52.090557]}, "properties": {}}, {"type": "Feature", "geometry": {"type": "Point", "coordinates": [15.859481, 39.821886]}, "properties": {}}, {"type": "Feature", "geometry": {"type": "Point", "coordinates": [-0.48, 38.67]}, "properties": {}}, {"type": "Feature", "geometry": {"type": "Point", "coordinates": [6.05, 52.45]}, "properties": {}}, {"type": "Feature", "geometry": {"type": "Point", "coordinates": [40.272454, 37.889844]}, "properties": {}}, {"type": "Feature", "geometry": {"type": "Point", "coordinates": [23.761494, 37.909209]}, "properties": {}}, {"type": "Feature", "geometry": {"type": "Point", "coordinates": [40.28342, 37.914996]}, "properties": {}}, {"type": "Feature", "geometry": {"type": "Point", "coordinates": [23.776449, 38.028294]}, "properties": {}}, {"type": "Feature", "geometry": {"type": "Point", "coordinates": [15.558612, 40.42548]}, "properties": {}}, {"type": "Feature", "geometry": {"type": "Point", "coordinates": [13.353222, 42.370728]}, "properties": {}}, {"type": "Feature", "geometry": {"type": "Point", "coordinates": [-3.231746, 36.933797]}, "properties": {}}, {"type": "Feature", "geometry": {"type": "Point", "coordinates": [9.049816, 54.480412]}, "properties": {}}, {"type": "Feature", "geometry": {"type": "Point", "coordinates": [0.644813, 41.316121]}, "properties": {}}, {"type": "Feature", "geometry": {"type": "Point", "coordinates": [23.741608, 37.981922]}, "properties": {}}, {"type": "Feature", "geometry": {"type": "Point", "coordinates": [9.444624, 45.717931]}, "properties": {}}, {"type": "Feature", "geometry": {"type": "Point", "coordinates": [4.15, 51.8]}, "properties": {}}, {"type": "Feature", "geometry": {"type": "Point", "coordinates": [6.55, 53.1]}, "properties": {}}, {"type": "Feature", "geometry": {"type": "Point", "coordinates": [4.45, 51.9]}, "properties": {}}, {"type": "Feature", "geometry": {"type": "Point", "coordinates": [8.70665, 45.814539]}, "properties": {}}, {"type": "Feature", "geometry": {"type": "Point", "coordinates": [10.364262, 44.74072]}, "properties": {}}, {"type": "Feature", "geometry": {"type": "Point", "coordinates": [17.122807, 40.784969]}, "properties": {}}, {"type": "Feature", "geometry": {"type": "Point", "coordinates": [12.811905, 41.817036]}, "properties": {}}, {"type": "Feature", "geometry": {"type": "Point", "coordinates": [8.76794, 45.699222]}, "properties": {}}, {"type": "Feature", "geometry": {"type": "Point", "coordinates": [8.979498, 44.913107]}, "properties": {}}, {"type": "Feature", "geometry": {"type": "Point", "coordinates": [7.861537, 45.073413]}, "properties": {}}, {"type": "Feature", "geometry": {"type": "Point", "coordinates": [-3.153706, 40.437472]}, "properties": {}}, {"type": "Feature", "geometry": {"type": "Point", "coordinates": [12.288803, 43.176371]}, "properties": {}}, {"type": "Feature", "geometry": {"type": "Point", "coordinates": [-5.532557, 40.336432]}, "properties": {}}, {"type": "Feature", "geometry": {"type": "Point", "coordinates": [2.740567, 41.994083]}, "properties": {}}, {"type": "Feature", "geometry": {"type": "Point", "coordinates": [13.273743, 42.447338]}, "properties": {}}, {"type": "Feature", "geometry": {"type": "Point", "coordinates": [17.134875, 48.525342]}, "properties": {}}, {"type": "Feature", "geometry": {"type": "Point", "coordinates": [-3.620667, 40.736304]}, "properties": {}}, {"type": "Feature", "geometry": {"type": "Point", "coordinates": [-5.664025, 40.128795]}, "properties": {}}, {"type": "Feature", "geometry": {"type": "Point", "coordinates": [-3.923904, 40.526885]}, "properties": {}}, {"type": "Feature", "geometry": {"type": "Point", "coordinates": [-4.550803, 42.014281]}, "properties": {}}, {"type": "Feature", "geometry": {"type": "Point", "coordinates": [12.657023, 42.558571]}, "properties": {}}, {"type": "Feature", "geometry": {"type": "Point", "coordinates": [-3.228669, 41.130093]}, "properties": {}}, {"type": "Feature", "geometry": {"type": "Point", "coordinates": [-4.03373, 40.627627]}, "properties": {}}, {"type": "Feature", "geometry": {"type": "Point", "coordinates": [9.073556, 45.598331]}, "properties": {}}, {"type": "Feature", "geometry": {"type": "Point", "coordinates": [-4.322711, 40.357266]}, "properties": {}}, {"type": "Feature", "geometry": {"type": "Point", "coordinates": [9.311244, 45.540611]}, "properties": {}}, {"type": "Feature", "geometry": {"type": "Point", "coordinates": [-3.720033, 40.951904]}, "properties": {}}, {"type": "Feature", "geometry": {"type": "Point", "coordinates": [-2.094242, 38.763764]}, "properties": {}}, {"type": "Feature", "geometry": {"type": "Point", "coordinates": [8.535693, 44.801224]}, "properties": {}}, {"type": "Feature", "geometry": {"type": "Point", "coordinates": [7.46665, 45.037716]}, "properties": {}}, {"type": "Feature", "geometry": {"type": "Point", "coordinates": [8.69465, 45.870622]}, "properties": {}}, {"type": "Feature", "geometry": {"type": "Point", "coordinates": [-3.620667, 40.736304]}, "properties": {}}, {"type": "Feature", "geometry": {"type": "Point", "coordinates": [1.856801, 41.525904]}, "properties": {}}, {"type": "Feature", "geometry": {"type": "Point", "coordinates": [17.116401, 48.159699]}, "properties": {}}, {"type": "Feature", "geometry": {"type": "Point", "coordinates": [7.926064, 44.596433]}, "properties": {}}, {"type": "Feature", "geometry": {"type": "Point", "coordinates": [8.350388, 45.362962]}, "properties": {}}, {"type": "Feature", "geometry": {"type": "Point", "coordinates": [8.729705, 44.737828]}, "properties": {}}, {"type": "Feature", "geometry": {"type": "Point", "coordinates": [-5.807155, 41.497853]}, "properties": {}}, {"type": "Feature", "geometry": {"type": "Point", "coordinates": [14.590977, 49.912431]}, "properties": {}}, {"type": "Feature", "geometry": {"type": "Point", "coordinates": [1.800117, 41.735046]}, "properties": {}}, {"type": "Feature", "geometry": {"type": "Point", "coordinates": [9.830579, 45.805817]}, "properties": {}}, {"type": "Feature", "geometry": {"type": "Point", "coordinates": [9.047894, 45.831665]}, "properties": {}}, {"type": "Feature", "geometry": {"type": "Point", "coordinates": [9.287604, 45.693639]}, "properties": {}}, {"type": "Feature", "geometry": {"type": "Point", "coordinates": [2.618034, 41.965939]}, "properties": {}}, {"type": "Feature", "geometry": {"type": "Point", "coordinates": [8.535682, 44.801424]}, "properties": {}}, {"type": "Feature", "geometry": {"type": "Point", "coordinates": [2.12587, 41.750912]}, "properties": {}}, {"type": "Feature", "geometry": {"type": "Point", "coordinates": [9.314958, 45.756028]}, "properties": {}}, {"type": "Feature", "geometry": {"type": "Point", "coordinates": [11.36247, 43.667058]}, "properties": {}}, {"type": "Feature", "geometry": {"type": "Point", "coordinates": [2.619901, 41.645628]}, "properties": {}}, {"type": "Feature", "geometry": {"type": "Point", "coordinates": [13.08381, 43.067108]}, "properties": {}}, {"type": "Feature", "geometry": {"type": "Point", "coordinates": [13.781963, 45.668711]}, "properties": {}}, {"type": "Feature", "geometry": {"type": "Point", "coordinates": [9.400413, 45.857842]}, "properties": {}}, {"type": "Feature", "geometry": {"type": "Point", "coordinates": [2.834353, 42.520966]}, "properties": {}}, {"type": "Feature", "geometry": {"type": "Point", "coordinates": [-3.345193, 42.546898]}, "properties": {}}, {"type": "Feature", "geometry": {"type": "Point", "coordinates": [8.755062, 45.538721]}, "properties": {}}, {"type": "Feature", "geometry": {"type": "Point", "coordinates": [-3.620634, 40.736271]}, "properties": {}}, {"type": "Feature", "geometry": {"type": "Point", "coordinates": [-2.925, 42.684444]}, "properties": {}}, {"type": "Feature", "geometry": {"type": "Point", "coordinates": [8.880531, 45.654122]}, "properties": {}}, {"type": "Feature", "geometry": {"type": "Point", "coordinates": [1.034215, 41.207744]}, "properties": {}}, {"type": "Feature", "geometry": {"type": "Point", "coordinates": [-2.755692, 42.964802]}, "properties": {}}, {"type": "Feature", "geometry": {"type": "Point", "coordinates": [1.875016, 41.693537]}, "properties": {}}, {"type": "Feature", "geometry": {"type": "Point", "coordinates": [13.541368, 42.31778]}, "properties": {}}, {"type": "Feature", "geometry": {"type": "Point", "coordinates": [-3.704214, 40.778365]}, "properties": {}}, {"type": "Feature", "geometry": {"type": "Point", "coordinates": [7.92533, 46.29787]}, "properties": {}}, {"type": "Feature", "geometry": {"type": "Point", "coordinates": [8.753611, 52.090557]}, "properties": {}}, {"type": "Feature", "geometry": {"type": "Point", "coordinates": [8.753611, 52.090557]}, "properties": {}}, {"type": "Feature", "geometry": {"type": "Point", "coordinates": [8.535682, 44.801424]}, "properties": {}}, {"type": "Feature", "geometry": {"type": "Point", "coordinates": [2.731691, 42.513611]}, "properties": {}}, {"type": "Feature", "geometry": {"type": "Point", "coordinates": [7.555193, 44.386505]}, "properties": {}}, {"type": "Feature", "geometry": {"type": "Point", "coordinates": [13.236778, 46.065374]}, "properties": {}}, {"type": "Feature", "geometry": {"type": "Point", "coordinates": [-5.877229, 40.780087]}, "properties": {}}, {"type": "Feature", "geometry": {"type": "Point", "coordinates": [14.590977, 49.912431]}, "properties": {}}, {"type": "Feature", "geometry": {"type": "Point", "coordinates": [21.78992, 40.285912]}, "properties": {}}, {"type": "Feature", "geometry": {"type": "Point", "coordinates": [10.523961, 45.607067]}, "properties": {}}, {"type": "Feature", "geometry": {"type": "Point", "coordinates": [-5.591045, 43.532337]}, "properties": {}}, {"type": "Feature", "geometry": {"type": "Point", "coordinates": [1.817315, 41.343918]}, "properties": {}}, {"type": "Feature", "geometry": {"type": "Point", "coordinates": [8.99628, 44.404877]}, "properties": {}}, {"type": "Feature", "geometry": {"type": "Point", "coordinates": [-3.727557, 40.376035]}, "properties": {}}, {"type": "Feature", "geometry": {"type": "Point", "coordinates": [-4.42839, 40.026466]}, "properties": {}}, {"type": "Feature", "geometry": {"type": "Point", "coordinates": [-1.085336, 37.75467]}, "properties": {}}, {"type": "Feature", "geometry": {"type": "Point", "coordinates": [2.810902, 41.963964]}, "properties": {}}, {"type": "Feature", "geometry": {"type": "Point", "coordinates": [1.772297, 41.535233]}, "properties": {}}, {"type": "Feature", "geometry": {"type": "Point", "coordinates": [18.258059, 40.27713]}, "properties": {}}, {"type": "Feature", "geometry": {"type": "Point", "coordinates": [10.9457, 44.613568]}, "properties": {}}, {"type": "Feature", "geometry": {"type": "Point", "coordinates": [-3.707156, 37.261421]}, "properties": {}}, {"type": "Feature", "geometry": {"type": "Point", "coordinates": [-1.796948, 39.613376]}, "properties": {}}, {"type": "Feature", "geometry": {"type": "Point", "coordinates": [-3.358289, 40.445894]}, "properties": {}}, {"type": "Feature", "geometry": {"type": "Point", "coordinates": [11.695386, 43.478352]}, "properties": {}}, {"type": "Feature", "geometry": {"type": "Point", "coordinates": [12.286481, 51.844543]}, "properties": {}}, {"type": "Feature", "geometry": {"type": "Point", "coordinates": [-0.389957, 39.615095]}, "properties": {}}, {"type": "Feature", "geometry": {"type": "Point", "coordinates": [17.568216, 40.549145]}, "properties": {}}, {"type": "Feature", "geometry": {"type": "Point", "coordinates": [72.85846, 33.89626]}, "properties": {}}, {"type": "Feature", "geometry": {"type": "Point", "coordinates": [7.808595, 45.594247]}, "properties": {}}, {"type": "Feature", "geometry": {"type": "Point", "coordinates": [8.7008, 46.15693]}, "properties": {}}, {"type": "Feature", "geometry": {"type": "Point", "coordinates": [12.465666, 41.875422]}, "properties": {}}, {"type": "Feature", "geometry": {"type": "Point", "coordinates": [-3.51082, 40.473638]}, "properties": {}}, {"type": "Feature", "geometry": {"type": "Point", "coordinates": [7.7375, 44.92]}, "properties": {}}, {"type": "Feature", "geometry": {"type": "Point", "coordinates": [2.179909, 41.40263]}, "properties": {}}, {"type": "Feature", "geometry": {"type": "Point", "coordinates": [10.272581, 44.347604]}, "properties": {}}, {"type": "Feature", "geometry": {"type": "Point", "coordinates": [7.760333, 43.942368]}, "properties": {}}, {"type": "Feature", "geometry": {"type": "Point", "coordinates": [11.976953, 46.432625]}, "properties": {}}, {"type": "Feature", "geometry": {"type": "Point", "coordinates": [-3.53347, 40.99172]}, "properties": {}}, {"type": "Feature", "geometry": {"type": "Point", "coordinates": [13.629579, 42.005718]}, "properties": {}}, {"type": "Feature", "geometry": {"type": "Point", "coordinates": [0.018447, 40.211865]}, "properties": {}}, {"type": "Feature", "geometry": {"type": "Point", "coordinates": [23.607497, 41.025728]}, "properties": {}}, {"type": "Feature", "geometry": {"type": "Point", "coordinates": [16.011963, 49.357728]}, "properties": {}}, {"type": "Feature", "geometry": {"type": "Point", "coordinates": [-3.743985, 40.412681]}, "properties": {}}, {"type": "Feature", "geometry": {"type": "Point", "coordinates": [-3.620502, 40.736399]}, "properties": {}}, {"type": "Feature", "geometry": {"type": "Point", "coordinates": [11.223758, 44.436755]}, "properties": {}}, {"type": "Feature", "geometry": {"type": "Point", "coordinates": [13.060815, 42.086798]}, "properties": {}}, {"type": "Feature", "geometry": {"type": "Point", "coordinates": [10.393819, 46.241697]}, "properties": {}}, {"type": "Feature", "geometry": {"type": "Point", "coordinates": [8.287829, 44.807601]}, "properties": {}}, {"type": "Feature", "geometry": {"type": "Point", "coordinates": [12.347222, 46.419444]}, "properties": {}}, {"type": "Feature", "geometry": {"type": "Point", "coordinates": [11.989375, 43.34766]}, "properties": {}}, {"type": "Feature", "geometry": {"type": "Point", "coordinates": [11.410279, 45.392914]}, "properties": {}}, {"type": "Feature", "geometry": {"type": "Point", "coordinates": [-3.765446, 40.66909]}, "properties": {}}, {"type": "Feature", "geometry": {"type": "Point", "coordinates": [2.714156, 41.750304]}, "properties": {}}, {"type": "Feature", "geometry": {"type": "Point", "coordinates": [8.908953, 45.959308]}, "properties": {}}, {"type": "Feature", "geometry": {"type": "Point", "coordinates": [1.541973, 41.21004]}, "properties": {}}, {"type": "Feature", "geometry": {"type": "Point", "coordinates": [2.17883, 41.516338]}, "properties": {}}, {"type": "Feature", "geometry": {"type": "Point", "coordinates": [9.64064, 45.669732]}, "properties": {}}, {"type": "Feature", "geometry": {"type": "Point", "coordinates": [1.93216, 41.386216]}, "properties": {}}, {"type": "Feature", "geometry": {"type": "Point", "coordinates": [9.640817, 45.669783]}, "properties": {}}, {"type": "Feature", "geometry": {"type": "Point", "coordinates": [8.750562, 45.476533]}, "properties": {}}, {"type": "Feature", "geometry": {"type": "Point", "coordinates": [-2.432855, 41.173104]}, "properties": {}}, {"type": "Feature", "geometry": {"type": "Point", "coordinates": [16.011963, 49.357728]}, "properties": {}}, {"type": "Feature", "geometry": {"type": "Point", "coordinates": [13.078053, 42.417278]}, "properties": {}}, {"type": "Feature", "geometry": {"type": "Point", "coordinates": [13.23651, 46.055649]}, "properties": {}}, {"type": "Feature", "geometry": {"type": "Point", "coordinates": [1.541973, 41.21004]}, "properties": {}}, {"type": "Feature", "geometry": {"type": "Point", "coordinates": [11.756578, 44.355334]}, "properties": {}}, {"type": "Feature", "geometry": {"type": "Point", "coordinates": [-1.053382, 39.352778]}, "properties": {}}, {"type": "Feature", "geometry": {"type": "Point", "coordinates": [-3.746545, 37.255723]}, "properties": {}}, {"type": "Feature", "geometry": {"type": "Point", "coordinates": [10.587314, 44.349787]}, "properties": {}}, {"type": "Feature", "geometry": {"type": "Point", "coordinates": [8.115046, 44.83757]}, "properties": {}}, {"type": "Feature", "geometry": {"type": "Point", "coordinates": [2.62592, 41.686942]}, "properties": {}}, {"type": "Feature", "geometry": {"type": "Point", "coordinates": [-3.053357, 40.166992]}, "properties": {}}, {"type": "Feature", "geometry": {"type": "Point", "coordinates": [23.34661, 40.62837]}, "properties": {}}, {"type": "Feature", "geometry": {"type": "Point", "coordinates": [2.152376, 41.367234]}, "properties": {}}, {"type": "Feature", "geometry": {"type": "Point", "coordinates": [10.587369, 44.349838]}, "properties": {}}, {"type": "Feature", "geometry": {"type": "Point", "coordinates": [-3.801694, 41.392546]}, "properties": {}}, {"type": "Feature", "geometry": {"type": "Point", "coordinates": [2.468611, 42.182222]}, "properties": {}}, {"type": "Feature", "geometry": {"type": "Point", "coordinates": [2.714112, 41.750392]}, "properties": {}}, {"type": "Feature", "geometry": {"type": "Point", "coordinates": [10.047222, 45.796389]}, "properties": {}}, {"type": "Feature", "geometry": {"type": "Point", "coordinates": [2.468611, 42.182222]}, "properties": {}}, {"type": "Feature", "geometry": {"type": "Point", "coordinates": [11.784405, 45.319317]}, "properties": {}}, {"type": "Feature", "geometry": {"type": "Point", "coordinates": [27.434255, 37.949888]}, "properties": {}}, {"type": "Feature", "geometry": {"type": "Point", "coordinates": [-3.383103, 38.775039]}, "properties": {}}, {"type": "Feature", "geometry": {"type": "Point", "coordinates": [-4.127936, 40.582047]}, "properties": {}}, {"type": "Feature", "geometry": {"type": "Point", "coordinates": [13.629579, 42.005718]}, "properties": {}}, {"type": "Feature", "geometry": {"type": "Point", "coordinates": [13.078044, 42.417279]}, "properties": {}}, {"type": "Feature", "geometry": {"type": "Point", "coordinates": [3.251159, 50.625758]}, "properties": {}}, {"type": "Feature", "geometry": {"type": "Point", "coordinates": [8.207409, 50.123837]}, "properties": {}}, {"type": "Feature", "geometry": {"type": "Point", "coordinates": [-0.410747, 40.217928]}, "properties": {}}, {"type": "Feature", "geometry": {"type": "Point", "coordinates": [26.652547, 41.539845]}, "properties": {}}, {"type": "Feature", "geometry": {"type": "Point", "coordinates": [9.189492, 45.471088]}, "properties": {}}, {"type": "Feature", "geometry": {"type": "Point", "coordinates": [-4.357207, 40.279379]}, "properties": {}}, {"type": "Feature", "geometry": {"type": "Point", "coordinates": [-3.378613, 40.453065]}, "properties": {}}, {"type": "Feature", "geometry": {"type": "Point", "coordinates": [0.157975, 42.040375]}, "properties": {}}, {"type": "Feature", "geometry": {"type": "Point", "coordinates": [-3.763767, 40.809041]}, "properties": {}}, {"type": "Feature", "geometry": {"type": "Point", "coordinates": [-4.252059, 37.197782]}, "properties": {}}, {"type": "Feature", "geometry": {"type": "Point", "coordinates": [16.059327, 38.37674]}, "properties": {}}, {"type": "Feature", "geometry": {"type": "Point", "coordinates": [-1.860637, 38.972877]}, "properties": {}}, {"type": "Feature", "geometry": {"type": "Point", "coordinates": [10.047222, 45.796389]}, "properties": {}}, {"type": "Feature", "geometry": {"type": "Point", "coordinates": [2.490524, 41.818586]}, "properties": {}}, {"type": "Feature", "geometry": {"type": "Point", "coordinates": [47.055109, 35.317261]}, "properties": {}}, {"type": "Feature", "geometry": {"type": "Point", "coordinates": [23.463289, 37.337536]}, "properties": {}}, {"type": "Feature", "geometry": {"type": "Point", "coordinates": [0.157975, 42.040375]}, "properties": {}}, {"type": "Feature", "geometry": {"type": "Point", "coordinates": [-4.575487, 41.567521]}, "properties": {}}, {"type": "Feature", "geometry": {"type": "Point", "coordinates": [13.353222, 42.370728]}, "properties": {}}, {"type": "Feature", "geometry": {"type": "Point", "coordinates": [1.730227, 41.508244]}, "properties": {}}, {"type": "Feature", "geometry": {"type": "Point", "coordinates": [8.568125, 44.990772]}, "properties": {}}, {"type": "Feature", "geometry": {"type": "Point", "coordinates": [14.339458, 40.859024]}, "properties": {}}, {"type": "Feature", "geometry": {"type": "Point", "coordinates": [16.451321, 40.495384]}, "properties": {}}, {"type": "Feature", "geometry": {"type": "Point", "coordinates": [-3.936441, 40.518357]}, "properties": {}}, {"type": "Feature", "geometry": {"type": "Point", "coordinates": [6.999679, 51.950169]}, "properties": {}}, {"type": "Feature", "geometry": {"type": "Point", "coordinates": [25.228841, 37.543632]}, "properties": {}}, {"type": "Feature", "geometry": {"type": "Point", "coordinates": [6.196811, 50.646461]}, "properties": {}}, {"type": "Feature", "geometry": {"type": "Point", "coordinates": [-0.816777, 38.672146]}, "properties": {}}, {"type": "Feature", "geometry": {"type": "Point", "coordinates": [8.33239, 47.37488]}, "properties": {}}, {"type": "Feature", "geometry": {"type": "Point", "coordinates": [8.33239, 47.37488]}, "properties": {}}, {"type": "Feature", "geometry": {"type": "Point", "coordinates": [74.806135, 34.173202]}, "properties": {}}, {"type": "Feature", "geometry": {"type": "Point", "coordinates": [6.17125, 46.38177]}, "properties": {}}, {"type": "Feature", "geometry": {"type": "Point", "coordinates": [1.798698, 41.384085]}, "properties": {}}, {"type": "Feature", "geometry": {"type": "Point", "coordinates": [8.101345, 44.662813]}, "properties": {}}, {"type": "Feature", "geometry": {"type": "Point", "coordinates": [9.0025, 44.988343]}, "properties": {}}, {"type": "Feature", "geometry": {"type": "Point", "coordinates": [2.043603, 41.665734]}, "properties": {}}, {"type": "Feature", "geometry": {"type": "Point", "coordinates": [9.963203, 45.786507]}, "properties": {}}, {"type": "Feature", "geometry": {"type": "Point", "coordinates": [-0.698606, 42.102683]}, "properties": {}}, {"type": "Feature", "geometry": {"type": "Point", "coordinates": [-4.72651, 40.694551]}, "properties": {}}, {"type": "Feature", "geometry": {"type": "Point", "coordinates": [10.372858, 44.919897]}, "properties": {}}, {"type": "Feature", "geometry": {"type": "Point", "coordinates": [2.401667, 42.038333]}, "properties": {}}, {"type": "Feature", "geometry": {"type": "Point", "coordinates": [1.964719, 41.359077]}, "properties": {}}, {"type": "Feature", "geometry": {"type": "Point", "coordinates": [8.734844, 46.08934]}, "properties": {}}, {"type": "Feature", "geometry": {"type": "Point", "coordinates": [-4.269072, 40.569824]}, "properties": {}}, {"type": "Feature", "geometry": {"type": "Point", "coordinates": [4.75, 52.25]}, "properties": {}}, {"type": "Feature", "geometry": {"type": "Point", "coordinates": [6.55, 53.1]}, "properties": {}}, {"type": "Feature", "geometry": {"type": "Point", "coordinates": [-5.747591, 40.368407]}, "properties": {}}, {"type": "Feature", "geometry": {"type": "Point", "coordinates": [-3.04738, 40.017159]}, "properties": {}}, {"type": "Feature", "geometry": {"type": "Point", "coordinates": [2.583135, 41.636997]}, "properties": {}}, {"type": "Feature", "geometry": {"type": "Point", "coordinates": [-4.415073, 33.34295]}, "properties": {}}, {"type": "Feature", "geometry": {"type": "Point", "coordinates": [8.956004, 45.821926]}, "properties": {}}, {"type": "Feature", "geometry": {"type": "Point", "coordinates": [9.316551, 45.354596]}, "properties": {}}, {"type": "Feature", "geometry": {"type": "Point", "coordinates": [-3.808723, 40.758542]}, "properties": {}}, {"type": "Feature", "geometry": {"type": "Point", "coordinates": [12.215188, 44.127588]}, "properties": {}}, {"type": "Feature", "geometry": {"type": "Point", "coordinates": [-3.990858, 43.017255]}, "properties": {}}, {"type": "Feature", "geometry": {"type": "Point", "coordinates": [8.545478, 45.743613]}, "properties": {}}, {"type": "Feature", "geometry": {"type": "Point", "coordinates": [13.104951, 46.103977]}, "properties": {}}, {"type": "Feature", "geometry": {"type": "Point", "coordinates": [11.082529, 44.214554]}, "properties": {}}, {"type": "Feature", "geometry": {"type": "Point", "coordinates": [23.462818, 37.335207]}, "properties": {}}, {"type": "Feature", "geometry": {"type": "Point", "coordinates": [-6.73135, 40.690887]}, "properties": {}}, {"type": "Feature", "geometry": {"type": "Point", "coordinates": [13.90751, 42.211655]}, "properties": {}}, {"type": "Feature", "geometry": {"type": "Point", "coordinates": [13.887399, 42.035477]}, "properties": {}}, {"type": "Feature", "geometry": {"type": "Point", "coordinates": [-4.614208, 42.637058]}, "properties": {}}, {"type": "Feature", "geometry": {"type": "Point", "coordinates": [-3.274487, 40.969225]}, "properties": {}}, {"type": "Feature", "geometry": {"type": "Point", "coordinates": [2.773721, 42.483968]}, "properties": {}}, {"type": "Feature", "geometry": {"type": "Point", "coordinates": [11.292628, 43.726467]}, "properties": {}}, {"type": "Feature", "geometry": {"type": "Point", "coordinates": [8.662693, 46.204824]}, "properties": {}}, {"type": "Feature", "geometry": {"type": "Point", "coordinates": [8.101278, 44.662833]}, "properties": {}}, {"type": "Feature", "geometry": {"type": "Point", "coordinates": [-6.73135, 40.690887]}, "properties": {}}, {"type": "Feature", "geometry": {"type": "Point", "coordinates": [11.299448, 44.495083]}, "properties": {}}, {"type": "Feature", "geometry": {"type": "Point", "coordinates": [12.273633, 44.23768]}, "properties": {}}, {"type": "Feature", "geometry": {"type": "Point", "coordinates": [-5.35215, 42.479212]}, "properties": {}}, {"type": "Feature", "geometry": {"type": "Point", "coordinates": [9.391631, 45.861503]}, "properties": {}}, {"type": "Feature", "geometry": {"type": "Point", "coordinates": [8.256462, 49.797028]}, "properties": {}}, {"type": "Feature", "geometry": {"type": "Point", "coordinates": [9.207273, 48.923977]}, "properties": {}}, {"type": "Feature", "geometry": {"type": "Point", "coordinates": [8.256938, 49.79715]}, "properties": {}}, {"type": "Feature", "geometry": {"type": "Point", "coordinates": [-4.137381, 40.599539]}, "properties": {}}, {"type": "Feature", "geometry": {"type": "Point", "coordinates": [23.769047, 37.952576]}, "properties": {}}, {"type": "Feature", "geometry": {"type": "Point", "coordinates": [23.769047, 37.952576]}, "properties": {}}, {"type": "Feature", "geometry": {"type": "Point", "coordinates": [-3.726701, 40.447739]}, "properties": {}}, {"type": "Feature", "geometry": {"type": "Point", "coordinates": [13.90751, 42.211655]}, "properties": {}}, {"type": "Feature", "geometry": {"type": "Point", "coordinates": [11.217885, 44.542732]}, "properties": {}}, {"type": "Feature", "geometry": {"type": "Point", "coordinates": [2.051142, 41.45663]}, "properties": {}}, {"type": "Feature", "geometry": {"type": "Point", "coordinates": [-3.587778, 40.964722]}, "properties": {}}, {"type": "Feature", "geometry": {"type": "Point", "coordinates": [0.65611, 41.427449]}, "properties": {}}, {"type": "Feature", "geometry": {"type": "Point", "coordinates": [2.281888, 41.86726]}, "properties": {}}, {"type": "Feature", "geometry": {"type": "Point", "coordinates": [26.627752, 41.677501]}, "properties": {}}, {"type": "Feature", "geometry": {"type": "Point", "coordinates": [0.964704, 41.076395]}, "properties": {}}, {"type": "Feature", "geometry": {"type": "Point", "coordinates": [12.867138, 41.961035]}, "properties": {}}, {"type": "Feature", "geometry": {"type": "Point", "coordinates": [17.568216, 40.549145]}, "properties": {}}, {"type": "Feature", "geometry": {"type": "Point", "coordinates": [9.102918, 45.420766]}, "properties": {}}, {"type": "Feature", "geometry": {"type": "Point", "coordinates": [17.57548, 40.543713]}, "properties": {}}, {"type": "Feature", "geometry": {"type": "Point", "coordinates": [-2.928616, 40.850905]}, "properties": {}}, {"type": "Feature", "geometry": {"type": "Point", "coordinates": [22.522222, 41.093889]}, "properties": {}}, {"type": "Feature", "geometry": {"type": "Point", "coordinates": [2.318056, 41.689722]}, "properties": {}}, {"type": "Feature", "geometry": {"type": "Point", "coordinates": [-3.649882, 37.149629]}, "properties": {}}, {"type": "Feature", "geometry": {"type": "Point", "coordinates": [23.769602, 37.949934]}, "properties": {}}, {"type": "Feature", "geometry": {"type": "Point", "coordinates": [12.614624, 41.79634]}, "properties": {}}, {"type": "Feature", "geometry": {"type": "Point", "coordinates": [1.948417, 41.79895]}, "properties": {}}, {"type": "Feature", "geometry": {"type": "Point", "coordinates": [0.19, 40.46]}, "properties": {}}, {"type": "Feature", "geometry": {"type": "Point", "coordinates": [16.867265, 39.13375]}, "properties": {}}, {"type": "Feature", "geometry": {"type": "Point", "coordinates": [23.764419, 37.962449]}, "properties": {}}, {"type": "Feature", "geometry": {"type": "Point", "coordinates": [-3.04738, 40.017159]}, "properties": {}}, {"type": "Feature", "geometry": {"type": "Point", "coordinates": [-1.388379, 51.82438]}, "properties": {}}, {"type": "Feature", "geometry": {"type": "Point", "coordinates": [-3.693228, 40.411446]}, "properties": {}}, {"type": "Feature", "geometry": {"type": "Point", "coordinates": [76.58, 33.78]}, "properties": {}}, {"type": "Feature", "geometry": {"type": "Point", "coordinates": [71.033658, 32.075838]}, "properties": {}}, {"type": "Feature", "geometry": {"type": "Point", "coordinates": [2.614569, 41.970753]}, "properties": {}}, {"type": "Feature", "geometry": {"type": "Point", "coordinates": [7.60101, 46.34377]}, "properties": {}}, {"type": "Feature", "geometry": {"type": "Point", "coordinates": [1.798582, 41.384001]}, "properties": {}}, {"type": "Feature", "geometry": {"type": "Point", "coordinates": [9.101296, 44.905904]}, "properties": {}}, {"type": "Feature", "geometry": {"type": "Point", "coordinates": [7.931527, 44.564765]}, "properties": {}}]}