{"type": "FeatureCollection", "name": "Papaverum rhoeas", "features": [{"type": "Feature", "geometry": {"type": "Point", "coordinates": [168.442401, -45.73945]}, "properties": {}}, {"type": "Feature", "geometry": {"type": "Point", "coordinates": [-176.555562, -43.953349]}, "properties": {}}, {"type": "Feature", "geometry": {"type": "Point", "coordinates": [-2.982237, 51.569835]}, "properties": {}}, {"type": "Feature", "geometry": {"type": "Point", "coordinates": [-70.614138, -33.41683]}, "properties": {}}, {"type": "Feature", "geometry": {"type": "Point", "coordinates": [74.825806, 31.634933]}, "properties": {}}, {"type": "Feature", "geometry": {"type": "Point", "coordinates": [4.6, 51.9]}, "properties": {}}, {"type": "Feature", "geometry": {"type": "Point", "coordinates": [4.2, 52.0]}, "properties": {}}, {"type": "Feature", "geometry": {"type": "Point", "coordinates": [5.35, 51.8]}, "properties": {}}, {"type": "Feature", "geometry": {"type": "Point", "coordinates": [5.25, 52.0]}, "properties": {}}, {"type": "Feature", "geometry": {"type": "Point", "coordinates": [5.95, 50.85]}, "properties": {}}, {"type": "Feature", "geometry": {"type": "Point", "coordinates": [3.6, 51.55]}, "properties": {}}, {"type": "Feature", "geometry": {"type": "Point", "coordinates": [4.55, 51.9]}, "properties": {}}, {"type": "Feature", "geometry": {"type": "Point", "coordinates": [5.05, 51.55]}, "properties": {}}, {"type": "Feature", "geometry": {"type": "Point", "coordinates": [5.75, 51.05]}, "properties": {}}, {"type": "Feature", "geometry": {"type": "Point", "coordinates": [-2.982237, 51.569835]}, "properties": {}}, {"type": "Feature", "geometry": {"type": "Point", "coordinates": [-95.301062, 32.35126]}, "properties": {}}, {"type": "Feature", "geometry": {"type": "Point", "coordinates": [172.609925, -43.543267]}, "properties": {}}, {"type": "Feature", "geometry": {"type": "Point", "coordinates": [4.2, 52.0]}, "properties": {}}, {"type": "Feature", "geometry": {"type": "Point", "coordinates": [3.85, 51.2]}, "properties": {}}, {"type": "Feature", "geometry": {"type": "Point", "coordinates": [5.35, 52.2]}, "properties": {}}, {"type": "Feature", "geometry": {"type": "Point", "coordinates": [4.25, 52.1]}, "properties": {}}, {"type": "Feature", "geometry": {"type": "Point", "coordinates": [5.9, 50.85]}, "properties": {}}, {"type": "Feature", "geometry": {"type": "Point", "coordinates": [23.766622, 37.960542]}, "properties": {}}, {"type": "Feature", "geometry": {"type": "Point", "coordinates": [6.195938, 43.121707]}, "properties": {}}, {"type": "Feature", "geometry": {"type": "Point", "coordinates": [-2.205792, 36.759668]}, "properties": {}}, {"type": "Feature", "geometry": {"type": "Point", "coordinates": [78.022111, 27.17785]}, "properties": {}}, {"type": "Feature", "geometry": {"type": "Point", "coordinates": [-2.112105, 36.785163]}, "properties": {}}, {"type": "Feature", "geometry": {"type": "Point", "coordinates": [-0.444666, 39.486461]}, "properties": {}}, {"type": "Feature", "geometry": {"type": "Point", "coordinates": [-13.639562, 28.980398]}, "properties": {}}, {"type": "Feature", "geometry": {"type": "Point", "coordinates": [19.724441, 39.722062]}, "properties": {}}, {"type": "Feature", "geometry": {"type": "Point", "coordinates": [-2.205442, 36.759482]}, "properties": {}}, {"type": "Feature", "geometry": {"type": "Point", "coordinates": [-2.006032, 36.878535]}, "properties": {}}, {"type": "Feature", "geometry": {"type": "Point", "coordinates": [5.65, 51.95]}, "properties": {}}, {"type": "Feature", "geometry": {"type": "Point", "coordinates": [4.2, 52.0]}, "properties": {}}, {"type": "Feature", "geometry": {"type": "Point", "coordinates": [5.65, 51.95]}, "properties": {}}, {"type": "Feature", "geometry": {"type": "Point", "coordinates": [6.15, 52.25]}, "properties": {}}, {"type": "Feature", "geometry": {"type": "Point", "coordinates": [5.2, 51.35]}, "properties": {}}, {"type": "Feature", "geometry": {"type": "Point", "coordinates": [9.469342, 44.276161]}, "properties": {}}, {"type": "Feature", "geometry": {"type": "Point", "coordinates": [-5.243492, 37.828333]}, "properties": {}}, {"type": "Feature", "geometry": {"type": "Point", "coordinates": [-116.280877, 33.713391]}, "properties": {}}, {"type": "Feature", "geometry": {"type": "Point", "coordinates": [16.256283, 39.489561]}, "properties": {}}, {"type": "Feature", "geometry": {"type": "Point", "coordinates": [-2.43559, 36.881566]}, "properties": {}}, {"type": "Feature", "geometry": {"type": "Point", "coordinates": [-4.608458, 36.583212]}, "properties": {}}, {"type": "Feature", "geometry": {"type": "Point", "coordinates": [-17.817249, 28.535801]}, "properties": {}}, {"type": "Feature", "geometry": {"type": "Point", "coordinates": [170.477539, -44.005784]}, "properties": {}}, {"type": "Feature", "geometry": {"type": "Point", "coordinates": [172.828683, -42.512209]}, "properties": {}}, {"type": "Feature", "geometry": {"type": "Point", "coordinates": [168.020603, -46.340908]}, "properties": {}}, {"type": "Feature", "geometry": {"type": "Point", "coordinates": [168.127122, -46.899387]}, "properties": {}}, {"type": "Feature", "geometry": {"type": "Point", "coordinates": [-71.31333, -41.144843]}, "properties": {}}, {"type": "Feature", "geometry": {"type": "Point", "coordinates": [6.1, 53.1]}, "properties": {}}, {"type": "Feature", "geometry": {"type": "Point", "coordinates": [4.3, 52.05]}, "properties": {}}, {"type": "Feature", "geometry": {"type": "Point", "coordinates": [-0.943624, 41.631679]}, "properties": {}}, {"type": "Feature", "geometry": {"type": "Point", "coordinates": [5.0, 52.15]}, "properties": {}}, {"type": "Feature", "geometry": {"type": "Point", "coordinates": [5.75, 50.9]}, "properties": {}}, {"type": "Feature", "geometry": {"type": "Point", "coordinates": [6.0, 50.85]}, "properties": {}}, {"type": "Feature", "geometry": {"type": "Point", "coordinates": [5.65, 51.65]}, "properties": {}}, {"type": "Feature", "geometry": {"type": "Point", "coordinates": [-2.002859, 36.889256]}, "properties": {}}, {"type": "Feature", "geometry": {"type": "Point", "coordinates": [5.35, 51.4]}, "properties": {}}, {"type": "Feature", "geometry": {"type": "Point", "coordinates": [4.85, 52.35]}, "properties": {}}, {"type": "Feature", "geometry": {"type": "Point", "coordinates": [6.25, 52.25]}, "properties": {}}, {"type": "Feature", "geometry": {"type": "Point", "coordinates": [5.35, 51.4]}, "properties": {}}, {"type": "Feature", "geometry": {"type": "Point", "coordinates": [-2.005592, 36.884521]}, "properties": {}}, {"type": "Feature", "geometry": {"type": "Point", "coordinates": [-6.085054, 37.875083]}, "properties": {}}, {"type": "Feature", "geometry": {"type": "Point", "coordinates": [14.470308, 40.899242]}, "properties": {}}, {"type": "Feature", "geometry": {"type": "Point", "coordinates": [-9.202471, 38.646893]}, "properties": {}}, {"type": "Feature", "geometry": {"type": "Point", "coordinates": [-2.063595, 36.793725]}, "properties": {}}, {"type": "Feature", "geometry": {"type": "Point", "coordinates": [5.30333, 43.27819]}, "properties": {}}, {"type": "Feature", "geometry": {"type": "Point", "coordinates": [24.926846, 37.46812]}, "properties": {}}, {"type": "Feature", "geometry": {"type": "Point", "coordinates": [-97.828833, 30.434122]}, "properties": {}}, {"type": "Feature", "geometry": {"type": "Point", "coordinates": [3.095773, 43.124993]}, "properties": {}}, {"type": "Feature", "geometry": {"type": "Point", "coordinates": [-117.736131, 33.554785]}, "properties": {}}, {"type": "Feature", "geometry": {"type": "Point", "coordinates": [21.045836, 32.379616]}, "properties": {}}, {"type": "Feature", "geometry": {"type": "Point", "coordinates": [-17.228298, 28.059299]}, "properties": {}}, {"type": "Feature", "geometry": {"type": "Point", "coordinates": [27.340855, 37.939828]}, "properties": {}}, {"type": "Feature", "geometry": {"type": "Point", "coordinates": [3.159689, 45.728337]}, "properties": {}}, {"type": "Feature", "geometry": {"type": "Point", "coordinates": [-4.721338, 37.913025]}, "properties": {}}, {"type": "Feature", "geometry": {"type": "Point", "coordinates": [24.22638, 35.451794]}, "properties": {}}, {"type": "Feature", "geometry": {"type": "Point", "coordinates": [-117.733208, 33.556522]}, "properties": {}}, {"type": "Feature", "geometry": {"type": "Point", "coordinates": [-4.683212, 43.156287]}, "properties": {}}, {"type": "Feature", "geometry": {"type": "Point", "coordinates": [-9.197897, 38.610179]}, "properties": {}}, {"type": "Feature", "geometry": {"type": "Point", "coordinates": [14.247196, 41.099299]}, "properties": {}}, {"type": "Feature", "geometry": {"type": "Point", "coordinates": [2.995518, 42.206433]}, "properties": {}}, {"type": "Feature", "geometry": {"type": "Point", "coordinates": [-7.866494, 38.021511]}, "properties": {}}, {"type": "Feature", "geometry": {"type": "Point", "coordinates": [5.363602, 43.241476]}, "properties": {}}, {"type": "Feature", "geometry": {"type": "Point", "coordinates": [-7.669104, 39.650278]}, "properties": {}}, {"type": "Feature", "geometry": {"type": "Point", "coordinates": [24.882155, 37.375562]}, "properties": {}}, {"type": "Feature", "geometry": {"type": "Point", "coordinates": [13.902748, 42.9061]}, "properties": {}}, {"type": "Feature", "geometry": {"type": "Point", "coordinates": [10.505415, 42.936582]}, "properties": {}}, {"type": "Feature", "geometry": {"type": "Point", "coordinates": [-4.721317, 37.913117]}, "properties": {}}, {"type": "Feature", "geometry": {"type": "Point", "coordinates": [1.132222, 41.137236]}, "properties": {}}, {"type": "Feature", "geometry": {"type": "Point", "coordinates": [-16.883472, 28.344692]}, "properties": {}}, {"type": "Feature", "geometry": {"type": "Point", "coordinates": [-9.197897, 38.610179]}, "properties": {}}, {"type": "Feature", "geometry": {"type": "Point", "coordinates": [3.164211, 45.727895]}, "properties": {}}, {"type": "Feature", "geometry": {"type": "Point", "coordinates": [20.724725, 38.358295]}, "properties": {}}, {"type": "Feature", "geometry": {"type": "Point", "coordinates": [1.72775, 41.495701]}, "properties": {}}, {"type": "Feature", "geometry": {"type": "Point", "coordinates": [-2.109208, 36.784827]}, "properties": {}}, {"type": "Feature", "geometry": {"type": "Point", "coordinates": [3.111801, 42.296708]}, "properties": {}}, {"type": "Feature", "geometry": {"type": "Point", "coordinates": [-4.047064, 38.141772]}, "properties": {}}, {"type": "Feature", "geometry": {"type": "Point", "coordinates": [-97.730203, 30.294286]}, "properties": {}}, {"type": "Feature", "geometry": {"type": "Point", "coordinates": [-97.671795, 30.380565]}, "properties": {}}, {"type": "Feature", "geometry": {"type": "Point", "coordinates": [-6.535244, 37.446738]}, "properties": {}}, {"type": "Feature", "geometry": {"type": "Point", "coordinates": [28.226413, 36.446878]}, "properties": {}}, {"type": "Feature", "geometry": {"type": "Point", "coordinates": [-7.756381, 31.337086]}, "properties": {}}, {"type": "Feature", "geometry": {"type": "Point", "coordinates": [3.931269, 40.001159]}, "properties": {}}, {"type": "Feature", "geometry": {"type": "Point", "coordinates": [5.246354, 43.368979]}, "properties": {}}, {"type": "Feature", "geometry": {"type": "Point", "coordinates": [23.723027, 37.968993]}, "properties": {}}, {"type": "Feature", "geometry": {"type": "Point", "coordinates": [22.878014, 37.906868]}, "properties": {}}, {"type": "Feature", "geometry": {"type": "Point", "coordinates": [-7.004554, 38.866114]}, "properties": {}}, {"type": "Feature", "geometry": {"type": "Point", "coordinates": [-6.535448, 37.446713]}, "properties": {}}, {"type": "Feature", "geometry": {"type": "Point", "coordinates": [32.88694, 34.664761]}, "properties": {}}, {"type": "Feature", "geometry": {"type": "Point", "coordinates": [24.001538, 35.511923]}, "properties": {}}, {"type": "Feature", "geometry": {"type": "Point", "coordinates": [17.65594, 59.89195]}, "properties": {}}, {"type": "Feature", "geometry": {"type": "Point", "coordinates": [5.8, 50.8]}, "properties": {}}, {"type": "Feature", "geometry": {"type": "Point", "coordinates": [3.5, 51.45]}, "properties": {}}, {"type": "Feature", "geometry": {"type": "Point", "coordinates": [2.195421, 41.456138]}, "properties": {}}, {"type": "Feature", "geometry": {"type": "Point", "coordinates": [5.2, 51.75]}, "properties": {}}, {"type": "Feature", "geometry": {"type": "Point", "coordinates": [5.55, 52.0]}, "properties": {}}, {"type": "Feature", "geometry": {"type": "Point", "coordinates": [3.4, 51.5]}, "properties": {}}, {"type": "Feature", "geometry": {"type": "Point", "coordinates": [3.85, 51.3]}, "properties": {}}, {"type": "Feature", "geometry": {"type": "Point", "coordinates": [6.0, 51.1]}, "properties": {}}, {"type": "Feature", "geometry": {"type": "Point", "coordinates": [3.8, 51.7]}, "properties": {}}, {"type": "Feature", "geometry": {"type": "Point", "coordinates": [5.6, 52.0]}, "properties": {}}, {"type": "Feature", "geometry": {"type": "Point", "coordinates": [5.0, 52.3]}, "properties": {}}, {"type": "Feature", "geometry": {"type": "Point", "coordinates": [6.55, 53.1]}, "properties": {}}, {"type": "Feature", "geometry": {"type": "Point", "coordinates": [5.75, 51.7]}, "properties": {}}, {"type": "Feature", "geometry": {"type": "Point", "coordinates": [4.45, 51.5]}, "properties": {}}, {"type": "Feature", "geometry": {"type": "Point", "coordinates": [3.95, 51.3]}, "properties": {}}, {"type": "Feature", "geometry": {"type": "Point", "coordinates": [5.0, 52.3]}, "properties": {}}, {"type": "Feature", "geometry": {"type": "Point", "coordinates": [6.772272, 51.19214]}, "properties": {}}, {"type": "Feature", "geometry": {"type": "Point", "coordinates": [5.05, 51.55]}, "properties": {}}, {"type": "Feature", "geometry": {"type": "Point", "coordinates": [4.7, 52.6]}, "properties": {}}, {"type": "Feature", "geometry": {"type": "Point", "coordinates": [5.15, 52.25]}, "properties": {}}, {"type": "Feature", "geometry": {"type": "Point", "coordinates": [24.634058, 35.143116]}, "properties": {}}, {"type": "Feature", "geometry": {"type": "Point", "coordinates": [24.687901, 35.095486]}, "properties": {}}, {"type": "Feature", "geometry": {"type": "Point", "coordinates": [11.166683, 43.488441]}, "properties": {}}, {"type": "Feature", "geometry": {"type": "Point", "coordinates": [-3.667591, 40.308092]}, "properties": {}}, {"type": "Feature", "geometry": {"type": "Point", "coordinates": [-8.200863, 31.267462]}, "properties": {}}, {"type": "Feature", "geometry": {"type": "Point", "coordinates": [-6.004105, 37.379947]}, "properties": {}}, {"type": "Feature", "geometry": {"type": "Point", "coordinates": [-9.902685, 29.614533]}, "properties": {}}, {"type": "Feature", "geometry": {"type": "Point", "coordinates": [3.861096, 43.631022]}, "properties": {}}, {"type": "Feature", "geometry": {"type": "Point", "coordinates": [1.656385, 41.303742]}, "properties": {}}, {"type": "Feature", "geometry": {"type": "Point", "coordinates": [8.917902, 39.170237]}, "properties": {}}, {"type": "Feature", "geometry": {"type": "Point", "coordinates": [14.346367, 40.80505]}, "properties": {}}, {"type": "Feature", "geometry": {"type": "Point", "coordinates": [-97.659378, 30.387183]}, "properties": {}}, {"type": "Feature", "geometry": {"type": "Point", "coordinates": [-9.19307, 38.635138]}, "properties": {}}, {"type": "Feature", "geometry": {"type": "Point", "coordinates": [-97.659378, 30.387187]}, "properties": {}}, {"type": "Feature", "geometry": {"type": "Point", "coordinates": [-3.527102, 40.36407]}, "properties": {}}, {"type": "Feature", "geometry": {"type": "Point", "coordinates": [3.923778, 40.043011]}, "properties": {}}, {"type": "Feature", "geometry": {"type": "Point", "coordinates": [24.528495, 35.232995]}, "properties": {}}, {"type": "Feature", "geometry": {"type": "Point", "coordinates": [3.033756, 42.385083]}, "properties": {}}, {"type": "Feature", "geometry": {"type": "Point", "coordinates": [25.558512, 35.013478]}, "properties": {}}, {"type": "Feature", "geometry": {"type": "Point", "coordinates": [-9.208573, 38.63899]}, "properties": {}}, {"type": "Feature", "geometry": {"type": "Point", "coordinates": [3.096392, 39.857431]}, "properties": {}}, {"type": "Feature", "geometry": {"type": "Point", "coordinates": [-8.620176, 40.856588]}, "properties": {}}, {"type": "Feature", "geometry": {"type": "Point", "coordinates": [15.247364, 44.136267]}, "properties": {}}, {"type": "Feature", "geometry": {"type": "Point", "coordinates": [6.196488, 43.120091]}, "properties": {}}, {"type": "Feature", "geometry": {"type": "Point", "coordinates": [-3.090462, 38.034021]}, "properties": {}}, {"type": "Feature", "geometry": {"type": "Point", "coordinates": [3.012668, 42.623157]}, "properties": {}}, {"type": "Feature", "geometry": {"type": "Point", "coordinates": [-5.904364, 37.417511]}, "properties": {}}, {"type": "Feature", "geometry": {"type": "Point", "coordinates": [3.861236, 43.630858]}, "properties": {}}, {"type": "Feature", "geometry": {"type": "Point", "coordinates": [-0.231502, 40.940784]}, "properties": {}}, {"type": "Feature", "geometry": {"type": "Point", "coordinates": [-2.63451, 36.858725]}, "properties": {}}, {"type": "Feature", "geometry": {"type": "Point", "coordinates": [-97.749488, 30.29788]}, "properties": {}}, {"type": "Feature", "geometry": {"type": "Point", "coordinates": [-6.550679, 38.501071]}, "properties": {}}, {"type": "Feature", "geometry": {"type": "Point", "coordinates": [-7.973643, 31.415408]}, "properties": {}}, {"type": "Feature", "geometry": {"type": "Point", "coordinates": [-111.63613, 33.392697]}, "properties": {}}, {"type": "Feature", "geometry": {"type": "Point", "coordinates": [-8.620218, 40.856486]}, "properties": {}}, {"type": "Feature", "geometry": {"type": "Point", "coordinates": [-7.641339, 33.545338]}, "properties": {}}, {"type": "Feature", "geometry": {"type": "Point", "coordinates": [16.183075, 39.697501]}, "properties": {}}, {"type": "Feature", "geometry": {"type": "Point", "coordinates": [30.649037, 36.870371]}, "properties": {}}, {"type": "Feature", "geometry": {"type": "Point", "coordinates": [1.400166, 38.899065]}, "properties": {}}, {"type": "Feature", "geometry": {"type": "Point", "coordinates": [-97.748288, 30.307426]}, "properties": {}}, {"type": "Feature", "geometry": {"type": "Point", "coordinates": [34.071349, 34.97079]}, "properties": {}}, {"type": "Feature", "geometry": {"type": "Point", "coordinates": [23.783692, 37.958467]}, "properties": {}}, {"type": "Feature", "geometry": {"type": "Point", "coordinates": [1.862715, 41.718257]}, "properties": {}}, {"type": "Feature", "geometry": {"type": "Point", "coordinates": [3.974531, 39.979497]}, "properties": {}}, {"type": "Feature", "geometry": {"type": "Point", "coordinates": [9.737314, 44.099802]}, "properties": {}}, {"type": "Feature", "geometry": {"type": "Point", "coordinates": [15.143008, 43.93605]}, "properties": {}}, {"type": "Feature", "geometry": {"type": "Point", "coordinates": [-2.205673, 36.75972]}, "properties": {}}, {"type": "Feature", "geometry": {"type": "Point", "coordinates": [-111.614205, 33.43068]}, "properties": {}}, {"type": "Feature", "geometry": {"type": "Point", "coordinates": [4.711202, 43.995707]}, "properties": {}}, {"type": "Feature", "geometry": {"type": "Point", "coordinates": [-8.201058, 31.279278]}, "properties": {}}, {"type": "Feature", "geometry": {"type": "Point", "coordinates": [0.171662, 40.271202]}, "properties": {}}, {"type": "Feature", "geometry": {"type": "Point", "coordinates": [9.558778, 45.155617]}, "properties": {}}, {"type": "Feature", "geometry": {"type": "Point", "coordinates": [23.980569, 35.513864]}, "properties": {}}, {"type": "Feature", "geometry": {"type": "Point", "coordinates": [32.40628, 34.775134]}, "properties": {}}, {"type": "Feature", "geometry": {"type": "Point", "coordinates": [28.218553, 40.041786]}, "properties": {}}, {"type": "Feature", "geometry": {"type": "Point", "coordinates": [-8.051261, 37.220046]}, "properties": {}}, {"type": "Feature", "geometry": {"type": "Point", "coordinates": [5.312308, 43.283228]}, "properties": {}}, {"type": "Feature", "geometry": {"type": "Point", "coordinates": [4.740335, 44.010175]}, "properties": {}}, {"type": "Feature", "geometry": {"type": "Point", "coordinates": [-8.200858, 31.267397]}, "properties": {}}, {"type": "Feature", "geometry": {"type": "Point", "coordinates": [-9.208542, 38.638995]}, "properties": {}}, {"type": "Feature", "geometry": {"type": "Point", "coordinates": [32.886141, 34.665186]}, "properties": {}}, {"type": "Feature", "geometry": {"type": "Point", "coordinates": [23.188845, 40.7072]}, "properties": {}}, {"type": "Feature", "geometry": {"type": "Point", "coordinates": [-2.12023, 36.749397]}, "properties": {}}, {"type": "Feature", "geometry": {"type": "Point", "coordinates": [-8.62021, 40.856608]}, "properties": {}}, {"type": "Feature", "geometry": {"type": "Point", "coordinates": [2.830919, 42.560311]}, "properties": {}}, {"type": "Feature", "geometry": {"type": "Point", "coordinates": [14.488728, 40.751408]}, "properties": {}}, {"type": "Feature", "geometry": {"type": "Point", "coordinates": [5.321182, 43.36422]}, "properties": {}}, {"type": "Feature", "geometry": {"type": "Point", "coordinates": [-97.420826, 32.61836]}, "properties": {}}, {"type": "Feature", "geometry": {"type": "Point", "coordinates": [168.689833, -45.047669]}, "properties": {}}, {"type": "Feature", "geometry": {"type": "Point", "coordinates": [-7.836308, 37.67712]}, "properties": {}}, {"type": "Feature", "geometry": {"type": "Point", "coordinates": [-5.781776, 37.36844]}, "properties": {}}, {"type": "Feature", "geometry": {"type": "Point", "coordinates": [2.026027, 41.358253]}, "properties": {}}, {"type": "Feature", "geometry": {"type": "Point", "coordinates": [-5.669293, 39.84606]}, "properties": {}}, {"type": "Feature", "geometry": {"type": "Point", "coordinates": [2.33803, 41.658207]}, "properties": {}}, {"type": "Feature", "geometry": {"type": "Point", "coordinates": [2.015233, 41.592905]}, "properties": {}}, {"type": "Feature", "geometry": {"type": "Point", "coordinates": [12.449453, 41.907458]}, "properties": {}}, {"type": "Feature", "geometry": {"type": "Point", "coordinates": [-8.620191, 40.856765]}, "properties": {}}, {"type": "Feature", "geometry": {"type": "Point", "coordinates": [3.861034, 43.630895]}, "properties": {}}, {"type": "Feature", "geometry": {"type": "Point", "coordinates": [-1.136472, 46.158711]}, "properties": {}}, {"type": "Feature", "geometry": {"type": "Point", "coordinates": [4.418529, 43.999462]}, "properties": {}}, {"type": "Feature", "geometry": {"type": "Point", "coordinates": [-7.457213, 41.135401]}, "properties": {}}, {"type": "Feature", "geometry": {"type": "Point", "coordinates": [22.936768, 40.581816]}, "properties": {}}, {"type": "Feature", "geometry": {"type": "Point", "coordinates": [-4.853826, 36.725967]}, "properties": {}}, {"type": "Feature", "geometry": {"type": "Point", "coordinates": [2.786518, 41.674995]}, "properties": {}}, {"type": "Feature", "geometry": {"type": "Point", "coordinates": [7.133258, 43.628987]}, "properties": {}}, {"type": "Feature", "geometry": {"type": "Point", "coordinates": [2.195837, 41.447332]}, "properties": {}}, {"type": "Feature", "geometry": {"type": "Point", "coordinates": [-9.208469, 38.638807]}, "properties": {}}, {"type": "Feature", "geometry": {"type": "Point", "coordinates": [114.41587, 30.54838]}, "properties": {}}, {"type": "Feature", "geometry": {"type": "Point", "coordinates": [30.563015, 36.739785]}, "properties": {}}, {"type": "Feature", "geometry": {"type": "Point", "coordinates": [-7.756381, 31.337086]}, "properties": {}}, {"type": "Feature", "geometry": {"type": "Point", "coordinates": [25.159832, 37.577054]}, "properties": {}}, {"type": "Feature", "geometry": {"type": "Point", "coordinates": [14.489308, 40.748263]}, "properties": {}}, {"type": "Feature", "geometry": {"type": "Point", "coordinates": [-8.633139, 37.138788]}, "properties": {}}, {"type": "Feature", "geometry": {"type": "Point", "coordinates": [1.891337, 41.54517]}, "properties": {}}, {"type": "Feature", "geometry": {"type": "Point", "coordinates": [-9.06528, 38.653787]}, "properties": {}}, {"type": "Feature", "geometry": {"type": "Point", "coordinates": [-121.980042, 38.518818]}, "properties": {}}, {"type": "Feature", "geometry": {"type": "Point", "coordinates": [-117.100099, 32.92796]}, "properties": {}}, {"type": "Feature", "geometry": {"type": "Point", "coordinates": [5.354779, 43.230714]}, "properties": {}}, {"type": "Feature", "geometry": {"type": "Point", "coordinates": [-97.706159, 30.371772]}, "properties": {}}, {"type": "Feature", "geometry": {"type": "Point", "coordinates": [-9.192246, 38.642718]}, "properties": {}}, {"type": "Feature", "geometry": {"type": "Point", "coordinates": [-118.367051, 34.189781]}, "properties": {}}, {"type": "Feature", "geometry": {"type": "Point", "coordinates": [23.723145, 37.972573]}, "properties": {}}, {"type": "Feature", "geometry": {"type": "Point", "coordinates": [32.962279, 34.695151]}, "properties": {}}, {"type": "Feature", "geometry": {"type": "Point", "coordinates": [-8.004565, 39.256307]}, "properties": {}}, {"type": "Feature", "geometry": {"type": "Point", "coordinates": [-8.005765, 39.257797]}, "properties": {}}, {"type": "Feature", "geometry": {"type": "Point", "coordinates": [23.666097, 38.33583]}, "properties": {}}, {"type": "Feature", "geometry": {"type": "Point", "coordinates": [-8.098153, 31.138764]}, "properties": {}}, {"type": "Feature", "geometry": {"type": "Point", "coordinates": [-4.039053, 38.044586]}, "properties": {}}, {"type": "Feature", "geometry": {"type": "Point", "coordinates": [-5.940625, 37.35739]}, "properties": {}}, {"type": "Feature", "geometry": {"type": "Point", "coordinates": [-8.018417, 38.529973]}, "properties": {}}, {"type": "Feature", "geometry": {"type": "Point", "coordinates": [-97.723341, 30.320659]}, "properties": {}}, {"type": "Feature", "geometry": {"type": "Point", "coordinates": [15.232529, 44.119315]}, "properties": {}}, {"type": "Feature", "geometry": {"type": "Point", "coordinates": [7.133183, 43.628963]}, "properties": {}}, {"type": "Feature", "geometry": {"type": "Point", "coordinates": [-17.263094, 32.813886]}, "properties": {}}, {"type": "Feature", "geometry": {"type": "Point", "coordinates": [-9.424388, 38.709608]}, "properties": {}}, {"type": "Feature", "geometry": {"type": "Point", "coordinates": [-97.670478, 30.63485]}, "properties": {}}, {"type": "Feature", "geometry": {"type": "Point", "coordinates": [-9.208423, 38.638805]}, "properties": {}}, {"type": "Feature", "geometry": {"type": "Point", "coordinates": [-97.659425, 30.387183]}, "properties": {}}, {"type": "Feature", "geometry": {"type": "Point", "coordinates": [32.314526, 34.947032]}, "properties": {}}, {"type": "Feature", "geometry": {"type": "Point", "coordinates": [0.203108, 40.264032]}, "properties": {}}, {"type": "Feature", "geometry": {"type": "Point", "coordinates": [0.476853, 35.677126]}, "properties": {}}, {"type": "Feature", "geometry": {"type": "Point", "coordinates": [1.470285, 43.565242]}, "properties": {}}, {"type": "Feature", "geometry": {"type": "Point", "coordinates": [33.142717, 34.711813]}, "properties": {}}, {"type": "Feature", "geometry": {"type": "Point", "coordinates": [2.193545, 41.563486]}, "properties": {}}, {"type": "Feature", "geometry": {"type": "Point", "coordinates": [-8.620208, 40.856589]}, "properties": {}}, {"type": "Feature", "geometry": {"type": "Point", "coordinates": [-7.426402, 39.287874]}, "properties": {}}, {"type": "Feature", "geometry": {"type": "Point", "coordinates": [4.55, 51.9]}, "properties": {}}, {"type": "Feature", "geometry": {"type": "Point", "coordinates": [5.35, 51.7]}, "properties": {}}, {"type": "Feature", "geometry": {"type": "Point", "coordinates": [0.515714, 41.242877]}, "properties": {}}, {"type": "Feature", "geometry": {"type": "Point", "coordinates": [-3.795043, 40.291339]}, "properties": {}}, {"type": "Feature", "geometry": {"type": "Point", "coordinates": [-7.756381, 31.337086]}, "properties": {}}, {"type": "Feature", "geometry": {"type": "Point", "coordinates": [-3.64345, 40.03488]}, "properties": {}}, {"type": "Feature", "geometry": {"type": "Point", "coordinates": [-8.885545, 38.533406]}, "properties": {}}, {"type": "Feature", "geometry": {"type": "Point", "coordinates": [-7.756381, 31.337086]}, "properties": {}}, {"type": "Feature", "geometry": {"type": "Point", "coordinates": [3.100211, 39.77665]}, "properties": {}}, {"type": "Feature", "geometry": {"type": "Point", "coordinates": [-3.786565, 37.791859]}, "properties": {}}, {"type": "Feature", "geometry": {"type": "Point", "coordinates": [-97.709239, 30.291916]}, "properties": {}}, {"type": "Feature", "geometry": {"type": "Point", "coordinates": [22.499418, 38.482879]}, "properties": {}}, {"type": "Feature", "geometry": {"type": "Point", "coordinates": [-9.568533, 30.337345]}, "properties": {}}, {"type": "Feature", "geometry": {"type": "Point", "coordinates": [3.257152, 34.637633]}, "properties": {}}, {"type": "Feature", "geometry": {"type": "Point", "coordinates": [11.009682, 45.442695]}, "properties": {}}, {"type": "Feature", "geometry": {"type": "Point", "coordinates": [12.530787, 41.974094]}, "properties": {}}, {"type": "Feature", "geometry": {"type": "Point", "coordinates": [-7.756381, 31.337086]}, "properties": {}}, {"type": "Feature", "geometry": {"type": "Point", "coordinates": [5.228542, 43.458929]}, "properties": {}}, {"type": "Feature", "geometry": {"type": "Point", "coordinates": [21.752709, 38.319964]}, "properties": {}}, {"type": "Feature", "geometry": {"type": "Point", "coordinates": [-3.273917, 38.12044]}, "properties": {}}, {"type": "Feature", "geometry": {"type": "Point", "coordinates": [16.090137, 43.046717]}, "properties": {}}, {"type": "Feature", "geometry": {"type": "Point", "coordinates": [-97.674103, 30.635864]}, "properties": {}}, {"type": "Feature", "geometry": {"type": "Point", "coordinates": [-9.413472, 38.750654]}, "properties": {}}, {"type": "Feature", "geometry": {"type": "Point", "coordinates": [12.731152, 38.179295]}, "properties": {}}, {"type": "Feature", "geometry": {"type": "Point", "coordinates": [-7.477174, 37.918766]}, "properties": {}}, {"type": "Feature", "geometry": {"type": "Point", "coordinates": [23.723292, 37.968372]}, "properties": {}}, {"type": "Feature", "geometry": {"type": "Point", "coordinates": [-119.185952, 34.280816]}, "properties": {}}, {"type": "Feature", "geometry": {"type": "Point", "coordinates": [-97.751723, 30.27351]}, "properties": {}}, {"type": "Feature", "geometry": {"type": "Point", "coordinates": [-6.399577, 38.68318]}, "properties": {}}, {"type": "Feature", "geometry": {"type": "Point", "coordinates": [-97.711992, 30.271755]}, "properties": {}}, {"type": "Feature", "geometry": {"type": "Point", "coordinates": [20.373403, 38.238688]}, "properties": {}}, {"type": "Feature", "geometry": {"type": "Point", "coordinates": [17.892687, 40.435598]}, "properties": {}}, {"type": "Feature", "geometry": {"type": "Point", "coordinates": [27.413146, 37.025149]}, "properties": {}}, {"type": "Feature", "geometry": {"type": "Point", "coordinates": [6.196052, 43.121651]}, "properties": {}}, {"type": "Feature", "geometry": {"type": "Point", "coordinates": [-3.89773, 36.794405]}, "properties": {}}, {"type": "Feature", "geometry": {"type": "Point", "coordinates": [26.849356, 37.783985]}, "properties": {}}, {"type": "Feature", "geometry": {"type": "Point", "coordinates": [-7.935198, 37.016374]}, "properties": {}}, {"type": "Feature", "geometry": {"type": "Point", "coordinates": [-7.935198, 37.016418]}, "properties": {}}, {"type": "Feature", "geometry": {"type": "Point", "coordinates": [-9.570928, 31.452105]}, "properties": {}}, {"type": "Feature", "geometry": {"type": "Point", "coordinates": [25.738335, 35.258144]}, "properties": {}}, {"type": "Feature", "geometry": {"type": "Point", "coordinates": [-8.006169, 39.258081]}, "properties": {}}, {"type": "Feature", "geometry": {"type": "Point", "coordinates": [-5.77925, 37.379539]}, "properties": {}}]}