{"type": "FeatureCollection", "name": "Borago officinalis", "features": [{"type": "Feature", "geometry": {"type": "Point", "coordinates": [2.137078, 41.42094]}, "properties": {}}, {"type": "Feature", "geometry": {"type": "Point", "coordinates": [-123.1629, 49.210237]}, "properties": {}}, {"type": "Feature", "geometry": {"type": "Point", "coordinates": [12.590447, 38.036864]}, "properties": {}}, {"type": "Feature", "geometry": {"type": "Point", "coordinates": [12.590434, 38.036896]}, "properties": {}}, {"type": "Feature", "geometry": {"type": "Point", "coordinates": [5.823922, 43.137041]}, "properties": {}}, {"type": "Feature", "geometry": {"type": "Point", "coordinates": [-100.104175, 19.191433]}, "properties": {}}, {"type": "Feature", "geometry": {"type": "Point", "coordinates": [-1.594319, 54.979512]}, "properties": {}}, {"type": "Feature", "geometry": {"type": "Point", "coordinates": [8.249736, 45.033179]}, "properties": {}}, {"type": "Feature", "geometry": {"type": "Point", "coordinates": [3.71033, 51.04467]}, "properties": {}}, {"type": "Feature", "geometry": {"type": "Point", "coordinates": [3.20967, 51.21571]}, "properties": {}}, {"type": "Feature", "geometry": {"type": "Point", "coordinates": [17.66717, 59.81387]}, "properties": {}}, {"type": "Feature", "geometry": {"type": "Point", "coordinates": [1.424472, 41.151061]}, "properties": {}}, {"type": "Feature", "geometry": {"type": "Point", "coordinates": [14.457757, 35.827657]}, "properties": {}}, {"type": "Feature", "geometry": {"type": "Point", "coordinates": [14.23134, 36.03301]}, "properties": {}}, {"type": "Feature", "geometry": {"type": "Point", "coordinates": [-8.426732, 40.000187]}, "properties": {}}, {"type": "Feature", "geometry": {"type": "Point", "coordinates": [-7.747248, 37.057537]}, "properties": {}}, {"type": "Feature", "geometry": {"type": "Point", "coordinates": [14.351223, 35.944393]}, "properties": {}}, {"type": "Feature", "geometry": {"type": "Point", "coordinates": [4.409606, 36.207971]}, "properties": {}}, {"type": "Feature", "geometry": {"type": "Point", "coordinates": [-5.816024, 36.750551]}, "properties": {}}, {"type": "Feature", "geometry": {"type": "Point", "coordinates": [-118.2862, 34.039297]}, "properties": {}}, {"type": "Feature", "geometry": {"type": "Point", "coordinates": [7.724164, 43.799106]}, "properties": {}}, {"type": "Feature", "geometry": {"type": "Point", "coordinates": [172.650995, -43.37721]}, "properties": {}}, {"type": "Feature", "geometry": {"type": "Point", "coordinates": [10.240008, 43.963433]}, "properties": {}}, {"type": "Feature", "geometry": {"type": "Point", "coordinates": [2.171497, 41.418628]}, "properties": {}}, {"type": "Feature", "geometry": {"type": "Point", "coordinates": [5.033628, 36.752614]}, "properties": {}}, {"type": "Feature", "geometry": {"type": "Point", "coordinates": [-8.761345, 41.596627]}, "properties": {}}, {"type": "Feature", "geometry": {"type": "Point", "coordinates": [3.115128, 42.506353]}, "properties": {}}, {"type": "Feature", "geometry": {"type": "Point", "coordinates": [-5.816024, 36.750551]}, "properties": {}}, {"type": "Feature", "geometry": {"type": "Point", "coordinates": [5.001144, 52.349804]}, "properties": {}}, {"type": "Feature", "geometry": {"type": "Point", "coordinates": [10.352507, 43.841076]}, "properties": {}}, {"type": "Feature", "geometry": {"type": "Point", "coordinates": [-124.918067, 49.669839]}, "properties": {}}, {"type": "Feature", "geometry": {"type": "Point", "coordinates": [14.478036, 35.915985]}, "properties": {}}, {"type": "Feature", "geometry": {"type": "Point", "coordinates": [14.232352, 36.040969]}, "properties": {}}, {"type": "Feature", "geometry": {"type": "Point", "coordinates": [14.322558, 36.028248]}, "properties": {}}, {"type": "Feature", "geometry": {"type": "Point", "coordinates": [16.249273, 38.901692]}, "properties": {}}, {"type": "Feature", "geometry": {"type": "Point", "coordinates": [-72.527979, -38.087247]}, "properties": {}}, {"type": "Feature", "geometry": {"type": "Point", "coordinates": [3.196692, 36.69319]}, "properties": {}}, {"type": "Feature", "geometry": {"type": "Point", "coordinates": [-6.788375, 37.33427]}, "properties": {}}, {"type": "Feature", "geometry": {"type": "Point", "coordinates": [-7.921294, 37.029482]}, "properties": {}}, {"type": "Feature", "geometry": {"type": "Point", "coordinates": [2.211821, 41.437342]}, "properties": {}}, {"type": "Feature", "geometry": {"type": "Point", "coordinates": [2.160411, 41.362137]}, "properties": {}}, {"type": "Feature", "geometry": {"type": "Point", "coordinates": [-122.636531, 38.229489]}, "properties": {}}, {"type": "Feature", "geometry": {"type": "Point", "coordinates": [-3.791859, 37.789602]}, "properties": {}}, {"type": "Feature", "geometry": {"type": "Point", "coordinates": [4.527981, 36.372723]}, "properties": {}}, {"type": "Feature", "geometry": {"type": "Point", "coordinates": [7.08097, 43.601117]}, "properties": {}}, {"type": "Feature", "geometry": {"type": "Point", "coordinates": [2.82693, 36.467241]}, "properties": {}}, {"type": "Feature", "geometry": {"type": "Point", "coordinates": [-8.103742, 37.172562]}, "properties": {}}, {"type": "Feature", "geometry": {"type": "Point", "coordinates": [16.580145, 38.923168]}, "properties": {}}, {"type": "Feature", "geometry": {"type": "Point", "coordinates": [9.20274, 45.530011]}, "properties": {}}, {"type": "Feature", "geometry": {"type": "Point", "coordinates": [15.276587, 37.076606]}, "properties": {}}, {"type": "Feature", "geometry": {"type": "Point", "coordinates": [5.13295, 43.39767]}, "properties": {}}, {"type": "Feature", "geometry": {"type": "Point", "coordinates": [-124.053751, 44.63437]}, "properties": {}}, {"type": "Feature", "geometry": {"type": "Point", "coordinates": [-123.146042, 49.272647]}, "properties": {}}, {"type": "Feature", "geometry": {"type": "Point", "coordinates": [151.167562, -33.878655]}, "properties": {}}, {"type": "Feature", "geometry": {"type": "Point", "coordinates": [5.083135, 43.331176]}, "properties": {}}, {"type": "Feature", "geometry": {"type": "Point", "coordinates": [2.199747, 41.541514]}, "properties": {}}, {"type": "Feature", "geometry": {"type": "Point", "coordinates": [-7.409042, 37.222317]}, "properties": {}}, {"type": "Feature", "geometry": {"type": "Point", "coordinates": [-7.734302, 37.084369]}, "properties": {}}, {"type": "Feature", "geometry": {"type": "Point", "coordinates": [10.352557, 43.840997]}, "properties": {}}, {"type": "Feature", "geometry": {"type": "Point", "coordinates": [-122.476973, 37.722053]}, "properties": {}}, {"type": "Feature", "geometry": {"type": "Point", "coordinates": [3.0941, 39.355362]}, "properties": {}}, {"type": "Feature", "geometry": {"type": "Point", "coordinates": [-7.73456, 37.084588]}, "properties": {}}, {"type": "Feature", "geometry": {"type": "Point", "coordinates": [-121.312636, 37.976301]}, "properties": {}}, {"type": "Feature", "geometry": {"type": "Point", "coordinates": [-7.272412, 37.219903]}, "properties": {}}, {"type": "Feature", "geometry": {"type": "Point", "coordinates": [172.576384, -43.484578]}, "properties": {}}, {"type": "Feature", "geometry": {"type": "Point", "coordinates": [-7.735898, 37.084243]}, "properties": {}}, {"type": "Feature", "geometry": {"type": "Point", "coordinates": [2.046479, 41.371882]}, "properties": {}}, {"type": "Feature", "geometry": {"type": "Point", "coordinates": [-121.914352, 36.621545]}, "properties": {}}, {"type": "Feature", "geometry": {"type": "Point", "coordinates": [-6.106287, 37.414623]}, "properties": {}}, {"type": "Feature", "geometry": {"type": "Point", "coordinates": [172.957725, -40.811839]}, "properties": {}}, {"type": "Feature", "geometry": {"type": "Point", "coordinates": [-122.644045, 45.510439]}, "properties": {}}, {"type": "Feature", "geometry": {"type": "Point", "coordinates": [170.819343, -42.89802]}, "properties": {}}, {"type": "Feature", "geometry": {"type": "Point", "coordinates": [1.088808, 41.158144]}, "properties": {}}, {"type": "Feature", "geometry": {"type": "Point", "coordinates": [174.776319, -41.312212]}, "properties": {}}, {"type": "Feature", "geometry": {"type": "Point", "coordinates": [175.03252, -41.193902]}, "properties": {}}, {"type": "Feature", "geometry": {"type": "Point", "coordinates": [-124.084967, 40.871008]}, "properties": {}}, {"type": "Feature", "geometry": {"type": "Point", "coordinates": [14.285537, 36.035978]}, "properties": {}}, {"type": "Feature", "geometry": {"type": "Point", "coordinates": [-7.623436, 37.130115]}, "properties": {}}, {"type": "Feature", "geometry": {"type": "Point", "coordinates": [8.968263, 44.435057]}, "properties": {}}, {"type": "Feature", "geometry": {"type": "Point", "coordinates": [168.727704, -45.015102]}, "properties": {}}, {"type": "Feature", "geometry": {"type": "Point", "coordinates": [3.859167, 43.622656]}, "properties": {}}, {"type": "Feature", "geometry": {"type": "Point", "coordinates": [14.546108, 36.816497]}, "properties": {}}, {"type": "Feature", "geometry": {"type": "Point", "coordinates": [3.859167, 43.622656]}, "properties": {}}, {"type": "Feature", "geometry": {"type": "Point", "coordinates": [-122.021254, 36.965411]}, "properties": {}}, {"type": "Feature", "geometry": {"type": "Point", "coordinates": [170.503903, -45.882649]}, "properties": {}}, {"type": "Feature", "geometry": {"type": "Point", "coordinates": [-7.935198, 37.016418]}, "properties": {}}, {"type": "Feature", "geometry": {"type": "Point", "coordinates": [-6.420974, 36.700086]}, "properties": {}}, {"type": "Feature", "geometry": {"type": "Point", "coordinates": [-5.296163, 35.890404]}, "properties": {}}, {"type": "Feature", "geometry": {"type": "Point", "coordinates": [174.558686, -36.146031]}, "properties": {}}, {"type": "Feature", "geometry": {"type": "Point", "coordinates": [-5.577049, 36.03292]}, "properties": {}}, {"type": "Feature", "geometry": {"type": "Point", "coordinates": [114.098845, 22.502548]}, "properties": {}}, {"type": "Feature", "geometry": {"type": "Point", "coordinates": [0.268596, 50.774354]}, "properties": {}}, {"type": "Feature", "geometry": {"type": "Point", "coordinates": [0.086801, 50.776985]}, "properties": {}}, {"type": "Feature", "geometry": {"type": "Point", "coordinates": [3.9, 51.7]}, "properties": {}}, {"type": "Feature", "geometry": {"type": "Point", "coordinates": [3.9, 51.7]}, "properties": {}}, {"type": "Feature", "geometry": {"type": "Point", "coordinates": [-5.990315, 37.422223]}, "properties": {}}, {"type": "Feature", "geometry": {"type": "Point", "coordinates": [-7.728572, 37.071802]}, "properties": {}}, {"type": "Feature", "geometry": {"type": "Point", "coordinates": [3.9, 51.7]}, "properties": {}}, {"type": "Feature", "geometry": {"type": "Point", "coordinates": [-4.043492, 43.174449]}, "properties": {}}, {"type": "Feature", "geometry": {"type": "Point", "coordinates": [-4.5688, 36.689614]}, "properties": {}}, {"type": "Feature", "geometry": {"type": "Point", "coordinates": [3.9, 51.7]}, "properties": {}}, {"type": "Feature", "geometry": {"type": "Point", "coordinates": [-6.414553, 36.69574]}, "properties": {}}, {"type": "Feature", "geometry": {"type": "Point", "coordinates": [-7.623436, 37.130115]}, "properties": {}}, {"type": "Feature", "geometry": {"type": "Point", "coordinates": [-5.187143, 43.385965]}, "properties": {}}, {"type": "Feature", "geometry": {"type": "Point", "coordinates": [-7.623436, 37.130115]}, "properties": {}}, {"type": "Feature", "geometry": {"type": "Point", "coordinates": [-122.109375, 39.782035]}, "properties": {}}, {"type": "Feature", "geometry": {"type": "Point", "coordinates": [-7.931329, 37.031201]}, "properties": {}}, {"type": "Feature", "geometry": {"type": "Point", "coordinates": [-0.506016, 39.581826]}, "properties": {}}, {"type": "Feature", "geometry": {"type": "Point", "coordinates": [-7.476567, 39.731458]}, "properties": {}}, {"type": "Feature", "geometry": {"type": "Point", "coordinates": [-122.05853, 36.974738]}, "properties": {}}, {"type": "Feature", "geometry": {"type": "Point", "coordinates": [-1.900582, 52.47414]}, "properties": {}}, {"type": "Feature", "geometry": {"type": "Point", "coordinates": [0.055505, 46.359773]}, "properties": {}}, {"type": "Feature", "geometry": {"type": "Point", "coordinates": [10.00545, 44.322221]}, "properties": {}}, {"type": "Feature", "geometry": {"type": "Point", "coordinates": [7.295456, 43.72301]}, "properties": {}}, {"type": "Feature", "geometry": {"type": "Point", "coordinates": [-6.408242, 36.712401]}, "properties": {}}, {"type": "Feature", "geometry": {"type": "Point", "coordinates": [-5.934673, 37.354554]}, "properties": {}}, {"type": "Feature", "geometry": {"type": "Point", "coordinates": [-7.921478, 37.06413]}, "properties": {}}, {"type": "Feature", "geometry": {"type": "Point", "coordinates": [8.763772, 39.919739]}, "properties": {}}, {"type": "Feature", "geometry": {"type": "Point", "coordinates": [5.802743, 43.199593]}, "properties": {}}, {"type": "Feature", "geometry": {"type": "Point", "coordinates": [4.874725, 43.514094]}, "properties": {}}, {"type": "Feature", "geometry": {"type": "Point", "coordinates": [-72.33583, -39.64123]}, "properties": {}}, {"type": "Feature", "geometry": {"type": "Point", "coordinates": [4.46803, 51.22047]}, "properties": {}}, {"type": "Feature", "geometry": {"type": "Point", "coordinates": [4.44387, 51.09496]}, "properties": {}}, {"type": "Feature", "geometry": {"type": "Point", "coordinates": [2.76132, 51.14715]}, "properties": {}}, {"type": "Feature", "geometry": {"type": "Point", "coordinates": [14.380325, 35.948475]}, "properties": {}}, {"type": "Feature", "geometry": {"type": "Point", "coordinates": [1.990737, 41.561986]}, "properties": {}}, {"type": "Feature", "geometry": {"type": "Point", "coordinates": [-7.429835, 39.285521]}, "properties": {}}, {"type": "Feature", "geometry": {"type": "Point", "coordinates": [-1.070212, 53.952782]}, "properties": {}}, {"type": "Feature", "geometry": {"type": "Point", "coordinates": [-0.201117, 38.514432]}, "properties": {}}, {"type": "Feature", "geometry": {"type": "Point", "coordinates": [12.445452, 37.877153]}, "properties": {}}, {"type": "Feature", "geometry": {"type": "Point", "coordinates": [-122.479513, 37.724221]}, "properties": {}}, {"type": "Feature", "geometry": {"type": "Point", "coordinates": [1.891337, 41.54517]}, "properties": {}}, {"type": "Feature", "geometry": {"type": "Point", "coordinates": [-1.56254, 47.215308]}, "properties": {}}, {"type": "Feature", "geometry": {"type": "Point", "coordinates": [2.158675, 41.363224]}, "properties": {}}, {"type": "Feature", "geometry": {"type": "Point", "coordinates": [-6.408051, 36.713096]}, "properties": {}}, {"type": "Feature", "geometry": {"type": "Point", "coordinates": [12.424089, 37.956784]}, "properties": {}}, {"type": "Feature", "geometry": {"type": "Point", "coordinates": [-122.028581, 36.970581]}, "properties": {}}, {"type": "Feature", "geometry": {"type": "Point", "coordinates": [14.482319, 35.90463]}, "properties": {}}, {"type": "Feature", "geometry": {"type": "Point", "coordinates": [2.761301, 51.147136]}, "properties": {}}, {"type": "Feature", "geometry": {"type": "Point", "coordinates": [14.428333, 35.920474]}, "properties": {}}, {"type": "Feature", "geometry": {"type": "Point", "coordinates": [12.794114, 37.676436]}, "properties": {}}, {"type": "Feature", "geometry": {"type": "Point", "coordinates": [-9.108297, 38.771188]}, "properties": {}}, {"type": "Feature", "geometry": {"type": "Point", "coordinates": [12.314529, 37.927355]}, "properties": {}}, {"type": "Feature", "geometry": {"type": "Point", "coordinates": [15.868317, 39.618919]}, "properties": {}}, {"type": "Feature", "geometry": {"type": "Point", "coordinates": [12.793865, 37.676722]}, "properties": {}}, {"type": "Feature", "geometry": {"type": "Point", "coordinates": [3.232125, 43.265251]}, "properties": {}}, {"type": "Feature", "geometry": {"type": "Point", "coordinates": [1.891337, 41.54517]}, "properties": {}}, {"type": "Feature", "geometry": {"type": "Point", "coordinates": [-124.068366, 40.854547]}, "properties": {}}, {"type": "Feature", "geometry": {"type": "Point", "coordinates": [-8.262442, 37.084339]}, "properties": {}}, {"type": "Feature", "geometry": {"type": "Point", "coordinates": [-0.19792, 38.515658]}, "properties": {}}, {"type": "Feature", "geometry": {"type": "Point", "coordinates": [12.287971, 41.741057]}, "properties": {}}, {"type": "Feature", "geometry": {"type": "Point", "coordinates": [-5.938492, 37.351905]}, "properties": {}}, {"type": "Feature", "geometry": {"type": "Point", "coordinates": [2.191133, 41.458948]}, "properties": {}}, {"type": "Feature", "geometry": {"type": "Point", "coordinates": [-1.900883, 50.717387]}, "properties": {}}, {"type": "Feature", "geometry": {"type": "Point", "coordinates": [-5.938504, 37.351966]}, "properties": {}}, {"type": "Feature", "geometry": {"type": "Point", "coordinates": [-5.938571, 37.352005]}, "properties": {}}, {"type": "Feature", "geometry": {"type": "Point", "coordinates": [3.285667, 39.647039]}, "properties": {}}, {"type": "Feature", "geometry": {"type": "Point", "coordinates": [-8.466902, 37.093858]}, "properties": {}}, {"type": "Feature", "geometry": {"type": "Point", "coordinates": [-0.375538, 39.480637]}, "properties": {}}, {"type": "Feature", "geometry": {"type": "Point", "coordinates": [10.275087, 43.970493]}, "properties": {}}, {"type": "Feature", "geometry": {"type": "Point", "coordinates": [14.283428, 36.060058]}, "properties": {}}, {"type": "Feature", "geometry": {"type": "Point", "coordinates": [3.859583, 43.623011]}, "properties": {}}, {"type": "Feature", "geometry": {"type": "Point", "coordinates": [-9.138211, 38.628204]}, "properties": {}}, {"type": "Feature", "geometry": {"type": "Point", "coordinates": [-5.996438, 37.367662]}, "properties": {}}, {"type": "Feature", "geometry": {"type": "Point", "coordinates": [14.128742, 41.318058]}, "properties": {}}, {"type": "Feature", "geometry": {"type": "Point", "coordinates": [12.464752, 41.630059]}, "properties": {}}, {"type": "Feature", "geometry": {"type": "Point", "coordinates": [-122.67265, 38.342471]}, "properties": {}}, {"type": "Feature", "geometry": {"type": "Point", "coordinates": [12.843347, 37.940247]}, "properties": {}}, {"type": "Feature", "geometry": {"type": "Point", "coordinates": [-7.968106, 37.115666]}, "properties": {}}, {"type": "Feature", "geometry": {"type": "Point", "coordinates": [-58.670446, -34.572473]}, "properties": {}}, {"type": "Feature", "geometry": {"type": "Point", "coordinates": [10.447045, 43.736363]}, "properties": {}}, {"type": "Feature", "geometry": {"type": "Point", "coordinates": [-0.152883, 38.560837]}, "properties": {}}, {"type": "Feature", "geometry": {"type": "Point", "coordinates": [0.093488, 38.720681]}, "properties": {}}, {"type": "Feature", "geometry": {"type": "Point", "coordinates": [14.547399, 41.004332]}, "properties": {}}, {"type": "Feature", "geometry": {"type": "Point", "coordinates": [-1.225472, 38.063847]}, "properties": {}}, {"type": "Feature", "geometry": {"type": "Point", "coordinates": [-1.893811, 50.742598]}, "properties": {}}, {"type": "Feature", "geometry": {"type": "Point", "coordinates": [12.796355, 42.025711]}, "properties": {}}, {"type": "Feature", "geometry": {"type": "Point", "coordinates": [-0.42681, 38.375116]}, "properties": {}}, {"type": "Feature", "geometry": {"type": "Point", "coordinates": [-8.534694, 37.143592]}, "properties": {}}, {"type": "Feature", "geometry": {"type": "Point", "coordinates": [3.332639, 43.648089]}, "properties": {}}, {"type": "Feature", "geometry": {"type": "Point", "coordinates": [-9.049755, 38.645395]}, "properties": {}}, {"type": "Feature", "geometry": {"type": "Point", "coordinates": [-7.609158, 37.142178]}, "properties": {}}, {"type": "Feature", "geometry": {"type": "Point", "coordinates": [25.154429, 35.307409]}, "properties": {}}, {"type": "Feature", "geometry": {"type": "Point", "coordinates": [7.113278, 43.57711]}, "properties": {}}, {"type": "Feature", "geometry": {"type": "Point", "coordinates": [-3.595544, 37.150135]}, "properties": {}}, {"type": "Feature", "geometry": {"type": "Point", "coordinates": [16.325096, 48.227386]}, "properties": {}}, {"type": "Feature", "geometry": {"type": "Point", "coordinates": [1.848957, 41.350241]}, "properties": {}}, {"type": "Feature", "geometry": {"type": "Point", "coordinates": [-6.407444, 36.711402]}, "properties": {}}, {"type": "Feature", "geometry": {"type": "Point", "coordinates": [12.789755, 46.840755]}, "properties": {}}, {"type": "Feature", "geometry": {"type": "Point", "coordinates": [-8.23572, 37.099772]}, "properties": {}}, {"type": "Feature", "geometry": {"type": "Point", "coordinates": [-122.550347, 37.95548]}, "properties": {}}, {"type": "Feature", "geometry": {"type": "Point", "coordinates": [5.31661, 50.93181]}, "properties": {}}, {"type": "Feature", "geometry": {"type": "Point", "coordinates": [3.20961, 51.21569]}, "properties": {}}, {"type": "Feature", "geometry": {"type": "Point", "coordinates": [4.01572, 50.94757]}, "properties": {}}, {"type": "Feature", "geometry": {"type": "Point", "coordinates": [3.27248, 50.82062]}, "properties": {}}, {"type": "Feature", "geometry": {"type": "Point", "coordinates": [4.32668, 50.78343]}, "properties": {}}, {"type": "Feature", "geometry": {"type": "Point", "coordinates": [12.596239, 42.232164]}, "properties": {}}, {"type": "Feature", "geometry": {"type": "Point", "coordinates": [-5.938502, 37.351992]}, "properties": {}}, {"type": "Feature", "geometry": {"type": "Point", "coordinates": [12.835836, 37.939811]}, "properties": {}}, {"type": "Feature", "geometry": {"type": "Point", "coordinates": [-5.93446, 37.357086]}, "properties": {}}, {"type": "Feature", "geometry": {"type": "Point", "coordinates": [9.322417, 44.337972]}, "properties": {}}, {"type": "Feature", "geometry": {"type": "Point", "coordinates": [-0.520696, 38.985997]}, "properties": {}}, {"type": "Feature", "geometry": {"type": "Point", "coordinates": [-8.519867, 41.41777]}, "properties": {}}, {"type": "Feature", "geometry": {"type": "Point", "coordinates": [-122.666425, 38.299747]}, "properties": {}}, {"type": "Feature", "geometry": {"type": "Point", "coordinates": [13.333812, 38.189252]}, "properties": {}}, {"type": "Feature", "geometry": {"type": "Point", "coordinates": [-118.470758, 34.016715]}, "properties": {}}, {"type": "Feature", "geometry": {"type": "Point", "coordinates": [169.468344, -46.560605]}, "properties": {}}, {"type": "Feature", "geometry": {"type": "Point", "coordinates": [-7.429835, 39.285521]}, "properties": {}}, {"type": "Feature", "geometry": {"type": "Point", "coordinates": [8.882898, 39.191177]}, "properties": {}}, {"type": "Feature", "geometry": {"type": "Point", "coordinates": [-5.948561, 36.224954]}, "properties": {}}, {"type": "Feature", "geometry": {"type": "Point", "coordinates": [-4.553503, 37.017461]}, "properties": {}}, {"type": "Feature", "geometry": {"type": "Point", "coordinates": [-8.731059, 37.086646]}, "properties": {}}, {"type": "Feature", "geometry": {"type": "Point", "coordinates": [-1.966126, 48.536507]}, "properties": {}}, {"type": "Feature", "geometry": {"type": "Point", "coordinates": [6.365257, 43.160342]}, "properties": {}}, {"type": "Feature", "geometry": {"type": "Point", "coordinates": [2.970925, 36.74775]}, "properties": {}}, {"type": "Feature", "geometry": {"type": "Point", "coordinates": [9.166386, 44.383394]}, "properties": {}}, {"type": "Feature", "geometry": {"type": "Point", "coordinates": [14.501247, 44.522347]}, "properties": {}}, {"type": "Feature", "geometry": {"type": "Point", "coordinates": [-5.453338, 36.317891]}, "properties": {}}, {"type": "Feature", "geometry": {"type": "Point", "coordinates": [13.352478, 38.169605]}, "properties": {}}, {"type": "Feature", "geometry": {"type": "Point", "coordinates": [1.891337, 41.54517]}, "properties": {}}, {"type": "Feature", "geometry": {"type": "Point", "coordinates": [6.125745, 43.124257]}, "properties": {}}, {"type": "Feature", "geometry": {"type": "Point", "coordinates": [8.763778, 39.917198]}, "properties": {}}, {"type": "Feature", "geometry": {"type": "Point", "coordinates": [6.992511, 43.607844]}, "properties": {}}, {"type": "Feature", "geometry": {"type": "Point", "coordinates": [16.427987, 48.24082]}, "properties": {}}, {"type": "Feature", "geometry": {"type": "Point", "coordinates": [19.725357, 39.719941]}, "properties": {}}, {"type": "Feature", "geometry": {"type": "Point", "coordinates": [-4.485681, 36.639294]}, "properties": {}}, {"type": "Feature", "geometry": {"type": "Point", "coordinates": [-6.115515, 36.313328]}, "properties": {}}, {"type": "Feature", "geometry": {"type": "Point", "coordinates": [7.125361, 43.588396]}, "properties": {}}, {"type": "Feature", "geometry": {"type": "Point", "coordinates": [-122.419253, 37.733453]}, "properties": {}}, {"type": "Feature", "geometry": {"type": "Point", "coordinates": [-124.211108, 41.76963]}, "properties": {}}, {"type": "Feature", "geometry": {"type": "Point", "coordinates": [12.723678, 38.1623]}, "properties": {}}, {"type": "Feature", "geometry": {"type": "Point", "coordinates": [-3.652888, 40.417534]}, "properties": {}}, {"type": "Feature", "geometry": {"type": "Point", "coordinates": [-118.470212, 34.017587]}, "properties": {}}, {"type": "Feature", "geometry": {"type": "Point", "coordinates": [9.401828, 44.345731]}, "properties": {}}, {"type": "Feature", "geometry": {"type": "Point", "coordinates": [9.549495, 45.839817]}, "properties": {}}, {"type": "Feature", "geometry": {"type": "Point", "coordinates": [-2.087432, 51.849556]}, "properties": {}}, {"type": "Feature", "geometry": {"type": "Point", "coordinates": [18.215213, 39.950668]}, "properties": {}}, {"type": "Feature", "geometry": {"type": "Point", "coordinates": [-2.759895, 42.804066]}, "properties": {}}, {"type": "Feature", "geometry": {"type": "Point", "coordinates": [8.836992, 44.435936]}, "properties": {}}, {"type": "Feature", "geometry": {"type": "Point", "coordinates": [-4.533944, 36.611146]}, "properties": {}}, {"type": "Feature", "geometry": {"type": "Point", "coordinates": [-6.364512, 36.773168]}, "properties": {}}, {"type": "Feature", "geometry": {"type": "Point", "coordinates": [-5.938369, 37.352028]}, "properties": {}}, {"type": "Feature", "geometry": {"type": "Point", "coordinates": [-6.348966, 36.78946]}, "properties": {}}, {"type": "Feature", "geometry": {"type": "Point", "coordinates": [-2.085699, 43.099958]}, "properties": {}}, {"type": "Feature", "geometry": {"type": "Point", "coordinates": [0.244588, 42.053494]}, "properties": {}}, {"type": "Feature", "geometry": {"type": "Point", "coordinates": [-2.085587, 43.098997]}, "properties": {}}, {"type": "Feature", "geometry": {"type": "Point", "coordinates": [-8.349296, 37.109004]}, "properties": {}}, {"type": "Feature", "geometry": {"type": "Point", "coordinates": [12.83574, 37.941815]}, "properties": {}}, {"type": "Feature", "geometry": {"type": "Point", "coordinates": [-5.245953, 37.831278]}, "properties": {}}, {"type": "Feature", "geometry": {"type": "Point", "coordinates": [-8.427649, 37.089115]}, "properties": {}}, {"type": "Feature", "geometry": {"type": "Point", "coordinates": [-5.758491, 37.928004]}, "properties": {}}, {"type": "Feature", "geometry": {"type": "Point", "coordinates": [-1.666153, 42.84296]}, "properties": {}}, {"type": "Feature", "geometry": {"type": "Point", "coordinates": [14.024068, 38.037173]}, "properties": {}}, {"type": "Feature", "geometry": {"type": "Point", "coordinates": [0.071225, 38.650642]}, "properties": {}}, {"type": "Feature", "geometry": {"type": "Point", "coordinates": [12.504942, 37.947276]}, "properties": {}}, {"type": "Feature", "geometry": {"type": "Point", "coordinates": [2.589581, 42.81669]}, "properties": {}}, {"type": "Feature", "geometry": {"type": "Point", "coordinates": [-9.129186, 38.747421]}, "properties": {}}, {"type": "Feature", "geometry": {"type": "Point", "coordinates": [11.000509, 43.854048]}, "properties": {}}, {"type": "Feature", "geometry": {"type": "Point", "coordinates": [-0.001261, 38.866261]}, "properties": {}}, {"type": "Feature", "geometry": {"type": "Point", "coordinates": [-4.45764, 36.676291]}, "properties": {}}, {"type": "Feature", "geometry": {"type": "Point", "coordinates": [15.275842, 37.857015]}, "properties": {}}, {"type": "Feature", "geometry": {"type": "Point", "coordinates": [-8.473804, 39.522761]}, "properties": {}}, {"type": "Feature", "geometry": {"type": "Point", "coordinates": [-9.183871, 38.712623]}, "properties": {}}, {"type": "Feature", "geometry": {"type": "Point", "coordinates": [13.505687, 41.647728]}, "properties": {}}, {"type": "Feature", "geometry": {"type": "Point", "coordinates": [9.386771, 42.677181]}, "properties": {}}, {"type": "Feature", "geometry": {"type": "Point", "coordinates": [-7.798256, 37.114844]}, "properties": {}}, {"type": "Feature", "geometry": {"type": "Point", "coordinates": [6.077984, 43.191215]}, "properties": {}}, {"type": "Feature", "geometry": {"type": "Point", "coordinates": [-5.989083, 37.359438]}, "properties": {}}, {"type": "Feature", "geometry": {"type": "Point", "coordinates": [3.860035, 43.622704]}, "properties": {}}, {"type": "Feature", "geometry": {"type": "Point", "coordinates": [6.967988, 43.669898]}, "properties": {}}, {"type": "Feature", "geometry": {"type": "Point", "coordinates": [12.508158, 37.953119]}, "properties": {}}, {"type": "Feature", "geometry": {"type": "Point", "coordinates": [-6.226885, 36.443918]}, "properties": {}}, {"type": "Feature", "geometry": {"type": "Point", "coordinates": [5.927844, 43.103899]}, "properties": {}}, {"type": "Feature", "geometry": {"type": "Point", "coordinates": [-0.873492, 38.170981]}, "properties": {}}, {"type": "Feature", "geometry": {"type": "Point", "coordinates": [-5.59886, 36.012204]}, "properties": {}}, {"type": "Feature", "geometry": {"type": "Point", "coordinates": [-9.175554, 38.671549]}, "properties": {}}, {"type": "Feature", "geometry": {"type": "Point", "coordinates": [-2.45564, 50.519302]}, "properties": {}}, {"type": "Feature", "geometry": {"type": "Point", "coordinates": [-2.702052, 43.372575]}, "properties": {}}, {"type": "Feature", "geometry": {"type": "Point", "coordinates": [-9.324703, 38.864335]}, "properties": {}}, {"type": "Feature", "geometry": {"type": "Point", "coordinates": [-8.761429, 39.290478]}, "properties": {}}, {"type": "Feature", "geometry": {"type": "Point", "coordinates": [9.372878, 44.3163]}, "properties": {}}, {"type": "Feature", "geometry": {"type": "Point", "coordinates": [-8.656589, 41.154986]}, "properties": {}}, {"type": "Feature", "geometry": {"type": "Point", "coordinates": [-8.634063, 37.140156]}, "properties": {}}, {"type": "Feature", "geometry": {"type": "Point", "coordinates": [-8.246005, 37.09906]}, "properties": {}}, {"type": "Feature", "geometry": {"type": "Point", "coordinates": [-8.606475, 40.631336]}, "properties": {}}, {"type": "Feature", "geometry": {"type": "Point", "coordinates": [12.49947, 37.950567]}, "properties": {}}, {"type": "Feature", "geometry": {"type": "Point", "coordinates": [12.49103, 37.949538]}, "properties": {}}, {"type": "Feature", "geometry": {"type": "Point", "coordinates": [2.326379, 41.65647]}, "properties": {}}, {"type": "Feature", "geometry": {"type": "Point", "coordinates": [-4.459516, 36.672209]}, "properties": {}}, {"type": "Feature", "geometry": {"type": "Point", "coordinates": [-122.841417, 38.414108]}, "properties": {}}, {"type": "Feature", "geometry": {"type": "Point", "coordinates": [12.509054, 37.952875]}, "properties": {}}, {"type": "Feature", "geometry": {"type": "Point", "coordinates": [-8.43801, 37.191074]}, "properties": {}}, {"type": "Feature", "geometry": {"type": "Point", "coordinates": [3.162577, 36.559675]}, "properties": {}}, {"type": "Feature", "geometry": {"type": "Point", "coordinates": [12.508683, 37.981962]}, "properties": {}}, {"type": "Feature", "geometry": {"type": "Point", "coordinates": [-4.592307, 36.587974]}, "properties": {}}, {"type": "Feature", "geometry": {"type": "Point", "coordinates": [-121.781605, 38.548234]}, "properties": {}}, {"type": "Feature", "geometry": {"type": "Point", "coordinates": [9.722062, 44.120923]}, "properties": {}}, {"type": "Feature", "geometry": {"type": "Point", "coordinates": [-73.352525, 5.55007]}, "properties": {}}, {"type": "Feature", "geometry": {"type": "Point", "coordinates": [12.317719, 37.92709]}, "properties": {}}, {"type": "Feature", "geometry": {"type": "Point", "coordinates": [-2.455638, 50.519314]}, "properties": {}}]}