{"type": "FeatureCollection", "name": "Origanum vulgare", "features": [{"type": "Feature", "geometry": {"type": "Point", "coordinates": [-70.601563, -33.417078]}, "properties": {}}, {"type": "Feature", "geometry": {"type": "Point", "coordinates": [-0.047242, 51.493808]}, "properties": {}}, {"type": "Feature", "geometry": {"type": "Point", "coordinates": [11.9068, 58.33733]}, "properties": {}}, {"type": "Feature", "geometry": {"type": "Point", "coordinates": [12.00562, 57.70571]}, "properties": {}}, {"type": "Feature", "geometry": {"type": "Point", "coordinates": [12.304488, 55.820015]}, "properties": {}}, {"type": "Feature", "geometry": {"type": "Point", "coordinates": [12.87898, 56.70854]}, "properties": {}}, {"type": "Feature", "geometry": {"type": "Point", "coordinates": [18.24605, 57.60342]}, "properties": {}}, {"type": "Feature", "geometry": {"type": "Point", "coordinates": [11.903334, 54.72098]}, "properties": {}}, {"type": "Feature", "geometry": {"type": "Point", "coordinates": [12.609251, 55.667837]}, "properties": {}}, {"type": "Feature", "geometry": {"type": "Point", "coordinates": [-17.794743, 28.613293]}, "properties": {}}, {"type": "Feature", "geometry": {"type": "Point", "coordinates": [11.903325, 54.720989]}, "properties": {}}, {"type": "Feature", "geometry": {"type": "Point", "coordinates": [17.65471, 59.78733]}, "properties": {}}, {"type": "Feature", "geometry": {"type": "Point", "coordinates": [6.95155, 46.34284]}, "properties": {}}, {"type": "Feature", "geometry": {"type": "Point", "coordinates": [175.301892, -37.806572]}, "properties": {}}, {"type": "Feature", "geometry": {"type": "Point", "coordinates": [11.565819, 47.041849]}, "properties": {}}, {"type": "Feature", "geometry": {"type": "Point", "coordinates": [172.343697, -43.648503]}, "properties": {}}, {"type": "Feature", "geometry": {"type": "Point", "coordinates": [10.221825, 43.987812]}, "properties": {}}, {"type": "Feature", "geometry": {"type": "Point", "coordinates": [49.983056, 53.551594]}, "properties": {}}, {"type": "Feature", "geometry": {"type": "Point", "coordinates": [51.30635, 53.92342]}, "properties": {}}, {"type": "Feature", "geometry": {"type": "Point", "coordinates": [69.477153, 55.975939]}, "properties": {}}, {"type": "Feature", "geometry": {"type": "Point", "coordinates": [16.158323, 47.863664]}, "properties": {}}, {"type": "Feature", "geometry": {"type": "Point", "coordinates": [-0.175078, 51.49515]}, "properties": {}}, {"type": "Feature", "geometry": {"type": "Point", "coordinates": [172.676327, -43.498566]}, "properties": {}}, {"type": "Feature", "geometry": {"type": "Point", "coordinates": [16.255219, 48.030594]}, "properties": {}}, {"type": "Feature", "geometry": {"type": "Point", "coordinates": [5.55, 52.0]}, "properties": {}}, {"type": "Feature", "geometry": {"type": "Point", "coordinates": [5.65, 50.8]}, "properties": {}}, {"type": "Feature", "geometry": {"type": "Point", "coordinates": [5.55, 52.0]}, "properties": {}}, {"type": "Feature", "geometry": {"type": "Point", "coordinates": [4.6, 51.9]}, "properties": {}}, {"type": "Feature", "geometry": {"type": "Point", "coordinates": [4.6, 52.35]}, "properties": {}}, {"type": "Feature", "geometry": {"type": "Point", "coordinates": [5.55, 52.0]}, "properties": {}}, {"type": "Feature", "geometry": {"type": "Point", "coordinates": [5.55, 52.0]}, "properties": {}}, {"type": "Feature", "geometry": {"type": "Point", "coordinates": [4.35, 52.15]}, "properties": {}}, {"type": "Feature", "geometry": {"type": "Point", "coordinates": [5.65, 50.75]}, "properties": {}}, {"type": "Feature", "geometry": {"type": "Point", "coordinates": [5.65, 50.8]}, "properties": {}}, {"type": "Feature", "geometry": {"type": "Point", "coordinates": [5.55, 52.0]}, "properties": {}}, {"type": "Feature", "geometry": {"type": "Point", "coordinates": [6.6, 53.2]}, "properties": {}}, {"type": "Feature", "geometry": {"type": "Point", "coordinates": [5.65, 50.85]}, "properties": {}}, {"type": "Feature", "geometry": {"type": "Point", "coordinates": [5.65, 50.8]}, "properties": {}}, {"type": "Feature", "geometry": {"type": "Point", "coordinates": [167.718043, -45.414429]}, "properties": {}}, {"type": "Feature", "geometry": {"type": "Point", "coordinates": [5.35, 51.55]}, "properties": {}}, {"type": "Feature", "geometry": {"type": "Point", "coordinates": [-1.461433, 53.348525]}, "properties": {}}, {"type": "Feature", "geometry": {"type": "Point", "coordinates": [-1.51951, 52.790098]}, "properties": {}}, {"type": "Feature", "geometry": {"type": "Point", "coordinates": [11.9068, 58.33733]}, "properties": {}}, {"type": "Feature", "geometry": {"type": "Point", "coordinates": [16.261012, 48.036974]}, "properties": {}}, {"type": "Feature", "geometry": {"type": "Point", "coordinates": [5.65, 50.8]}, "properties": {}}, {"type": "Feature", "geometry": {"type": "Point", "coordinates": [11.92813, 58.33145]}, "properties": {}}, {"type": "Feature", "geometry": {"type": "Point", "coordinates": [58.62421, 53.79519]}, "properties": {}}, {"type": "Feature", "geometry": {"type": "Point", "coordinates": [49.977708, 53.547338]}, "properties": {}}, {"type": "Feature", "geometry": {"type": "Point", "coordinates": [58.611363, 53.790402]}, "properties": {}}, {"type": "Feature", "geometry": {"type": "Point", "coordinates": [49.977575, 53.547346]}, "properties": {}}, {"type": "Feature", "geometry": {"type": "Point", "coordinates": [49.981382, 53.54449]}, "properties": {}}, {"type": "Feature", "geometry": {"type": "Point", "coordinates": [172.676927, -43.497497]}, "properties": {}}, {"type": "Feature", "geometry": {"type": "Point", "coordinates": [58.605813, 53.794367]}, "properties": {}}, {"type": "Feature", "geometry": {"type": "Point", "coordinates": [58.615058, 53.788528]}, "properties": {}}, {"type": "Feature", "geometry": {"type": "Point", "coordinates": [58.611363, 53.790402]}, "properties": {}}, {"type": "Feature", "geometry": {"type": "Point", "coordinates": [58.62191, 53.792378]}, "properties": {}}, {"type": "Feature", "geometry": {"type": "Point", "coordinates": [-67.63607, -54.936726]}, "properties": {}}, {"type": "Feature", "geometry": {"type": "Point", "coordinates": [31.279265, 58.499294]}, "properties": {}}, {"type": "Feature", "geometry": {"type": "Point", "coordinates": [-8.414985, 40.205262]}, "properties": {}}, {"type": "Feature", "geometry": {"type": "Point", "coordinates": [58.612398, 53.789747]}, "properties": {}}, {"type": "Feature", "geometry": {"type": "Point", "coordinates": [5.9, 51.9]}, "properties": {}}, {"type": "Feature", "geometry": {"type": "Point", "coordinates": [6.759546, 51.437477]}, "properties": {}}, {"type": "Feature", "geometry": {"type": "Point", "coordinates": [14.323711, 48.335436]}, "properties": {}}, {"type": "Feature", "geometry": {"type": "Point", "coordinates": [4.6, 51.8]}, "properties": {}}, {"type": "Feature", "geometry": {"type": "Point", "coordinates": [4.45, 52.15]}, "properties": {}}, {"type": "Feature", "geometry": {"type": "Point", "coordinates": [5.5, 52.0]}, "properties": {}}, {"type": "Feature", "geometry": {"type": "Point", "coordinates": [4.45, 51.9]}, "properties": {}}, {"type": "Feature", "geometry": {"type": "Point", "coordinates": [5.65, 50.8]}, "properties": {}}, {"type": "Feature", "geometry": {"type": "Point", "coordinates": [6.1, 52.3]}, "properties": {}}, {"type": "Feature", "geometry": {"type": "Point", "coordinates": [5.8, 50.85]}, "properties": {}}, {"type": "Feature", "geometry": {"type": "Point", "coordinates": [3.45, 51.5]}, "properties": {}}, {"type": "Feature", "geometry": {"type": "Point", "coordinates": [5.8, 50.85]}, "properties": {}}, {"type": "Feature", "geometry": {"type": "Point", "coordinates": [3.75, 51.25]}, "properties": {}}, {"type": "Feature", "geometry": {"type": "Point", "coordinates": [5.35, 52.05]}, "properties": {}}, {"type": "Feature", "geometry": {"type": "Point", "coordinates": [3.75, 51.25]}, "properties": {}}, {"type": "Feature", "geometry": {"type": "Point", "coordinates": [5.8, 50.85]}, "properties": {}}, {"type": "Feature", "geometry": {"type": "Point", "coordinates": [50.001997, 53.547971]}, "properties": {}}, {"type": "Feature", "geometry": {"type": "Point", "coordinates": [145.23445, -37.625808]}, "properties": {}}, {"type": "Feature", "geometry": {"type": "Point", "coordinates": [49.992779, 53.549238]}, "properties": {}}, {"type": "Feature", "geometry": {"type": "Point", "coordinates": [172.6769, -43.4975]}, "properties": {}}, {"type": "Feature", "geometry": {"type": "Point", "coordinates": [5.65, 51.85]}, "properties": {}}, {"type": "Feature", "geometry": {"type": "Point", "coordinates": [11.9103, 58.33621]}, "properties": {}}, {"type": "Feature", "geometry": {"type": "Point", "coordinates": [10.698162, 59.318098]}, "properties": {}}, {"type": "Feature", "geometry": {"type": "Point", "coordinates": [5.65, 50.8]}, "properties": {}}, {"type": "Feature", "geometry": {"type": "Point", "coordinates": [3.8, 51.4]}, "properties": {}}, {"type": "Feature", "geometry": {"type": "Point", "coordinates": [-1.518806, 42.703071]}, "properties": {}}, {"type": "Feature", "geometry": {"type": "Point", "coordinates": [4.2, 52.0]}, "properties": {}}, {"type": "Feature", "geometry": {"type": "Point", "coordinates": [4.35, 51.95]}, "properties": {}}, {"type": "Feature", "geometry": {"type": "Point", "coordinates": [5.85, 50.8]}, "properties": {}}, {"type": "Feature", "geometry": {"type": "Point", "coordinates": [-17.800406, 28.596025]}, "properties": {}}, {"type": "Feature", "geometry": {"type": "Point", "coordinates": [7.07276, 51.098186]}, "properties": {}}, {"type": "Feature", "geometry": {"type": "Point", "coordinates": [5.713812, 45.253875]}, "properties": {}}, {"type": "Feature", "geometry": {"type": "Point", "coordinates": [5.392238, 45.845209]}, "properties": {}}, {"type": "Feature", "geometry": {"type": "Point", "coordinates": [173.606338, -42.387967]}, "properties": {}}, {"type": "Feature", "geometry": {"type": "Point", "coordinates": [168.818722, -44.926722]}, "properties": {}}, {"type": "Feature", "geometry": {"type": "Point", "coordinates": [11.313089, 47.267959]}, "properties": {}}, {"type": "Feature", "geometry": {"type": "Point", "coordinates": [-8.8986, 38.572267]}, "properties": {}}, {"type": "Feature", "geometry": {"type": "Point", "coordinates": [173.606338, -42.387962]}, "properties": {}}, {"type": "Feature", "geometry": {"type": "Point", "coordinates": [18.04882, 59.31568]}, "properties": {}}, {"type": "Feature", "geometry": {"type": "Point", "coordinates": [8.209564, 50.424187]}, "properties": {}}, {"type": "Feature", "geometry": {"type": "Point", "coordinates": [17.61883, 59.83578]}, "properties": {}}, {"type": "Feature", "geometry": {"type": "Point", "coordinates": [12.74165, 47.655707]}, "properties": {}}, {"type": "Feature", "geometry": {"type": "Point", "coordinates": [4.6, 51.8]}, "properties": {}}, {"type": "Feature", "geometry": {"type": "Point", "coordinates": [4.95, 52.4]}, "properties": {}}, {"type": "Feature", "geometry": {"type": "Point", "coordinates": [5.7, 50.8]}, "properties": {}}, {"type": "Feature", "geometry": {"type": "Point", "coordinates": [5.5, 52.0]}, "properties": {}}, {"type": "Feature", "geometry": {"type": "Point", "coordinates": [5.95, 51.95]}, "properties": {}}, {"type": "Feature", "geometry": {"type": "Point", "coordinates": [5.85, 50.95]}, "properties": {}}, {"type": "Feature", "geometry": {"type": "Point", "coordinates": [5.65, 50.8]}, "properties": {}}, {"type": "Feature", "geometry": {"type": "Point", "coordinates": [4.5, 52.15]}, "properties": {}}, {"type": "Feature", "geometry": {"type": "Point", "coordinates": [13.17865, 47.583515]}, "properties": {}}, {"type": "Feature", "geometry": {"type": "Point", "coordinates": [5.2, 52.4]}, "properties": {}}, {"type": "Feature", "geometry": {"type": "Point", "coordinates": [5.3, 51.65]}, "properties": {}}, {"type": "Feature", "geometry": {"type": "Point", "coordinates": [4.0, 51.25]}, "properties": {}}, {"type": "Feature", "geometry": {"type": "Point", "coordinates": [5.6, 52.35]}, "properties": {}}, {"type": "Feature", "geometry": {"type": "Point", "coordinates": [4.6, 52.0]}, "properties": {}}, {"type": "Feature", "geometry": {"type": "Point", "coordinates": [5.9, 51.95]}, "properties": {}}, {"type": "Feature", "geometry": {"type": "Point", "coordinates": [4.2, 51.5]}, "properties": {}}, {"type": "Feature", "geometry": {"type": "Point", "coordinates": [13.239021, 47.420228]}, "properties": {}}, {"type": "Feature", "geometry": {"type": "Point", "coordinates": [5.65, 50.8]}, "properties": {}}, {"type": "Feature", "geometry": {"type": "Point", "coordinates": [5.7, 50.75]}, "properties": {}}, {"type": "Feature", "geometry": {"type": "Point", "coordinates": [5.45, 51.95]}, "properties": {}}, {"type": "Feature", "geometry": {"type": "Point", "coordinates": [4.2, 52.05]}, "properties": {}}, {"type": "Feature", "geometry": {"type": "Point", "coordinates": [5.7, 50.75]}, "properties": {}}, {"type": "Feature", "geometry": {"type": "Point", "coordinates": [5.8, 50.85]}, "properties": {}}, {"type": "Feature", "geometry": {"type": "Point", "coordinates": [5.65, 50.8]}, "properties": {}}, {"type": "Feature", "geometry": {"type": "Point", "coordinates": [8.983544, 51.808506]}, "properties": {}}, {"type": "Feature", "geometry": {"type": "Point", "coordinates": [5.25, 51.7]}, "properties": {}}, {"type": "Feature", "geometry": {"type": "Point", "coordinates": [5.45, 52.5]}, "properties": {}}, {"type": "Feature", "geometry": {"type": "Point", "coordinates": [4.45, 51.9]}, "properties": {}}, {"type": "Feature", "geometry": {"type": "Point", "coordinates": [5.65, 50.8]}, "properties": {}}, {"type": "Feature", "geometry": {"type": "Point", "coordinates": [5.3, 51.7]}, "properties": {}}, {"type": "Feature", "geometry": {"type": "Point", "coordinates": [5.65, 50.8]}, "properties": {}}, {"type": "Feature", "geometry": {"type": "Point", "coordinates": [5.35, 51.45]}, "properties": {}}, {"type": "Feature", "geometry": {"type": "Point", "coordinates": [5.75, 50.85]}, "properties": {}}, {"type": "Feature", "geometry": {"type": "Point", "coordinates": [5.85, 50.95]}, "properties": {}}, {"type": "Feature", "geometry": {"type": "Point", "coordinates": [5.95, 51.95]}, "properties": {}}, {"type": "Feature", "geometry": {"type": "Point", "coordinates": [5.8, 50.8]}, "properties": {}}, {"type": "Feature", "geometry": {"type": "Point", "coordinates": [5.25, 51.7]}, "properties": {}}, {"type": "Feature", "geometry": {"type": "Point", "coordinates": [13.049248, 47.316448]}, "properties": {}}, {"type": "Feature", "geometry": {"type": "Point", "coordinates": [4.85, 52.35]}, "properties": {}}, {"type": "Feature", "geometry": {"type": "Point", "coordinates": [5.65, 50.8]}, "properties": {}}, {"type": "Feature", "geometry": {"type": "Point", "coordinates": [5.05, 52.1]}, "properties": {}}, {"type": "Feature", "geometry": {"type": "Point", "coordinates": [5.35, 51.55]}, "properties": {}}, {"type": "Feature", "geometry": {"type": "Point", "coordinates": [1.708447, 50.922329]}, "properties": {}}, {"type": "Feature", "geometry": {"type": "Point", "coordinates": [4.2, 52.0]}, "properties": {}}, {"type": "Feature", "geometry": {"type": "Point", "coordinates": [5.9, 51.95]}, "properties": {}}, {"type": "Feature", "geometry": {"type": "Point", "coordinates": [6.05, 51.35]}, "properties": {}}, {"type": "Feature", "geometry": {"type": "Point", "coordinates": [39.974108, 43.552445]}, "properties": {}}, {"type": "Feature", "geometry": {"type": "Point", "coordinates": [2.434654, 48.835341]}, "properties": {}}, {"type": "Feature", "geometry": {"type": "Point", "coordinates": [-2.631577, 51.506224]}, "properties": {}}, {"type": "Feature", "geometry": {"type": "Point", "coordinates": [1.46814, 43.532484]}, "properties": {}}, {"type": "Feature", "geometry": {"type": "Point", "coordinates": [6.312878, 43.206408]}, "properties": {}}, {"type": "Feature", "geometry": {"type": "Point", "coordinates": [8.109154, 48.868378]}, "properties": {}}, {"type": "Feature", "geometry": {"type": "Point", "coordinates": [50.091055, 53.446341]}, "properties": {}}, {"type": "Feature", "geometry": {"type": "Point", "coordinates": [16.371282, 47.59366]}, "properties": {}}, {"type": "Feature", "geometry": {"type": "Point", "coordinates": [1.164148, 43.674635]}, "properties": {}}, {"type": "Feature", "geometry": {"type": "Point", "coordinates": [2.938027, 43.567739]}, "properties": {}}, {"type": "Feature", "geometry": {"type": "Point", "coordinates": [49.986617, 53.549967]}, "properties": {}}, {"type": "Feature", "geometry": {"type": "Point", "coordinates": [4.848026, 45.854361]}, "properties": {}}, {"type": "Feature", "geometry": {"type": "Point", "coordinates": [18.341005, 54.597619]}, "properties": {}}, {"type": "Feature", "geometry": {"type": "Point", "coordinates": [7.26303, 47.93684]}, "properties": {}}, {"type": "Feature", "geometry": {"type": "Point", "coordinates": [2.937763, 43.564946]}, "properties": {}}, {"type": "Feature", "geometry": {"type": "Point", "coordinates": [50.001899, 53.54672]}, "properties": {}}, {"type": "Feature", "geometry": {"type": "Point", "coordinates": [51.300975, 53.916971]}, "properties": {}}, {"type": "Feature", "geometry": {"type": "Point", "coordinates": [50.091496, 53.447889]}, "properties": {}}, {"type": "Feature", "geometry": {"type": "Point", "coordinates": [5.925968, 49.515058]}, "properties": {}}, {"type": "Feature", "geometry": {"type": "Point", "coordinates": [-2.152923, 51.794371]}, "properties": {}}, {"type": "Feature", "geometry": {"type": "Point", "coordinates": [168.664608, -45.015707]}, "properties": {}}, {"type": "Feature", "geometry": {"type": "Point", "coordinates": [5.65, 51.95]}, "properties": {}}, {"type": "Feature", "geometry": {"type": "Point", "coordinates": [6.1, 51.3]}, "properties": {}}, {"type": "Feature", "geometry": {"type": "Point", "coordinates": [5.65, 50.75]}, "properties": {}}, {"type": "Feature", "geometry": {"type": "Point", "coordinates": [5.7, 50.8]}, "properties": {}}, {"type": "Feature", "geometry": {"type": "Point", "coordinates": [4.8, 52.3]}, "properties": {}}, {"type": "Feature", "geometry": {"type": "Point", "coordinates": [5.75, 51.25]}, "properties": {}}, {"type": "Feature", "geometry": {"type": "Point", "coordinates": [51.303082, 53.881038]}, "properties": {}}, {"type": "Feature", "geometry": {"type": "Point", "coordinates": [50.151286, 53.455061]}, "properties": {}}, {"type": "Feature", "geometry": {"type": "Point", "coordinates": [17.69939, 59.84947]}, "properties": {}}, {"type": "Feature", "geometry": {"type": "Point", "coordinates": [5.8, 50.75]}, "properties": {}}, {"type": "Feature", "geometry": {"type": "Point", "coordinates": [-0.828845, 50.902048]}, "properties": {}}, {"type": "Feature", "geometry": {"type": "Point", "coordinates": [0.151905, 50.874148]}, "properties": {}}, {"type": "Feature", "geometry": {"type": "Point", "coordinates": [-1.465113, 53.333253]}, "properties": {}}, {"type": "Feature", "geometry": {"type": "Point", "coordinates": [-0.664312, 50.886793]}, "properties": {}}, {"type": "Feature", "geometry": {"type": "Point", "coordinates": [-1.575846, 53.095949]}, "properties": {}}, {"type": "Feature", "geometry": {"type": "Point", "coordinates": [149.123358, -35.388676]}, "properties": {}}, {"type": "Feature", "geometry": {"type": "Point", "coordinates": [5.254288, 50.914179]}, "properties": {}}, {"type": "Feature", "geometry": {"type": "Point", "coordinates": [4.8, 52.45]}, "properties": {}}, {"type": "Feature", "geometry": {"type": "Point", "coordinates": [4.3, 51.35]}, "properties": {}}, {"type": "Feature", "geometry": {"type": "Point", "coordinates": [5.85, 51.8]}, "properties": {}}, {"type": "Feature", "geometry": {"type": "Point", "coordinates": [5.55, 51.2]}, "properties": {}}, {"type": "Feature", "geometry": {"type": "Point", "coordinates": [5.35, 52.55]}, "properties": {}}, {"type": "Feature", "geometry": {"type": "Point", "coordinates": [4.85, 51.6]}, "properties": {}}, {"type": "Feature", "geometry": {"type": "Point", "coordinates": [5.35, 51.6]}, "properties": {}}, {"type": "Feature", "geometry": {"type": "Point", "coordinates": [5.15, 52.2]}, "properties": {}}, {"type": "Feature", "geometry": {"type": "Point", "coordinates": [13.034477, 47.839207]}, "properties": {}}, {"type": "Feature", "geometry": {"type": "Point", "coordinates": [5.65, 50.8]}, "properties": {}}, {"type": "Feature", "geometry": {"type": "Point", "coordinates": [13.426502, 48.406578]}, "properties": {}}, {"type": "Feature", "geometry": {"type": "Point", "coordinates": [4.9, 52.45]}, "properties": {}}, {"type": "Feature", "geometry": {"type": "Point", "coordinates": [5.95, 53.2]}, "properties": {}}, {"type": "Feature", "geometry": {"type": "Point", "coordinates": [5.9, 50.8]}, "properties": {}}, {"type": "Feature", "geometry": {"type": "Point", "coordinates": [76.916416, 43.217907]}, "properties": {}}, {"type": "Feature", "geometry": {"type": "Point", "coordinates": [8.466551, 50.529597]}, "properties": {}}, {"type": "Feature", "geometry": {"type": "Point", "coordinates": [-84.275765, 33.733707]}, "properties": {}}, {"type": "Feature", "geometry": {"type": "Point", "coordinates": [9.9439, 48.788953]}, "properties": {}}, {"type": "Feature", "geometry": {"type": "Point", "coordinates": [-9.285909, 38.709342]}, "properties": {}}, {"type": "Feature", "geometry": {"type": "Point", "coordinates": [11.92813, 58.33145]}, "properties": {}}, {"type": "Feature", "geometry": {"type": "Point", "coordinates": [16.5382, 56.70453]}, "properties": {}}, {"type": "Feature", "geometry": {"type": "Point", "coordinates": [11.9103, 58.33621]}, "properties": {}}, {"type": "Feature", "geometry": {"type": "Point", "coordinates": [11.9068, 58.33733]}, "properties": {}}, {"type": "Feature", "geometry": {"type": "Point", "coordinates": [5.75, 50.8]}, "properties": {}}, {"type": "Feature", "geometry": {"type": "Point", "coordinates": [6.0, 51.2]}, "properties": {}}, {"type": "Feature", "geometry": {"type": "Point", "coordinates": [4.95, 52.35]}, "properties": {}}, {"type": "Feature", "geometry": {"type": "Point", "coordinates": [13.047037, 47.301178]}, "properties": {}}, {"type": "Feature", "geometry": {"type": "Point", "coordinates": [3.8, 51.4]}, "properties": {}}, {"type": "Feature", "geometry": {"type": "Point", "coordinates": [5.7, 50.8]}, "properties": {}}, {"type": "Feature", "geometry": {"type": "Point", "coordinates": [5.85, 50.85]}, "properties": {}}, {"type": "Feature", "geometry": {"type": "Point", "coordinates": [5.65, 50.8]}, "properties": {}}, {"type": "Feature", "geometry": {"type": "Point", "coordinates": [5.55, 51.5]}, "properties": {}}, {"type": "Feature", "geometry": {"type": "Point", "coordinates": [5.85, 50.75]}, "properties": {}}, {"type": "Feature", "geometry": {"type": "Point", "coordinates": [3.8, 51.4]}, "properties": {}}, {"type": "Feature", "geometry": {"type": "Point", "coordinates": [5.9, 50.8]}, "properties": {}}, {"type": "Feature", "geometry": {"type": "Point", "coordinates": [5.7, 50.8]}, "properties": {}}, {"type": "Feature", "geometry": {"type": "Point", "coordinates": [5.7, 50.8]}, "properties": {}}, {"type": "Feature", "geometry": {"type": "Point", "coordinates": [10.352688, 50.829132]}, "properties": {}}, {"type": "Feature", "geometry": {"type": "Point", "coordinates": [13.048074, 47.301719]}, "properties": {}}, {"type": "Feature", "geometry": {"type": "Point", "coordinates": [5.7, 51.35]}, "properties": {}}, {"type": "Feature", "geometry": {"type": "Point", "coordinates": [5.7, 50.8]}, "properties": {}}, {"type": "Feature", "geometry": {"type": "Point", "coordinates": [9.950274, 53.592492]}, "properties": {}}, {"type": "Feature", "geometry": {"type": "Point", "coordinates": [5.85, 50.75]}, "properties": {}}, {"type": "Feature", "geometry": {"type": "Point", "coordinates": [5.65, 50.8]}, "properties": {}}, {"type": "Feature", "geometry": {"type": "Point", "coordinates": [-1.719827, 43.010671]}, "properties": {}}, {"type": "Feature", "geometry": {"type": "Point", "coordinates": [4.8, 51.55]}, "properties": {}}, {"type": "Feature", "geometry": {"type": "Point", "coordinates": [13.146476, 47.322093]}, "properties": {}}, {"type": "Feature", "geometry": {"type": "Point", "coordinates": [6.65, 51.95]}, "properties": {}}, {"type": "Feature", "geometry": {"type": "Point", "coordinates": [5.65, 50.8]}, "properties": {}}, {"type": "Feature", "geometry": {"type": "Point", "coordinates": [11.314901, 47.270665]}, "properties": {}}, {"type": "Feature", "geometry": {"type": "Point", "coordinates": [21.382759, 48.136504]}, "properties": {}}, {"type": "Feature", "geometry": {"type": "Point", "coordinates": [-73.910743, 40.714967]}, "properties": {}}, {"type": "Feature", "geometry": {"type": "Point", "coordinates": [38.352397, 44.457567]}, "properties": {}}, {"type": "Feature", "geometry": {"type": "Point", "coordinates": [5.85, 50.75]}, "properties": {}}, {"type": "Feature", "geometry": {"type": "Point", "coordinates": [4.75, 52.5]}, "properties": {}}, {"type": "Feature", "geometry": {"type": "Point", "coordinates": [5.9, 50.8]}, "properties": {}}, {"type": "Feature", "geometry": {"type": "Point", "coordinates": [5.0, 51.55]}, "properties": {}}, {"type": "Feature", "geometry": {"type": "Point", "coordinates": [5.6, 51.7]}, "properties": {}}, {"type": "Feature", "geometry": {"type": "Point", "coordinates": [3.8, 51.4]}, "properties": {}}, {"type": "Feature", "geometry": {"type": "Point", "coordinates": [3.75, 51.4]}, "properties": {}}, {"type": "Feature", "geometry": {"type": "Point", "coordinates": [4.05, 51.4]}, "properties": {}}, {"type": "Feature", "geometry": {"type": "Point", "coordinates": [6.2, 52.1]}, "properties": {}}, {"type": "Feature", "geometry": {"type": "Point", "coordinates": [6.05, 52.35]}, "properties": {}}, {"type": "Feature", "geometry": {"type": "Point", "coordinates": [5.9, 50.8]}, "properties": {}}, {"type": "Feature", "geometry": {"type": "Point", "coordinates": [4.5, 52.15]}, "properties": {}}, {"type": "Feature", "geometry": {"type": "Point", "coordinates": [4.0, 51.3]}, "properties": {}}, {"type": "Feature", "geometry": {"type": "Point", "coordinates": [6.1, 53.25]}, "properties": {}}, {"type": "Feature", "geometry": {"type": "Point", "coordinates": [5.95, 50.8]}, "properties": {}}, {"type": "Feature", "geometry": {"type": "Point", "coordinates": [6.3, 53.25]}, "properties": {}}, {"type": "Feature", "geometry": {"type": "Point", "coordinates": [5.65, 50.8]}, "properties": {}}, {"type": "Feature", "geometry": {"type": "Point", "coordinates": [5.65, 50.8]}, "properties": {}}, {"type": "Feature", "geometry": {"type": "Point", "coordinates": [5.65, 50.8]}, "properties": {}}, {"type": "Feature", "geometry": {"type": "Point", "coordinates": [5.65, 50.8]}, "properties": {}}, {"type": "Feature", "geometry": {"type": "Point", "coordinates": [5.65, 50.8]}, "properties": {}}, {"type": "Feature", "geometry": {"type": "Point", "coordinates": [5.65, 50.8]}, "properties": {}}, {"type": "Feature", "geometry": {"type": "Point", "coordinates": [4.0, 51.3]}, "properties": {}}, {"type": "Feature", "geometry": {"type": "Point", "coordinates": [4.05, 51.4]}, "properties": {}}, {"type": "Feature", "geometry": {"type": "Point", "coordinates": [13.041935, 47.799236]}, "properties": {}}, {"type": "Feature", "geometry": {"type": "Point", "coordinates": [5.65, 50.8]}, "properties": {}}, {"type": "Feature", "geometry": {"type": "Point", "coordinates": [5.65, 50.8]}, "properties": {}}, {"type": "Feature", "geometry": {"type": "Point", "coordinates": [5.4, 52.5]}, "properties": {}}, {"type": "Feature", "geometry": {"type": "Point", "coordinates": [13.024866, 47.606586]}, "properties": {}}, {"type": "Feature", "geometry": {"type": "Point", "coordinates": [3.8, 51.3]}, "properties": {}}, {"type": "Feature", "geometry": {"type": "Point", "coordinates": [5.85, 51.8]}, "properties": {}}, {"type": "Feature", "geometry": {"type": "Point", "coordinates": [5.65, 50.8]}, "properties": {}}, {"type": "Feature", "geometry": {"type": "Point", "coordinates": [5.65, 50.8]}, "properties": {}}, {"type": "Feature", "geometry": {"type": "Point", "coordinates": [5.65, 50.8]}, "properties": {}}, {"type": "Feature", "geometry": {"type": "Point", "coordinates": [5.95, 51.85]}, "properties": {}}, {"type": "Feature", "geometry": {"type": "Point", "coordinates": [5.85, 51.15]}, "properties": {}}, {"type": "Feature", "geometry": {"type": "Point", "coordinates": [4.0, 51.3]}, "properties": {}}, {"type": "Feature", "geometry": {"type": "Point", "coordinates": [4.0, 51.3]}, "properties": {}}, {"type": "Feature", "geometry": {"type": "Point", "coordinates": [4.05, 51.4]}, "properties": {}}, {"type": "Feature", "geometry": {"type": "Point", "coordinates": [5.05, 51.55]}, "properties": {}}, {"type": "Feature", "geometry": {"type": "Point", "coordinates": [5.2, 51.9]}, "properties": {}}, {"type": "Feature", "geometry": {"type": "Point", "coordinates": [5.2, 51.9]}, "properties": {}}, {"type": "Feature", "geometry": {"type": "Point", "coordinates": [6.15, 52.05]}, "properties": {}}, {"type": "Feature", "geometry": {"type": "Point", "coordinates": [4.05, 51.4]}, "properties": {}}, {"type": "Feature", "geometry": {"type": "Point", "coordinates": [5.8, 50.75]}, "properties": {}}, {"type": "Feature", "geometry": {"type": "Point", "coordinates": [5.9, 50.8]}, "properties": {}}, {"type": "Feature", "geometry": {"type": "Point", "coordinates": [5.15, 52.0]}, "properties": {}}, {"type": "Feature", "geometry": {"type": "Point", "coordinates": [5.7, 52.0]}, "properties": {}}, {"type": "Feature", "geometry": {"type": "Point", "coordinates": [5.65, 50.8]}, "properties": {}}, {"type": "Feature", "geometry": {"type": "Point", "coordinates": [3.65, 51.35]}, "properties": {}}, {"type": "Feature", "geometry": {"type": "Point", "coordinates": [4.8, 52.3]}, "properties": {}}, {"type": "Feature", "geometry": {"type": "Point", "coordinates": [13.161787, 47.3353]}, "properties": {}}, {"type": "Feature", "geometry": {"type": "Point", "coordinates": [13.20758, 47.716147]}, "properties": {}}, {"type": "Feature", "geometry": {"type": "Point", "coordinates": [13.06965, 47.793159]}, "properties": {}}, {"type": "Feature", "geometry": {"type": "Point", "coordinates": [13.182309, 47.31686]}, "properties": {}}, {"type": "Feature", "geometry": {"type": "Point", "coordinates": [4.0, 51.3]}, "properties": {}}, {"type": "Feature", "geometry": {"type": "Point", "coordinates": [5.95, 51.85]}, "properties": {}}, {"type": "Feature", "geometry": {"type": "Point", "coordinates": [7.299792, 51.50059]}, "properties": {}}, {"type": "Feature", "geometry": {"type": "Point", "coordinates": [5.65, 50.8]}, "properties": {}}, {"type": "Feature", "geometry": {"type": "Point", "coordinates": [3.9, 51.45]}, "properties": {}}, {"type": "Feature", "geometry": {"type": "Point", "coordinates": [4.85, 52.3]}, "properties": {}}]}