{"type": "FeatureCollection", "name": "Lavandula angustifolia Mill.", "features": [{"type": "Feature", "geometry": {"type": "Point", "coordinates": [18.28223, 57.62976]}, "properties": {}}, {"type": "Feature", "geometry": {"type": "Point", "coordinates": [16.53134, 56.34356]}, "properties": {}}, {"type": "Feature", "geometry": {"type": "Point", "coordinates": [4.36427, 50.91113]}, "properties": {}}, {"type": "Feature", "geometry": {"type": "Point", "coordinates": [5.410628, 43.813352]}, "properties": {}}, {"type": "Feature", "geometry": {"type": "Point", "coordinates": [4.85, 52.35]}, "properties": {}}, {"type": "Feature", "geometry": {"type": "Point", "coordinates": [4.3, 51.95]}, "properties": {}}, {"type": "Feature", "geometry": {"type": "Point", "coordinates": [4.5, 51.9]}, "properties": {}}, {"type": "Feature", "geometry": {"type": "Point", "coordinates": [-43.590833, -22.811389]}, "properties": {}}, {"type": "Feature", "geometry": {"type": "Point", "coordinates": [171.244347, -44.092298]}, "properties": {}}, {"type": "Feature", "geometry": {"type": "Point", "coordinates": [26.090288, 52.119359]}, "properties": {}}, {"type": "Feature", "geometry": {"type": "Point", "coordinates": [-1.091594, 53.946426]}, "properties": {}}, {"type": "Feature", "geometry": {"type": "Point", "coordinates": [4.85, 52.35]}, "properties": {}}, {"type": "Feature", "geometry": {"type": "Point", "coordinates": [-0.165308, 51.314556]}, "properties": {}}, {"type": "Feature", "geometry": {"type": "Point", "coordinates": [-72.874693, 5.512762]}, "properties": {}}, {"type": "Feature", "geometry": {"type": "Point", "coordinates": [2.6653, 51.07645]}, "properties": {}}, {"type": "Feature", "geometry": {"type": "Point", "coordinates": [4.46477, 50.83477]}, "properties": {}}, {"type": "Feature", "geometry": {"type": "Point", "coordinates": [-0.095472, 51.460314]}, "properties": {}}, {"type": "Feature", "geometry": {"type": "Point", "coordinates": [-6.346399, 54.450887]}, "properties": {}}, {"type": "Feature", "geometry": {"type": "Point", "coordinates": [4.45, 52.0]}, "properties": {}}, {"type": "Feature", "geometry": {"type": "Point", "coordinates": [4.85, 52.35]}, "properties": {}}, {"type": "Feature", "geometry": {"type": "Point", "coordinates": [172.46651, -43.643118]}, "properties": {}}, {"type": "Feature", "geometry": {"type": "Point", "coordinates": [4.1, 51.6]}, "properties": {}}, {"type": "Feature", "geometry": {"type": "Point", "coordinates": [13.134675, 46.746772]}, "properties": {}}, {"type": "Feature", "geometry": {"type": "Point", "coordinates": [4.00354, 50.96761]}, "properties": {}}, {"type": "Feature", "geometry": {"type": "Point", "coordinates": [6.966667, 43.719238]}, "properties": {}}, {"type": "Feature", "geometry": {"type": "Point", "coordinates": [2.156507, 42.197237]}, "properties": {}}, {"type": "Feature", "geometry": {"type": "Point", "coordinates": [3.20733, 51.18255]}, "properties": {}}, {"type": "Feature", "geometry": {"type": "Point", "coordinates": [3.20733, 51.18254]}, "properties": {}}, {"type": "Feature", "geometry": {"type": "Point", "coordinates": [3.76491, 51.01986]}, "properties": {}}, {"type": "Feature", "geometry": {"type": "Point", "coordinates": [4.1373, 50.89442]}, "properties": {}}, {"type": "Feature", "geometry": {"type": "Point", "coordinates": [12.14361, 57.52441]}, "properties": {}}, {"type": "Feature", "geometry": {"type": "Point", "coordinates": [4.8, 52.7]}, "properties": {}}, {"type": "Feature", "geometry": {"type": "Point", "coordinates": [5.85, 51.8]}, "properties": {}}, {"type": "Feature", "geometry": {"type": "Point", "coordinates": [6.05, 53.0]}, "properties": {}}, {"type": "Feature", "geometry": {"type": "Point", "coordinates": [4.28513, 50.83484]}, "properties": {}}, {"type": "Feature", "geometry": {"type": "Point", "coordinates": [3.73931, 51.05708]}, "properties": {}}, {"type": "Feature", "geometry": {"type": "Point", "coordinates": [9.207892, 48.904555]}, "properties": {}}, {"type": "Feature", "geometry": {"type": "Point", "coordinates": [-0.187195, 51.56829]}, "properties": {}}, {"type": "Feature", "geometry": {"type": "Point", "coordinates": [12.821847, 46.828022]}, "properties": {}}, {"type": "Feature", "geometry": {"type": "Point", "coordinates": [4.3, 51.95]}, "properties": {}}, {"type": "Feature", "geometry": {"type": "Point", "coordinates": [8.67983, 50.584402]}, "properties": {}}, {"type": "Feature", "geometry": {"type": "Point", "coordinates": [151.127036, -34.082555]}, "properties": {}}, {"type": "Feature", "geometry": {"type": "Point", "coordinates": [11.532583, 50.932122]}, "properties": {}}, {"type": "Feature", "geometry": {"type": "Point", "coordinates": [3.75246, 51.05528]}, "properties": {}}, {"type": "Feature", "geometry": {"type": "Point", "coordinates": [2.64381, 51.12084]}, "properties": {}}, {"type": "Feature", "geometry": {"type": "Point", "coordinates": [4.26641, 51.21384]}, "properties": {}}, {"type": "Feature", "geometry": {"type": "Point", "coordinates": [5.7567, 50.7612]}, "properties": {}}, {"type": "Feature", "geometry": {"type": "Point", "coordinates": [6.156889, 50.856419]}, "properties": {}}, {"type": "Feature", "geometry": {"type": "Point", "coordinates": [7.861371, 49.992664]}, "properties": {}}, {"type": "Feature", "geometry": {"type": "Point", "coordinates": [-79.569516, 40.833393]}, "properties": {}}, {"type": "Feature", "geometry": {"type": "Point", "coordinates": [17.60958, 59.84454]}, "properties": {}}, {"type": "Feature", "geometry": {"type": "Point", "coordinates": [2.69692, 50.87825]}, "properties": {}}, {"type": "Feature", "geometry": {"type": "Point", "coordinates": [4.3004, 50.85873]}, "properties": {}}, {"type": "Feature", "geometry": {"type": "Point", "coordinates": [4.71644, 50.86471]}, "properties": {}}, {"type": "Feature", "geometry": {"type": "Point", "coordinates": [6.520635, 43.898741]}, "properties": {}}, {"type": "Feature", "geometry": {"type": "Point", "coordinates": [12.87825, 56.42277]}, "properties": {}}, {"type": "Feature", "geometry": {"type": "Point", "coordinates": [17.60957, 59.84452]}, "properties": {}}, {"type": "Feature", "geometry": {"type": "Point", "coordinates": [-79.024787, -2.920293]}, "properties": {}}, {"type": "Feature", "geometry": {"type": "Point", "coordinates": [-0.138314, 51.312798]}, "properties": {}}, {"type": "Feature", "geometry": {"type": "Point", "coordinates": [8.970567, 49.840069]}, "properties": {}}, {"type": "Feature", "geometry": {"type": "Point", "coordinates": [5.436335, 43.889933]}, "properties": {}}, {"type": "Feature", "geometry": {"type": "Point", "coordinates": [6.531617, 49.707978]}, "properties": {}}, {"type": "Feature", "geometry": {"type": "Point", "coordinates": [17.5392, 58.9452]}, "properties": {}}, {"type": "Feature", "geometry": {"type": "Point", "coordinates": [3.02503, 50.95756]}, "properties": {}}, {"type": "Feature", "geometry": {"type": "Point", "coordinates": [15.938325, 46.940501]}, "properties": {}}, {"type": "Feature", "geometry": {"type": "Point", "coordinates": [6.9246, 47.123732]}, "properties": {}}, {"type": "Feature", "geometry": {"type": "Point", "coordinates": [-0.366396, 53.752434]}, "properties": {}}, {"type": "Feature", "geometry": {"type": "Point", "coordinates": [-73.116776, 7.127366]}, "properties": {}}, {"type": "Feature", "geometry": {"type": "Point", "coordinates": [-1.058606, 53.94507]}, "properties": {}}, {"type": "Feature", "geometry": {"type": "Point", "coordinates": [0.064036, 51.507598]}, "properties": {}}, {"type": "Feature", "geometry": {"type": "Point", "coordinates": [14.466747, 50.080484]}, "properties": {}}, {"type": "Feature", "geometry": {"type": "Point", "coordinates": [15.45, 46.98]}, "properties": {}}, {"type": "Feature", "geometry": {"type": "Point", "coordinates": [-0.179494, 51.446471]}, "properties": {}}, {"type": "Feature", "geometry": {"type": "Point", "coordinates": [7.655371, 47.71698]}, "properties": {}}, {"type": "Feature", "geometry": {"type": "Point", "coordinates": [16.57001, 56.75981]}, "properties": {}}, {"type": "Feature", "geometry": {"type": "Point", "coordinates": [15.411844, 48.365214]}, "properties": {}}, {"type": "Feature", "geometry": {"type": "Point", "coordinates": [5.44255, 48.863408]}, "properties": {}}, {"type": "Feature", "geometry": {"type": "Point", "coordinates": [-1.058638, 53.945101]}, "properties": {}}, {"type": "Feature", "geometry": {"type": "Point", "coordinates": [11.840609, 48.399944]}, "properties": {}}, {"type": "Feature", "geometry": {"type": "Point", "coordinates": [13.141864, 47.797079]}, "properties": {}}, {"type": "Feature", "geometry": {"type": "Point", "coordinates": [12.14361, 57.52441]}, "properties": {}}, {"type": "Feature", "geometry": {"type": "Point", "coordinates": [17.60956, 59.84468]}, "properties": {}}, {"type": "Feature", "geometry": {"type": "Point", "coordinates": [4.46329, 50.82774]}, "properties": {}}, {"type": "Feature", "geometry": {"type": "Point", "coordinates": [4.39868, 50.85831]}, "properties": {}}, {"type": "Feature", "geometry": {"type": "Point", "coordinates": [4.00503, 50.8969]}, "properties": {}}, {"type": "Feature", "geometry": {"type": "Point", "coordinates": [3.71065, 51.039]}, "properties": {}}, {"type": "Feature", "geometry": {"type": "Point", "coordinates": [4.66454, 50.90112]}, "properties": {}}, {"type": "Feature", "geometry": {"type": "Point", "coordinates": [4.4286, 50.8126]}, "properties": {}}, {"type": "Feature", "geometry": {"type": "Point", "coordinates": [4.39145, 50.81432]}, "properties": {}}, {"type": "Feature", "geometry": {"type": "Point", "coordinates": [-69.717266, 44.250347]}, "properties": {}}, {"type": "Feature", "geometry": {"type": "Point", "coordinates": [16.30164, 56.73908]}, "properties": {}}, {"type": "Feature", "geometry": {"type": "Point", "coordinates": [17.55673, 59.85325]}, "properties": {}}, {"type": "Feature", "geometry": {"type": "Point", "coordinates": [4.43647, 50.81101]}, "properties": {}}, {"type": "Feature", "geometry": {"type": "Point", "coordinates": [4.41811, 50.8067]}, "properties": {}}, {"type": "Feature", "geometry": {"type": "Point", "coordinates": [5.42058, 50.78359]}, "properties": {}}, {"type": "Feature", "geometry": {"type": "Point", "coordinates": [4.85429, 50.83418]}, "properties": {}}, {"type": "Feature", "geometry": {"type": "Point", "coordinates": [4.46438, 50.83009]}, "properties": {}}, {"type": "Feature", "geometry": {"type": "Point", "coordinates": [5.51077, 50.95865]}, "properties": {}}, {"type": "Feature", "geometry": {"type": "Point", "coordinates": [5.17407, 50.98111]}, "properties": {}}, {"type": "Feature", "geometry": {"type": "Point", "coordinates": [3.00109, 50.95997]}, "properties": {}}, {"type": "Feature", "geometry": {"type": "Point", "coordinates": [3.40283, 50.84067]}, "properties": {}}, {"type": "Feature", "geometry": {"type": "Point", "coordinates": [4.45906, 50.82774]}, "properties": {}}, {"type": "Feature", "geometry": {"type": "Point", "coordinates": [4.45669, 50.82412]}, "properties": {}}, {"type": "Feature", "geometry": {"type": "Point", "coordinates": [4.01003, 50.90013]}, "properties": {}}, {"type": "Feature", "geometry": {"type": "Point", "coordinates": [4.41798, 50.80667]}, "properties": {}}, {"type": "Feature", "geometry": {"type": "Point", "coordinates": [3.81686, 50.80895]}, "properties": {}}, {"type": "Feature", "geometry": {"type": "Point", "coordinates": [4.33905, 50.80773]}, "properties": {}}, {"type": "Feature", "geometry": {"type": "Point", "coordinates": [25.185558, 46.244964]}, "properties": {}}, {"type": "Feature", "geometry": {"type": "Point", "coordinates": [-76.040315, 44.489216]}, "properties": {}}, {"type": "Feature", "geometry": {"type": "Point", "coordinates": [34.577869, 45.11294]}, "properties": {}}, {"type": "Feature", "geometry": {"type": "Point", "coordinates": [7.645867, 48.557068]}, "properties": {}}, {"type": "Feature", "geometry": {"type": "Point", "coordinates": [15.286168, 45.183655]}, "properties": {}}, {"type": "Feature", "geometry": {"type": "Point", "coordinates": [34.556044, 45.104871]}, "properties": {}}, {"type": "Feature", "geometry": {"type": "Point", "coordinates": [3.09332, 50.79162]}, "properties": {}}, {"type": "Feature", "geometry": {"type": "Point", "coordinates": [5.08464, 50.91139]}, "properties": {}}, {"type": "Feature", "geometry": {"type": "Point", "coordinates": [4.76291, 50.86924]}, "properties": {}}, {"type": "Feature", "geometry": {"type": "Point", "coordinates": [3.98321, 50.96369]}, "properties": {}}, {"type": "Feature", "geometry": {"type": "Point", "coordinates": [4.02987, 50.93453]}, "properties": {}}, {"type": "Feature", "geometry": {"type": "Point", "coordinates": [3.87884, 51.00513]}, "properties": {}}, {"type": "Feature", "geometry": {"type": "Point", "coordinates": [3.33234, 50.99255]}, "properties": {}}, {"type": "Feature", "geometry": {"type": "Point", "coordinates": [4.40844, 50.80467]}, "properties": {}}, {"type": "Feature", "geometry": {"type": "Point", "coordinates": [4.3892, 50.85246]}, "properties": {}}, {"type": "Feature", "geometry": {"type": "Point", "coordinates": [4.35519, 50.8798]}, "properties": {}}, {"type": "Feature", "geometry": {"type": "Point", "coordinates": [4.70832, 51.27137]}, "properties": {}}, {"type": "Feature", "geometry": {"type": "Point", "coordinates": [3.42589, 50.88843]}, "properties": {}}, {"type": "Feature", "geometry": {"type": "Point", "coordinates": [4.045, 50.95105]}, "properties": {}}, {"type": "Feature", "geometry": {"type": "Point", "coordinates": [3.96386, 50.92956]}, "properties": {}}, {"type": "Feature", "geometry": {"type": "Point", "coordinates": [4.4672, 51.19927]}, "properties": {}}, {"type": "Feature", "geometry": {"type": "Point", "coordinates": [3.24734, 50.92446]}, "properties": {}}, {"type": "Feature", "geometry": {"type": "Point", "coordinates": [4.51384, 51.2485]}, "properties": {}}, {"type": "Feature", "geometry": {"type": "Point", "coordinates": [3.21041, 51.1916]}, "properties": {}}, {"type": "Feature", "geometry": {"type": "Point", "coordinates": [6.590945, 44.755486]}, "properties": {}}, {"type": "Feature", "geometry": {"type": "Point", "coordinates": [-9.273628, 38.846047]}, "properties": {}}, {"type": "Feature", "geometry": {"type": "Point", "coordinates": [10.522701, 43.722205]}, "properties": {}}, {"type": "Feature", "geometry": {"type": "Point", "coordinates": [20.387406, 47.911745]}, "properties": {}}, {"type": "Feature", "geometry": {"type": "Point", "coordinates": [2.030799, 41.358644]}, "properties": {}}, {"type": "Feature", "geometry": {"type": "Point", "coordinates": [-73.967385, 4.794102]}, "properties": {}}, {"type": "Feature", "geometry": {"type": "Point", "coordinates": [7.453897, 50.75152]}, "properties": {}}, {"type": "Feature", "geometry": {"type": "Point", "coordinates": [20.380678, 47.885493]}, "properties": {}}, {"type": "Feature", "geometry": {"type": "Point", "coordinates": [4.9, 52.3]}, "properties": {}}, {"type": "Feature", "geometry": {"type": "Point", "coordinates": [5.85, 51.9]}, "properties": {}}, {"type": "Feature", "geometry": {"type": "Point", "coordinates": [13.427285, 47.731423]}, "properties": {}}, {"type": "Feature", "geometry": {"type": "Point", "coordinates": [4.45, 51.9]}, "properties": {}}, {"type": "Feature", "geometry": {"type": "Point", "coordinates": [5.6, 52.3]}, "properties": {}}, {"type": "Feature", "geometry": {"type": "Point", "coordinates": [4.85, 52.4]}, "properties": {}}, {"type": "Feature", "geometry": {"type": "Point", "coordinates": [5.05, 51.55]}, "properties": {}}, {"type": "Feature", "geometry": {"type": "Point", "coordinates": [4.45, 51.9]}, "properties": {}}, {"type": "Feature", "geometry": {"type": "Point", "coordinates": [5.84774, 44.036387]}, "properties": {}}, {"type": "Feature", "geometry": {"type": "Point", "coordinates": [5.1, 52.05]}, "properties": {}}, {"type": "Feature", "geometry": {"type": "Point", "coordinates": [5.9, 51.95]}, "properties": {}}, {"type": "Feature", "geometry": {"type": "Point", "coordinates": [5.05, 52.05]}, "properties": {}}, {"type": "Feature", "geometry": {"type": "Point", "coordinates": [5.05, 52.05]}, "properties": {}}, {"type": "Feature", "geometry": {"type": "Point", "coordinates": [4.85, 52.35]}, "properties": {}}, {"type": "Feature", "geometry": {"type": "Point", "coordinates": [4.39738, 50.82303]}, "properties": {}}, {"type": "Feature", "geometry": {"type": "Point", "coordinates": [4.70631, 50.94553]}, "properties": {}}, {"type": "Feature", "geometry": {"type": "Point", "coordinates": [3.03063, 51.27483]}, "properties": {}}, {"type": "Feature", "geometry": {"type": "Point", "coordinates": [4.32871, 50.90082]}, "properties": {}}, {"type": "Feature", "geometry": {"type": "Point", "coordinates": [3.7543, 51.04699]}, "properties": {}}, {"type": "Feature", "geometry": {"type": "Point", "coordinates": [3.13085, 51.30446]}, "properties": {}}, {"type": "Feature", "geometry": {"type": "Point", "coordinates": [3.44205, 51.09072]}, "properties": {}}, {"type": "Feature", "geometry": {"type": "Point", "coordinates": [4.44102, 51.22026]}, "properties": {}}, {"type": "Feature", "geometry": {"type": "Point", "coordinates": [3.70002, 51.05925]}, "properties": {}}, {"type": "Feature", "geometry": {"type": "Point", "coordinates": [4.48931, 51.25859]}, "properties": {}}, {"type": "Feature", "geometry": {"type": "Point", "coordinates": [4.30707, 50.87149]}, "properties": {}}, {"type": "Feature", "geometry": {"type": "Point", "coordinates": [3.65873, 51.05867]}, "properties": {}}, {"type": "Feature", "geometry": {"type": "Point", "coordinates": [4.42671, 51.18498]}, "properties": {}}, {"type": "Feature", "geometry": {"type": "Point", "coordinates": [4.66444, 50.9012]}, "properties": {}}, {"type": "Feature", "geometry": {"type": "Point", "coordinates": [3.32537, 50.93239]}, "properties": {}}, {"type": "Feature", "geometry": {"type": "Point", "coordinates": [11.911, 57.68968]}, "properties": {}}, {"type": "Feature", "geometry": {"type": "Point", "coordinates": [11.91098, 57.68971]}, "properties": {}}, {"type": "Feature", "geometry": {"type": "Point", "coordinates": [5.05, 52.1]}, "properties": {}}, {"type": "Feature", "geometry": {"type": "Point", "coordinates": [5.1, 52.1]}, "properties": {}}, {"type": "Feature", "geometry": {"type": "Point", "coordinates": [5.85, 51.8]}, "properties": {}}, {"type": "Feature", "geometry": {"type": "Point", "coordinates": [3.6, 51.45]}, "properties": {}}, {"type": "Feature", "geometry": {"type": "Point", "coordinates": [4.75, 51.8]}, "properties": {}}, {"type": "Feature", "geometry": {"type": "Point", "coordinates": [4.45, 51.9]}, "properties": {}}, {"type": "Feature", "geometry": {"type": "Point", "coordinates": [5.47506, 43.817232]}, "properties": {}}, {"type": "Feature", "geometry": {"type": "Point", "coordinates": [2.942093, 51.233091]}, "properties": {}}, {"type": "Feature", "geometry": {"type": "Point", "coordinates": [4.75875, 50.86441]}, "properties": {}}, {"type": "Feature", "geometry": {"type": "Point", "coordinates": [4.75635, 50.85203]}, "properties": {}}, {"type": "Feature", "geometry": {"type": "Point", "coordinates": [5.31446, 50.89914]}, "properties": {}}, {"type": "Feature", "geometry": {"type": "Point", "coordinates": [4.75631, 50.85194]}, "properties": {}}, {"type": "Feature", "geometry": {"type": "Point", "coordinates": [4.49434, 51.13684]}, "properties": {}}, {"type": "Feature", "geometry": {"type": "Point", "coordinates": [2.94496, 51.23004]}, "properties": {}}, {"type": "Feature", "geometry": {"type": "Point", "coordinates": [2.94206, 51.23309]}, "properties": {}}, {"type": "Feature", "geometry": {"type": "Point", "coordinates": [7.14394, 46.79328]}, "properties": {}}, {"type": "Feature", "geometry": {"type": "Point", "coordinates": [6.68992, 46.47635]}, "properties": {}}, {"type": "Feature", "geometry": {"type": "Point", "coordinates": [2.442075, 48.839344]}, "properties": {}}, {"type": "Feature", "geometry": {"type": "Point", "coordinates": [12.926515, 47.983397]}, "properties": {}}, {"type": "Feature", "geometry": {"type": "Point", "coordinates": [12.52412, 55.816095]}, "properties": {}}, {"type": "Feature", "geometry": {"type": "Point", "coordinates": [-2.280852, 51.262321]}, "properties": {}}, {"type": "Feature", "geometry": {"type": "Point", "coordinates": [-0.343468, 52.635785]}, "properties": {}}, {"type": "Feature", "geometry": {"type": "Point", "coordinates": [-2.422683, 51.100038]}, "properties": {}}, {"type": "Feature", "geometry": {"type": "Point", "coordinates": [-0.294493, 52.671899]}, "properties": {}}, {"type": "Feature", "geometry": {"type": "Point", "coordinates": [4.25, 52.05]}, "properties": {}}, {"type": "Feature", "geometry": {"type": "Point", "coordinates": [4.1, 51.95]}, "properties": {}}, {"type": "Feature", "geometry": {"type": "Point", "coordinates": [5.95, 51.5]}, "properties": {}}, {"type": "Feature", "geometry": {"type": "Point", "coordinates": [16.099532, 47.958394]}, "properties": {}}, {"type": "Feature", "geometry": {"type": "Point", "coordinates": [5.0, 52.1]}, "properties": {}}, {"type": "Feature", "geometry": {"type": "Point", "coordinates": [4.46747, 51.20371]}, "properties": {}}, {"type": "Feature", "geometry": {"type": "Point", "coordinates": [2.93038, 51.21373]}, "properties": {}}, {"type": "Feature", "geometry": {"type": "Point", "coordinates": [4.46784, 51.19979]}, "properties": {}}, {"type": "Feature", "geometry": {"type": "Point", "coordinates": [4.38406, 50.82345]}, "properties": {}}, {"type": "Feature", "geometry": {"type": "Point", "coordinates": [2.90424, 51.21051]}, "properties": {}}, {"type": "Feature", "geometry": {"type": "Point", "coordinates": [2.93659, 51.17469]}, "properties": {}}, {"type": "Feature", "geometry": {"type": "Point", "coordinates": [4.33103, 50.89999]}, "properties": {}}, {"type": "Feature", "geometry": {"type": "Point", "coordinates": [4.9, 52.35]}, "properties": {}}, {"type": "Feature", "geometry": {"type": "Point", "coordinates": [5.4, 51.6]}, "properties": {}}, {"type": "Feature", "geometry": {"type": "Point", "coordinates": [9.65973, 47.44695]}, "properties": {}}, {"type": "Feature", "geometry": {"type": "Point", "coordinates": [6.68992, 46.47635]}, "properties": {}}, {"type": "Feature", "geometry": {"type": "Point", "coordinates": [7.34139, 46.25389]}, "properties": {}}, {"type": "Feature", "geometry": {"type": "Point", "coordinates": [-0.158798, 51.37664]}, "properties": {}}, {"type": "Feature", "geometry": {"type": "Point", "coordinates": [11.405875, 47.283787]}, "properties": {}}, {"type": "Feature", "geometry": {"type": "Point", "coordinates": [15.399321, 46.986006]}, "properties": {}}, {"type": "Feature", "geometry": {"type": "Point", "coordinates": [4.64884, 50.77774]}, "properties": {}}, {"type": "Feature", "geometry": {"type": "Point", "coordinates": [-2.27773, 36.835293]}, "properties": {}}, {"type": "Feature", "geometry": {"type": "Point", "coordinates": [8.33465, 47.50978]}, "properties": {}}, {"type": "Feature", "geometry": {"type": "Point", "coordinates": [6.49384, 46.51986]}, "properties": {}}, {"type": "Feature", "geometry": {"type": "Point", "coordinates": [16.472163, 48.223325]}, "properties": {}}, {"type": "Feature", "geometry": {"type": "Point", "coordinates": [-2.47492, 52.903089]}, "properties": {}}, {"type": "Feature", "geometry": {"type": "Point", "coordinates": [-0.32831, 52.682953]}, "properties": {}}, {"type": "Feature", "geometry": {"type": "Point", "coordinates": [-1.173498, 52.266766]}, "properties": {}}, {"type": "Feature", "geometry": {"type": "Point", "coordinates": [4.46775, 51.20575]}, "properties": {}}, {"type": "Feature", "geometry": {"type": "Point", "coordinates": [4.85, 52.3]}, "properties": {}}, {"type": "Feature", "geometry": {"type": "Point", "coordinates": [4.8, 51.9]}, "properties": {}}, {"type": "Feature", "geometry": {"type": "Point", "coordinates": [12.14361, 57.52441]}, "properties": {}}, {"type": "Feature", "geometry": {"type": "Point", "coordinates": [3.13557, 51.30709]}, "properties": {}}, {"type": "Feature", "geometry": {"type": "Point", "coordinates": [4.85, 52.35]}, "properties": {}}, {"type": "Feature", "geometry": {"type": "Point", "coordinates": [4.45, 51.9]}, "properties": {}}, {"type": "Feature", "geometry": {"type": "Point", "coordinates": [5.0, 52.1]}, "properties": {}}, {"type": "Feature", "geometry": {"type": "Point", "coordinates": [7.141247, 43.814512]}, "properties": {}}, {"type": "Feature", "geometry": {"type": "Point", "coordinates": [7.15455, 43.814163]}, "properties": {}}, {"type": "Feature", "geometry": {"type": "Point", "coordinates": [0.12479, 51.488998]}, "properties": {}}, {"type": "Feature", "geometry": {"type": "Point", "coordinates": [15.011609, 53.342555]}, "properties": {}}, {"type": "Feature", "geometry": {"type": "Point", "coordinates": [17.60958, 59.84454]}, "properties": {}}, {"type": "Feature", "geometry": {"type": "Point", "coordinates": [6.245933, 50.805171]}, "properties": {}}, {"type": "Feature", "geometry": {"type": "Point", "coordinates": [6.55, 53.2]}, "properties": {}}, {"type": "Feature", "geometry": {"type": "Point", "coordinates": [11.840952, 48.398649]}, "properties": {}}, {"type": "Feature", "geometry": {"type": "Point", "coordinates": [-0.245625, 51.3596]}, "properties": {}}, {"type": "Feature", "geometry": {"type": "Point", "coordinates": [12.37345, 51.323168]}, "properties": {}}, {"type": "Feature", "geometry": {"type": "Point", "coordinates": [8.708765, 50.643908]}, "properties": {}}, {"type": "Feature", "geometry": {"type": "Point", "coordinates": [5.22606, 44.491021]}, "properties": {}}, {"type": "Feature", "geometry": {"type": "Point", "coordinates": [74.757561, 34.040149]}, "properties": {}}, {"type": "Feature", "geometry": {"type": "Point", "coordinates": [3.37271, 45.915653]}, "properties": {}}, {"type": "Feature", "geometry": {"type": "Point", "coordinates": [2.358624, 48.844164]}, "properties": {}}, {"type": "Feature", "geometry": {"type": "Point", "coordinates": [5.60934, 50.14168]}, "properties": {}}, {"type": "Feature", "geometry": {"type": "Point", "coordinates": [4.36968, 50.64159]}, "properties": {}}, {"type": "Feature", "geometry": {"type": "Point", "coordinates": [4.33332, 50.90085]}, "properties": {}}, {"type": "Feature", "geometry": {"type": "Point", "coordinates": [5.63962, 51.00559]}, "properties": {}}, {"type": "Feature", "geometry": {"type": "Point", "coordinates": [-0.805949, 51.210472]}, "properties": {}}, {"type": "Feature", "geometry": {"type": "Point", "coordinates": [7.53598, 46.29887]}, "properties": {}}, {"type": "Feature", "geometry": {"type": "Point", "coordinates": [8.33465, 47.50978]}, "properties": {}}, {"type": "Feature", "geometry": {"type": "Point", "coordinates": [6.29933, 46.47309]}, "properties": {}}, {"type": "Feature", "geometry": {"type": "Point", "coordinates": [8.33465, 47.50978]}, "properties": {}}, {"type": "Feature", "geometry": {"type": "Point", "coordinates": [12.924134, 47.982003]}, "properties": {}}, {"type": "Feature", "geometry": {"type": "Point", "coordinates": [11.88066, 54.756218]}, "properties": {}}, {"type": "Feature", "geometry": {"type": "Point", "coordinates": [12.924134, 47.982003]}, "properties": {}}, {"type": "Feature", "geometry": {"type": "Point", "coordinates": [-1.173498, 52.266766]}, "properties": {}}, {"type": "Feature", "geometry": {"type": "Point", "coordinates": [-1.173164, 52.284744]}, "properties": {}}, {"type": "Feature", "geometry": {"type": "Point", "coordinates": [-1.173498, 52.266766]}, "properties": {}}, {"type": "Feature", "geometry": {"type": "Point", "coordinates": [-0.326918, 53.744625]}, "properties": {}}, {"type": "Feature", "geometry": {"type": "Point", "coordinates": [-3.319692, 51.003426]}, "properties": {}}, {"type": "Feature", "geometry": {"type": "Point", "coordinates": [4.33285, 50.80913]}, "properties": {}}, {"type": "Feature", "geometry": {"type": "Point", "coordinates": [4.30556, 51.34286]}, "properties": {}}, {"type": "Feature", "geometry": {"type": "Point", "coordinates": [3.75, 51.7]}, "properties": {}}, {"type": "Feature", "geometry": {"type": "Point", "coordinates": [2.391269, 48.841484]}, "properties": {}}, {"type": "Feature", "geometry": {"type": "Point", "coordinates": [17.60967, 59.84456]}, "properties": {}}, {"type": "Feature", "geometry": {"type": "Point", "coordinates": [6.842407, 51.299419]}, "properties": {}}, {"type": "Feature", "geometry": {"type": "Point", "coordinates": [6.782065, 51.228845]}, "properties": {}}, {"type": "Feature", "geometry": {"type": "Point", "coordinates": [5.05, 52.6]}, "properties": {}}, {"type": "Feature", "geometry": {"type": "Point", "coordinates": [5.85, 51.15]}, "properties": {}}, {"type": "Feature", "geometry": {"type": "Point", "coordinates": [4.85, 52.05]}, "properties": {}}, {"type": "Feature", "geometry": {"type": "Point", "coordinates": [5.9, 52.55]}, "properties": {}}, {"type": "Feature", "geometry": {"type": "Point", "coordinates": [-3.857164, 51.618957]}, "properties": {}}, {"type": "Feature", "geometry": {"type": "Point", "coordinates": [3.997286, 44.22785]}, "properties": {}}, {"type": "Feature", "geometry": {"type": "Point", "coordinates": [3.794722, 43.780278]}, "properties": {}}, {"type": "Feature", "geometry": {"type": "Point", "coordinates": [16.859042, 47.94417]}, "properties": {}}, {"type": "Feature", "geometry": {"type": "Point", "coordinates": [12.834653, 46.826125]}, "properties": {}}, {"type": "Feature", "geometry": {"type": "Point", "coordinates": [-0.564492, 51.325594]}, "properties": {}}, {"type": "Feature", "geometry": {"type": "Point", "coordinates": [11.840995, 48.398649]}, "properties": {}}, {"type": "Feature", "geometry": {"type": "Point", "coordinates": [17.60958, 59.84454]}, "properties": {}}, {"type": "Feature", "geometry": {"type": "Point", "coordinates": [2.92651, 51.21402]}, "properties": {}}, {"type": "Feature", "geometry": {"type": "Point", "coordinates": [2.90367, 51.21338]}, "properties": {}}, {"type": "Feature", "geometry": {"type": "Point", "coordinates": [2.92282, 51.21416]}, "properties": {}}, {"type": "Feature", "geometry": {"type": "Point", "coordinates": [4.37337, 51.18011]}, "properties": {}}, {"type": "Feature", "geometry": {"type": "Point", "coordinates": [4.38181, 51.17827]}, "properties": {}}, {"type": "Feature", "geometry": {"type": "Point", "coordinates": [4.38184, 51.17805]}, "properties": {}}, {"type": "Feature", "geometry": {"type": "Point", "coordinates": [13.084727, 47.769745]}, "properties": {}}, {"type": "Feature", "geometry": {"type": "Point", "coordinates": [4.4, 52.15]}, "properties": {}}, {"type": "Feature", "geometry": {"type": "Point", "coordinates": [6.55, 53.2]}, "properties": {}}, {"type": "Feature", "geometry": {"type": "Point", "coordinates": [5.425148, 43.330545]}, "properties": {}}, {"type": "Feature", "geometry": {"type": "Point", "coordinates": [-98.073022, 30.160628]}, "properties": {}}, {"type": "Feature", "geometry": {"type": "Point", "coordinates": [5.441292, 43.236558]}, "properties": {}}, {"type": "Feature", "geometry": {"type": "Point", "coordinates": [5.381237, 43.279792]}, "properties": {}}, {"type": "Feature", "geometry": {"type": "Point", "coordinates": [4.69259, 50.87612]}, "properties": {}}, {"type": "Feature", "geometry": {"type": "Point", "coordinates": [4.29391, 50.47294]}, "properties": {}}, {"type": "Feature", "geometry": {"type": "Point", "coordinates": [16.287718, 48.004866]}, "properties": {}}, {"type": "Feature", "geometry": {"type": "Point", "coordinates": [-0.327092, 53.744755]}, "properties": {}}, {"type": "Feature", "geometry": {"type": "Point", "coordinates": [15.579533, 48.402962]}, "properties": {}}, {"type": "Feature", "geometry": {"type": "Point", "coordinates": [4.32021, 50.53708]}, "properties": {}}]}