{"type": "FeatureCollection", "name": "Glycyrrhiza glabra", "features": [{"type": "Feature", "geometry": {"type": "Point", "coordinates": [34.703382, 31.858001]}, "properties": {}}, {"type": "Feature", "geometry": {"type": "Point", "coordinates": [34.593947, 31.627982]}, "properties": {}}, {"type": "Feature", "geometry": {"type": "Point", "coordinates": [34.593073, 31.627969]}, "properties": {}}, {"type": "Feature", "geometry": {"type": "Point", "coordinates": [34.593842, 31.627945]}, "properties": {}}, {"type": "Feature", "geometry": {"type": "Point", "coordinates": [34.593083, 31.627951]}, "properties": {}}, {"type": "Feature", "geometry": {"type": "Point", "coordinates": [35.522897, 32.467282]}, "properties": {}}, {"type": "Feature", "geometry": {"type": "Point", "coordinates": [46.279145, 43.84]}, "properties": {}}, {"type": "Feature", "geometry": {"type": "Point", "coordinates": [46.118442, 43.713495]}, "properties": {}}, {"type": "Feature", "geometry": {"type": "Point", "coordinates": [-3.616678, 39.991152]}, "properties": {}}, {"type": "Feature", "geometry": {"type": "Point", "coordinates": [46.015306, 43.669522]}, "properties": {}}, {"type": "Feature", "geometry": {"type": "Point", "coordinates": [65.868447, 38.878454]}, "properties": {}}, {"type": "Feature", "geometry": {"type": "Point", "coordinates": [46.194855, 43.686725]}, "properties": {}}, {"type": "Feature", "geometry": {"type": "Point", "coordinates": [64.399803, 39.777676]}, "properties": {}}, {"type": "Feature", "geometry": {"type": "Point", "coordinates": [4.779482, 43.439595]}, "properties": {}}, {"type": "Feature", "geometry": {"type": "Point", "coordinates": [4.774368, 43.436665]}, "properties": {}}, {"type": "Feature", "geometry": {"type": "Point", "coordinates": [69.268035, 41.379359]}, "properties": {}}, {"type": "Feature", "geometry": {"type": "Point", "coordinates": [65.818316, 38.855835]}, "properties": {}}, {"type": "Feature", "geometry": {"type": "Point", "coordinates": [66.880822, 39.682939]}, "properties": {}}, {"type": "Feature", "geometry": {"type": "Point", "coordinates": [3.583292, 43.425637]}, "properties": {}}, {"type": "Feature", "geometry": {"type": "Point", "coordinates": [35.307516, 32.649828]}, "properties": {}}, {"type": "Feature", "geometry": {"type": "Point", "coordinates": [36.97543, 45.082958]}, "properties": {}}, {"type": "Feature", "geometry": {"type": "Point", "coordinates": [14.039543, 50.668804]}, "properties": {}}, {"type": "Feature", "geometry": {"type": "Point", "coordinates": [35.518424, 32.840763]}, "properties": {}}, {"type": "Feature", "geometry": {"type": "Point", "coordinates": [35.520479, 32.839018]}, "properties": {}}, {"type": "Feature", "geometry": {"type": "Point", "coordinates": [15.231268, 38.201298]}, "properties": {}}, {"type": "Feature", "geometry": {"type": "Point", "coordinates": [35.264682, 32.779791]}, "properties": {}}, {"type": "Feature", "geometry": {"type": "Point", "coordinates": [35.573911, 33.163802]}, "properties": {}}, {"type": "Feature", "geometry": {"type": "Point", "coordinates": [35.573868, 33.163766]}, "properties": {}}, {"type": "Feature", "geometry": {"type": "Point", "coordinates": [35.670797, 33.094466]}, "properties": {}}, {"type": "Feature", "geometry": {"type": "Point", "coordinates": [35.643767, 32.834291]}, "properties": {}}, {"type": "Feature", "geometry": {"type": "Point", "coordinates": [70.605714, 40.381908]}, "properties": {}}, {"type": "Feature", "geometry": {"type": "Point", "coordinates": [70.605714, 40.381908]}, "properties": {}}, {"type": "Feature", "geometry": {"type": "Point", "coordinates": [70.605714, 40.381908]}, "properties": {}}, {"type": "Feature", "geometry": {"type": "Point", "coordinates": [70.605714, 40.381908]}, "properties": {}}, {"type": "Feature", "geometry": {"type": "Point", "coordinates": [70.605714, 40.381908]}, "properties": {}}, {"type": "Feature", "geometry": {"type": "Point", "coordinates": [70.605714, 40.381908]}, "properties": {}}, {"type": "Feature", "geometry": {"type": "Point", "coordinates": [70.605714, 40.381908]}, "properties": {}}, {"type": "Feature", "geometry": {"type": "Point", "coordinates": [70.605714, 40.381908]}, "properties": {}}, {"type": "Feature", "geometry": {"type": "Point", "coordinates": [3.174044, 43.165774]}, "properties": {}}, {"type": "Feature", "geometry": {"type": "Point", "coordinates": [35.131574, 32.932856]}, "properties": {}}, {"type": "Feature", "geometry": {"type": "Point", "coordinates": [35.369025, 32.759292]}, "properties": {}}, {"type": "Feature", "geometry": {"type": "Point", "coordinates": [-0.426692, 41.320139]}, "properties": {}}, {"type": "Feature", "geometry": {"type": "Point", "coordinates": [25.086061, 35.336955]}, "properties": {}}, {"type": "Feature", "geometry": {"type": "Point", "coordinates": [65.807294, 38.837088]}, "properties": {}}, {"type": "Feature", "geometry": {"type": "Point", "coordinates": [72.919836, 40.689178]}, "properties": {}}, {"type": "Feature", "geometry": {"type": "Point", "coordinates": [16.272916, 39.487871]}, "properties": {}}, {"type": "Feature", "geometry": {"type": "Point", "coordinates": [43.290352, 37.021809]}, "properties": {}}, {"type": "Feature", "geometry": {"type": "Point", "coordinates": [77.392966, 43.422799]}, "properties": {}}, {"type": "Feature", "geometry": {"type": "Point", "coordinates": [35.520939, 32.842173]}, "properties": {}}, {"type": "Feature", "geometry": {"type": "Point", "coordinates": [67.172893, 38.204916]}, "properties": {}}, {"type": "Feature", "geometry": {"type": "Point", "coordinates": [47.381284, 43.519317]}, "properties": {}}, {"type": "Feature", "geometry": {"type": "Point", "coordinates": [37.237402, 45.331747]}, "properties": {}}, {"type": "Feature", "geometry": {"type": "Point", "coordinates": [37.248026, 45.330953]}, "properties": {}}, {"type": "Feature", "geometry": {"type": "Point", "coordinates": [37.275391, 45.235865]}, "properties": {}}, {"type": "Feature", "geometry": {"type": "Point", "coordinates": [65.808644, 38.887617]}, "properties": {}}, {"type": "Feature", "geometry": {"type": "Point", "coordinates": [37.27482, 45.235754]}, "properties": {}}, {"type": "Feature", "geometry": {"type": "Point", "coordinates": [69.128071, 40.493739]}, "properties": {}}, {"type": "Feature", "geometry": {"type": "Point", "coordinates": [59.469045, 42.462701]}, "properties": {}}, {"type": "Feature", "geometry": {"type": "Point", "coordinates": [16.703004, 40.17252]}, "properties": {}}, {"type": "Feature", "geometry": {"type": "Point", "coordinates": [43.419252, 36.760754]}, "properties": {}}, {"type": "Feature", "geometry": {"type": "Point", "coordinates": [35.103654, 32.902891]}, "properties": {}}, {"type": "Feature", "geometry": {"type": "Point", "coordinates": [35.10316, 32.904469]}, "properties": {}}, {"type": "Feature", "geometry": {"type": "Point", "coordinates": [-6.054608, 37.273796]}, "properties": {}}, {"type": "Feature", "geometry": {"type": "Point", "coordinates": [47.229282, 42.999891]}, "properties": {}}, {"type": "Feature", "geometry": {"type": "Point", "coordinates": [-0.804003, 38.608913]}, "properties": {}}, {"type": "Feature", "geometry": {"type": "Point", "coordinates": [65.983945, 39.951191]}, "properties": {}}, {"type": "Feature", "geometry": {"type": "Point", "coordinates": [72.85471, 49.631182]}, "properties": {}}, {"type": "Feature", "geometry": {"type": "Point", "coordinates": [39.674783, 47.234512]}, "properties": {}}, {"type": "Feature", "geometry": {"type": "Point", "coordinates": [-1.596426, 42.070671]}, "properties": {}}, {"type": "Feature", "geometry": {"type": "Point", "coordinates": [20.887163, 37.75633]}, "properties": {}}, {"type": "Feature", "geometry": {"type": "Point", "coordinates": [37.442601, 55.79246]}, "properties": {}}, {"type": "Feature", "geometry": {"type": "Point", "coordinates": [43.9378, 49.095921]}, "properties": {}}, {"type": "Feature", "geometry": {"type": "Point", "coordinates": [16.659595, 48.885262]}, "properties": {}}, {"type": "Feature", "geometry": {"type": "Point", "coordinates": [43.866826, 44.353465]}, "properties": {}}, {"type": "Feature", "geometry": {"type": "Point", "coordinates": [43.969487, 49.128168]}, "properties": {}}, {"type": "Feature", "geometry": {"type": "Point", "coordinates": [37.112995, 45.043983]}, "properties": {}}, {"type": "Feature", "geometry": {"type": "Point", "coordinates": [45.396316, 41.515885]}, "properties": {}}, {"type": "Feature", "geometry": {"type": "Point", "coordinates": [37.522715, 38.442871]}, "properties": {}}, {"type": "Feature", "geometry": {"type": "Point", "coordinates": [35.657774, 32.708978]}, "properties": {}}, {"type": "Feature", "geometry": {"type": "Point", "coordinates": [35.657588, 32.710187]}, "properties": {}}, {"type": "Feature", "geometry": {"type": "Point", "coordinates": [42.448855, 47.91282]}, "properties": {}}, {"type": "Feature", "geometry": {"type": "Point", "coordinates": [-3.527683, 40.312471]}, "properties": {}}, {"type": "Feature", "geometry": {"type": "Point", "coordinates": [37.339025, 45.330693]}, "properties": {}}, {"type": "Feature", "geometry": {"type": "Point", "coordinates": [37.10334, 45.354869]}, "properties": {}}, {"type": "Feature", "geometry": {"type": "Point", "coordinates": [37.372141, 45.291288]}, "properties": {}}, {"type": "Feature", "geometry": {"type": "Point", "coordinates": [37.338554, 45.330517]}, "properties": {}}, {"type": "Feature", "geometry": {"type": "Point", "coordinates": [37.367438, 45.270483]}, "properties": {}}, {"type": "Feature", "geometry": {"type": "Point", "coordinates": [37.370405, 45.268039]}, "properties": {}}, {"type": "Feature", "geometry": {"type": "Point", "coordinates": [39.02205, 45.443858]}, "properties": {}}, {"type": "Feature", "geometry": {"type": "Point", "coordinates": [41.88512, 45.159607]}, "properties": {}}, {"type": "Feature", "geometry": {"type": "Point", "coordinates": [44.12027, 49.109756]}, "properties": {}}, {"type": "Feature", "geometry": {"type": "Point", "coordinates": [43.76602, 42.022448]}, "properties": {}}, {"type": "Feature", "geometry": {"type": "Point", "coordinates": [45.85025, 41.281774]}, "properties": {}}, {"type": "Feature", "geometry": {"type": "Point", "coordinates": [44.78172, 41.602153]}, "properties": {}}, {"type": "Feature", "geometry": {"type": "Point", "coordinates": [45.319866, 41.573967]}, "properties": {}}, {"type": "Feature", "geometry": {"type": "Point", "coordinates": [46.101784, 41.430188]}, "properties": {}}, {"type": "Feature", "geometry": {"type": "Point", "coordinates": [44.486136, 44.033375]}, "properties": {}}, {"type": "Feature", "geometry": {"type": "Point", "coordinates": [71.517745, 37.611308]}, "properties": {}}, {"type": "Feature", "geometry": {"type": "Point", "coordinates": [66.775258, 37.921857]}, "properties": {}}, {"type": "Feature", "geometry": {"type": "Point", "coordinates": [58.991647, 43.456654]}, "properties": {}}, {"type": "Feature", "geometry": {"type": "Point", "coordinates": [30.561258, 50.409108]}, "properties": {}}, {"type": "Feature", "geometry": {"type": "Point", "coordinates": [42.917942, 39.594856]}, "properties": {}}, {"type": "Feature", "geometry": {"type": "Point", "coordinates": [42.917883, 39.594889]}, "properties": {}}, {"type": "Feature", "geometry": {"type": "Point", "coordinates": [65.79629, 38.851992]}, "properties": {}}, {"type": "Feature", "geometry": {"type": "Point", "coordinates": [38.583144, 47.120492]}, "properties": {}}, {"type": "Feature", "geometry": {"type": "Point", "coordinates": [21.758105, 38.268713]}, "properties": {}}, {"type": "Feature", "geometry": {"type": "Point", "coordinates": [67.076433, 39.654723]}, "properties": {}}, {"type": "Feature", "geometry": {"type": "Point", "coordinates": [35.102308, 47.814774]}, "properties": {}}, {"type": "Feature", "geometry": {"type": "Point", "coordinates": [43.125831, 44.101223]}, "properties": {}}, {"type": "Feature", "geometry": {"type": "Point", "coordinates": [65.818899, 38.836064]}, "properties": {}}, {"type": "Feature", "geometry": {"type": "Point", "coordinates": [65.81929, 38.836083]}, "properties": {}}, {"type": "Feature", "geometry": {"type": "Point", "coordinates": [3.008967, 39.618268]}, "properties": {}}, {"type": "Feature", "geometry": {"type": "Point", "coordinates": [65.819092, 38.836131]}, "properties": {}}, {"type": "Feature", "geometry": {"type": "Point", "coordinates": [65.795732, 38.852423]}, "properties": {}}, {"type": "Feature", "geometry": {"type": "Point", "coordinates": [35.638771, 33.040402]}, "properties": {}}, {"type": "Feature", "geometry": {"type": "Point", "coordinates": [38.812154, 44.263945]}, "properties": {}}, {"type": "Feature", "geometry": {"type": "Point", "coordinates": [70.96923, 40.497007]}, "properties": {}}, {"type": "Feature", "geometry": {"type": "Point", "coordinates": [70.985976, 40.498616]}, "properties": {}}, {"type": "Feature", "geometry": {"type": "Point", "coordinates": [70.967987, 40.497854]}, "properties": {}}, {"type": "Feature", "geometry": {"type": "Point", "coordinates": [37.247923, 45.331068]}, "properties": {}}, {"type": "Feature", "geometry": {"type": "Point", "coordinates": [37.251225, 45.329363]}, "properties": {}}, {"type": "Feature", "geometry": {"type": "Point", "coordinates": [37.241765, 45.331487]}, "properties": {}}, {"type": "Feature", "geometry": {"type": "Point", "coordinates": [37.14384, 45.035963]}, "properties": {}}, {"type": "Feature", "geometry": {"type": "Point", "coordinates": [37.133004, 45.040019]}, "properties": {}}, {"type": "Feature", "geometry": {"type": "Point", "coordinates": [36.920154, 45.432964]}, "properties": {}}, {"type": "Feature", "geometry": {"type": "Point", "coordinates": [37.316932, 45.323807]}, "properties": {}}, {"type": "Feature", "geometry": {"type": "Point", "coordinates": [35.614742, 33.172691]}, "properties": {}}, {"type": "Feature", "geometry": {"type": "Point", "coordinates": [46.433063, 41.223512]}, "properties": {}}, {"type": "Feature", "geometry": {"type": "Point", "coordinates": [37.120133, 45.042366]}, "properties": {}}, {"type": "Feature", "geometry": {"type": "Point", "coordinates": [37.120676, 45.04139]}, "properties": {}}, {"type": "Feature", "geometry": {"type": "Point", "coordinates": [59.802125, 42.990286]}, "properties": {}}, {"type": "Feature", "geometry": {"type": "Point", "coordinates": [59.953916, 42.838736]}, "properties": {}}, {"type": "Feature", "geometry": {"type": "Point", "coordinates": [59.467678, 42.780972]}, "properties": {}}, {"type": "Feature", "geometry": {"type": "Point", "coordinates": [43.051828, 36.875338]}, "properties": {}}, {"type": "Feature", "geometry": {"type": "Point", "coordinates": [44.18668, 47.981433]}, "properties": {}}, {"type": "Feature", "geometry": {"type": "Point", "coordinates": [35.507345, 32.459644]}, "properties": {}}, {"type": "Feature", "geometry": {"type": "Point", "coordinates": [35.444649, 32.531412]}, "properties": {}}, {"type": "Feature", "geometry": {"type": "Point", "coordinates": [43.609921, 48.950481]}, "properties": {}}, {"type": "Feature", "geometry": {"type": "Point", "coordinates": [43.906186, 48.992558]}, "properties": {}}, {"type": "Feature", "geometry": {"type": "Point", "coordinates": [65.795455, 38.840999]}, "properties": {}}, {"type": "Feature", "geometry": {"type": "Point", "coordinates": [37.443345, 55.792536]}, "properties": {}}, {"type": "Feature", "geometry": {"type": "Point", "coordinates": [-3.500113, 40.409888]}, "properties": {}}, {"type": "Feature", "geometry": {"type": "Point", "coordinates": [66.97392, 39.621586]}, "properties": {}}, {"type": "Feature", "geometry": {"type": "Point", "coordinates": [43.093233, 44.178382]}, "properties": {}}, {"type": "Feature", "geometry": {"type": "Point", "coordinates": [37.214313, 45.33313]}, "properties": {}}, {"type": "Feature", "geometry": {"type": "Point", "coordinates": [35.64628, 33.240232]}, "properties": {}}, {"type": "Feature", "geometry": {"type": "Point", "coordinates": [35.551756, 32.459261]}, "properties": {}}, {"type": "Feature", "geometry": {"type": "Point", "coordinates": [35.64627, 32.856625]}, "properties": {}}, {"type": "Feature", "geometry": {"type": "Point", "coordinates": [44.493787, 48.5024]}, "properties": {}}, {"type": "Feature", "geometry": {"type": "Point", "coordinates": [16.641623, 48.947563]}, "properties": {}}, {"type": "Feature", "geometry": {"type": "Point", "coordinates": [45.991389, 35.302333]}, "properties": {}}, {"type": "Feature", "geometry": {"type": "Point", "coordinates": [44.284788, 46.180408]}, "properties": {}}, {"type": "Feature", "geometry": {"type": "Point", "coordinates": [55.789654, 48.335114]}, "properties": {}}, {"type": "Feature", "geometry": {"type": "Point", "coordinates": [55.790081, 48.33567]}, "properties": {}}, {"type": "Feature", "geometry": {"type": "Point", "coordinates": [35.691535, 32.952967]}, "properties": {}}, {"type": "Feature", "geometry": {"type": "Point", "coordinates": [43.737462, 46.316238]}, "properties": {}}, {"type": "Feature", "geometry": {"type": "Point", "coordinates": [44.940678, 48.507933]}, "properties": {}}, {"type": "Feature", "geometry": {"type": "Point", "coordinates": [44.52745, 48.491508]}, "properties": {}}, {"type": "Feature", "geometry": {"type": "Point", "coordinates": [32.193399, 47.077062]}, "properties": {}}, {"type": "Feature", "geometry": {"type": "Point", "coordinates": [74.455019, 43.0442]}, "properties": {}}, {"type": "Feature", "geometry": {"type": "Point", "coordinates": [74.460794, 43.037572]}, "properties": {}}, {"type": "Feature", "geometry": {"type": "Point", "coordinates": [74.460897, 43.037633]}, "properties": {}}, {"type": "Feature", "geometry": {"type": "Point", "coordinates": [35.743478, 32.669593]}, "properties": {}}, {"type": "Feature", "geometry": {"type": "Point", "coordinates": [37.251208, 45.32938]}, "properties": {}}, {"type": "Feature", "geometry": {"type": "Point", "coordinates": [37.237804, 45.331659]}, "properties": {}}, {"type": "Feature", "geometry": {"type": "Point", "coordinates": [37.241837, 45.331495]}, "properties": {}}, {"type": "Feature", "geometry": {"type": "Point", "coordinates": [67.406149, 37.323622]}, "properties": {}}, {"type": "Feature", "geometry": {"type": "Point", "coordinates": [67.417537, 37.784311]}, "properties": {}}, {"type": "Feature", "geometry": {"type": "Point", "coordinates": [72.89569, 40.929498]}, "properties": {}}, {"type": "Feature", "geometry": {"type": "Point", "coordinates": [44.290492, 46.215295]}, "properties": {}}, {"type": "Feature", "geometry": {"type": "Point", "coordinates": [16.486182, 39.793439]}, "properties": {}}, {"type": "Feature", "geometry": {"type": "Point", "coordinates": [16.190781, 39.416423]}, "properties": {}}, {"type": "Feature", "geometry": {"type": "Point", "coordinates": [7.950153, 51.616657]}, "properties": {}}, {"type": "Feature", "geometry": {"type": "Point", "coordinates": [16.204406, 39.321179]}, "properties": {}}, {"type": "Feature", "geometry": {"type": "Point", "coordinates": [16.246848, 39.326523]}, "properties": {}}, {"type": "Feature", "geometry": {"type": "Point", "coordinates": [65.812013, 38.885786]}, "properties": {}}, {"type": "Feature", "geometry": {"type": "Point", "coordinates": [37.183212, 45.057047]}, "properties": {}}, {"type": "Feature", "geometry": {"type": "Point", "coordinates": [16.212771, 39.316472]}, "properties": {}}, {"type": "Feature", "geometry": {"type": "Point", "coordinates": [35.584033, 33.154404]}, "properties": {}}, {"type": "Feature", "geometry": {"type": "Point", "coordinates": [-3.911932, 39.913656]}, "properties": {}}, {"type": "Feature", "geometry": {"type": "Point", "coordinates": [-3.527622, 40.313115]}, "properties": {}}, {"type": "Feature", "geometry": {"type": "Point", "coordinates": [35.0891, 32.880725]}, "properties": {}}, {"type": "Feature", "geometry": {"type": "Point", "coordinates": [38.219555, 46.323732]}, "properties": {}}, {"type": "Feature", "geometry": {"type": "Point", "coordinates": [38.230507, 46.316452]}, "properties": {}}, {"type": "Feature", "geometry": {"type": "Point", "coordinates": [37.993565, 46.366093]}, "properties": {}}, {"type": "Feature", "geometry": {"type": "Point", "coordinates": [37.338177, 45.32952]}, "properties": {}}, {"type": "Feature", "geometry": {"type": "Point", "coordinates": [16.239722, 39.33791]}, "properties": {}}, {"type": "Feature", "geometry": {"type": "Point", "coordinates": [44.209103, 45.844775]}, "properties": {}}, {"type": "Feature", "geometry": {"type": "Point", "coordinates": [34.936524, 32.374105]}, "properties": {}}, {"type": "Feature", "geometry": {"type": "Point", "coordinates": [35.067427, 32.807341]}, "properties": {}}, {"type": "Feature", "geometry": {"type": "Point", "coordinates": [-3.525876, 40.302078]}, "properties": {}}, {"type": "Feature", "geometry": {"type": "Point", "coordinates": [44.28015, 45.9035]}, "properties": {}}, {"type": "Feature", "geometry": {"type": "Point", "coordinates": [44.275387, 46.031814]}, "properties": {}}, {"type": "Feature", "geometry": {"type": "Point", "coordinates": [44.869488, 49.384972]}, "properties": {}}, {"type": "Feature", "geometry": {"type": "Point", "coordinates": [44.51998, 46.491937]}, "properties": {}}, {"type": "Feature", "geometry": {"type": "Point", "coordinates": [16.065575, 39.234619]}, "properties": {}}, {"type": "Feature", "geometry": {"type": "Point", "coordinates": [-3.893273, 39.913921]}, "properties": {}}, {"type": "Feature", "geometry": {"type": "Point", "coordinates": [44.2639, 46.251205]}, "properties": {}}, {"type": "Feature", "geometry": {"type": "Point", "coordinates": [34.919005, 31.975372]}, "properties": {}}, {"type": "Feature", "geometry": {"type": "Point", "coordinates": [29.6585, 46.020736]}, "properties": {}}, {"type": "Feature", "geometry": {"type": "Point", "coordinates": [15.238411, 38.256485]}, "properties": {}}, {"type": "Feature", "geometry": {"type": "Point", "coordinates": [15.231809, 38.200949]}, "properties": {}}, {"type": "Feature", "geometry": {"type": "Point", "coordinates": [28.117924, 36.418441]}, "properties": {}}, {"type": "Feature", "geometry": {"type": "Point", "coordinates": [35.566294, 32.642207]}, "properties": {}}, {"type": "Feature", "geometry": {"type": "Point", "coordinates": [34.967083, 31.734629]}, "properties": {}}, {"type": "Feature", "geometry": {"type": "Point", "coordinates": [13.96225, 42.573708]}, "properties": {}}, {"type": "Feature", "geometry": {"type": "Point", "coordinates": [-0.484546, 41.132836]}, "properties": {}}, {"type": "Feature", "geometry": {"type": "Point", "coordinates": [-5.994164, 37.414411]}, "properties": {}}, {"type": "Feature", "geometry": {"type": "Point", "coordinates": [-4.020267, 39.863027]}, "properties": {}}, {"type": "Feature", "geometry": {"type": "Point", "coordinates": [-4.002049, 39.863584]}, "properties": {}}, {"type": "Feature", "geometry": {"type": "Point", "coordinates": [49.519486, 36.517394]}, "properties": {}}, {"type": "Feature", "geometry": {"type": "Point", "coordinates": [-1.059016, 37.985661]}, "properties": {}}, {"type": "Feature", "geometry": {"type": "Point", "coordinates": [39.673729, 45.203656]}, "properties": {}}, {"type": "Feature", "geometry": {"type": "Point", "coordinates": [-3.529529, 40.313899]}, "properties": {}}, {"type": "Feature", "geometry": {"type": "Point", "coordinates": [36.998922, 45.319936]}, "properties": {}}, {"type": "Feature", "geometry": {"type": "Point", "coordinates": [44.392835, 48.644132]}, "properties": {}}, {"type": "Feature", "geometry": {"type": "Point", "coordinates": [47.23131, 43.000308]}, "properties": {}}, {"type": "Feature", "geometry": {"type": "Point", "coordinates": [37.751986, 45.583236]}, "properties": {}}, {"type": "Feature", "geometry": {"type": "Point", "coordinates": [37.757178, 45.716372]}, "properties": {}}, {"type": "Feature", "geometry": {"type": "Point", "coordinates": [44.268156, 43.595823]}, "properties": {}}, {"type": "Feature", "geometry": {"type": "Point", "coordinates": [44.230013, 46.042653]}, "properties": {}}, {"type": "Feature", "geometry": {"type": "Point", "coordinates": [44.371689, 48.600632]}, "properties": {}}, {"type": "Feature", "geometry": {"type": "Point", "coordinates": [41.537347, 47.280712]}, "properties": {}}, {"type": "Feature", "geometry": {"type": "Point", "coordinates": [33.985224, 38.322583]}, "properties": {}}, {"type": "Feature", "geometry": {"type": "Point", "coordinates": [41.538783, 47.28373]}, "properties": {}}, {"type": "Feature", "geometry": {"type": "Point", "coordinates": [-0.867508, 41.628744]}, "properties": {}}, {"type": "Feature", "geometry": {"type": "Point", "coordinates": [46.894371, 48.053524]}, "properties": {}}, {"type": "Feature", "geometry": {"type": "Point", "coordinates": [44.280732, 43.58482]}, "properties": {}}, {"type": "Feature", "geometry": {"type": "Point", "coordinates": [27.28061, 37.945884]}, "properties": {}}, {"type": "Feature", "geometry": {"type": "Point", "coordinates": [44.459369, 46.958561]}, "properties": {}}, {"type": "Feature", "geometry": {"type": "Point", "coordinates": [14.838875, 42.042053]}, "properties": {}}, {"type": "Feature", "geometry": {"type": "Point", "coordinates": [-0.43, 39.44]}, "properties": {}}, {"type": "Feature", "geometry": {"type": "Point", "coordinates": [-0.38, 39.43]}, "properties": {}}, {"type": "Feature", "geometry": {"type": "Point", "coordinates": [-0.36, 39.43]}, "properties": {}}, {"type": "Feature", "geometry": {"type": "Point", "coordinates": [-0.35, 39.39]}, "properties": {}}, {"type": "Feature", "geometry": {"type": "Point", "coordinates": [-0.41, 39.5]}, "properties": {}}, {"type": "Feature", "geometry": {"type": "Point", "coordinates": [-0.41, 39.45]}, "properties": {}}, {"type": "Feature", "geometry": {"type": "Point", "coordinates": [-0.29, 39.55]}, "properties": {}}, {"type": "Feature", "geometry": {"type": "Point", "coordinates": [-0.37, 39.45]}, "properties": {}}, {"type": "Feature", "geometry": {"type": "Point", "coordinates": [35.573626, 32.59792]}, "properties": {}}, {"type": "Feature", "geometry": {"type": "Point", "coordinates": [35.556495, 32.430816]}, "properties": {}}, {"type": "Feature", "geometry": {"type": "Point", "coordinates": [35.54921, 32.396732]}, "properties": {}}, {"type": "Feature", "geometry": {"type": "Point", "coordinates": [34.812228, 32.135687]}, "properties": {}}, {"type": "Feature", "geometry": {"type": "Point", "coordinates": [35.652287, 32.720774]}, "properties": {}}, {"type": "Feature", "geometry": {"type": "Point", "coordinates": [35.568255, 32.53936]}, "properties": {}}, {"type": "Feature", "geometry": {"type": "Point", "coordinates": [35.56794, 32.63277]}, "properties": {}}, {"type": "Feature", "geometry": {"type": "Point", "coordinates": [34.593083, 31.627996]}, "properties": {}}, {"type": "Feature", "geometry": {"type": "Point", "coordinates": [35.556625, 32.439554]}, "properties": {}}, {"type": "Feature", "geometry": {"type": "Point", "coordinates": [35.565388, 32.623481]}, "properties": {}}, {"type": "Feature", "geometry": {"type": "Point", "coordinates": [35.571386, 32.563175]}, "properties": {}}, {"type": "Feature", "geometry": {"type": "Point", "coordinates": [16.863321, 40.408563]}, "properties": {}}, {"type": "Feature", "geometry": {"type": "Point", "coordinates": [-4.013606, 39.855856]}, "properties": {}}, {"type": "Feature", "geometry": {"type": "Point", "coordinates": [52.476119, 29.691765]}, "properties": {}}, {"type": "Feature", "geometry": {"type": "Point", "coordinates": [52.476167, 29.691779]}, "properties": {}}, {"type": "Feature", "geometry": {"type": "Point", "coordinates": [61.156122, 41.292441]}, "properties": {}}, {"type": "Feature", "geometry": {"type": "Point", "coordinates": [33.679088, 40.33298]}, "properties": {}}, {"type": "Feature", "geometry": {"type": "Point", "coordinates": [35.666916, 32.727944]}, "properties": {}}, {"type": "Feature", "geometry": {"type": "Point", "coordinates": [33.1787, 35.34986]}, "properties": {}}, {"type": "Feature", "geometry": {"type": "Point", "coordinates": [14.871389, 41.855547]}, "properties": {}}, {"type": "Feature", "geometry": {"type": "Point", "coordinates": [51.20201, 35.422464]}, "properties": {}}, {"type": "Feature", "geometry": {"type": "Point", "coordinates": [71.284753, 40.939571]}, "properties": {}}, {"type": "Feature", "geometry": {"type": "Point", "coordinates": [44.45438, 47.511872]}, "properties": {}}, {"type": "Feature", "geometry": {"type": "Point", "coordinates": [44.051692, 47.150258]}, "properties": {}}, {"type": "Feature", "geometry": {"type": "Point", "coordinates": [43.976433, 47.724245]}, "properties": {}}, {"type": "Feature", "geometry": {"type": "Point", "coordinates": [44.322022, 47.465983]}, "properties": {}}, {"type": "Feature", "geometry": {"type": "Point", "coordinates": [44.433087, 48.078206]}, "properties": {}}, {"type": "Feature", "geometry": {"type": "Point", "coordinates": [-3.964802, 39.856567]}, "properties": {}}, {"type": "Feature", "geometry": {"type": "Point", "coordinates": [-3.965911, 39.857358]}, "properties": {}}, {"type": "Feature", "geometry": {"type": "Point", "coordinates": [44.053167, 47.14887]}, "properties": {}}, {"type": "Feature", "geometry": {"type": "Point", "coordinates": [42.966105, 44.72863]}, "properties": {}}, {"type": "Feature", "geometry": {"type": "Point", "coordinates": [-3.961138, 39.857068]}, "properties": {}}, {"type": "Feature", "geometry": {"type": "Point", "coordinates": [44.686983, 48.709089]}, "properties": {}}, {"type": "Feature", "geometry": {"type": "Point", "coordinates": [47.48265, 48.787255]}, "properties": {}}, {"type": "Feature", "geometry": {"type": "Point", "coordinates": [46.171662, 44.99432]}, "properties": {}}, {"type": "Feature", "geometry": {"type": "Point", "coordinates": [36.51085, 45.35988]}, "properties": {}}, {"type": "Feature", "geometry": {"type": "Point", "coordinates": [-4.039961, 39.861793]}, "properties": {}}, {"type": "Feature", "geometry": {"type": "Point", "coordinates": [-0.930383, 41.70153]}, "properties": {}}, {"type": "Feature", "geometry": {"type": "Point", "coordinates": [-0.927258, 41.704516]}, "properties": {}}, {"type": "Feature", "geometry": {"type": "Point", "coordinates": [48.460828, 49.240945]}, "properties": {}}, {"type": "Feature", "geometry": {"type": "Point", "coordinates": [-0.961271, 41.715064]}, "properties": {}}, {"type": "Feature", "geometry": {"type": "Point", "coordinates": [44.20538, 46.255238]}, "properties": {}}, {"type": "Feature", "geometry": {"type": "Point", "coordinates": [-3.959448, 39.820081]}, "properties": {}}, {"type": "Feature", "geometry": {"type": "Point", "coordinates": [44.121414, 49.108406]}, "properties": {}}, {"type": "Feature", "geometry": {"type": "Point", "coordinates": [44.057044, 49.142872]}, "properties": {}}, {"type": "Feature", "geometry": {"type": "Point", "coordinates": [44.140201, 49.087235]}, "properties": {}}, {"type": "Feature", "geometry": {"type": "Point", "coordinates": [37.068423, 45.057852]}, "properties": {}}, {"type": "Feature", "geometry": {"type": "Point", "coordinates": [43.802537, 49.203728]}, "properties": {}}, {"type": "Feature", "geometry": {"type": "Point", "coordinates": [44.054933, 49.144159]}, "properties": {}}, {"type": "Feature", "geometry": {"type": "Point", "coordinates": [-5.94792, 37.290668]}, "properties": {}}, {"type": "Feature", "geometry": {"type": "Point", "coordinates": [45.30112, 45.4757]}, "properties": {}}, {"type": "Feature", "geometry": {"type": "Point", "coordinates": [13.450833, 37.490833]}, "properties": {}}, {"type": "Feature", "geometry": {"type": "Point", "coordinates": [13.909576, 42.903895]}, "properties": {}}, {"type": "Feature", "geometry": {"type": "Point", "coordinates": [47.871736, 40.550161]}, "properties": {}}, {"type": "Feature", "geometry": {"type": "Point", "coordinates": [44.551692, 47.984025]}, "properties": {}}, {"type": "Feature", "geometry": {"type": "Point", "coordinates": [41.583047, 46.522684]}, "properties": {}}, {"type": "Feature", "geometry": {"type": "Point", "coordinates": [40.902064, 47.666762]}, "properties": {}}, {"type": "Feature", "geometry": {"type": "Point", "coordinates": [45.319375, 45.51868]}, "properties": {}}, {"type": "Feature", "geometry": {"type": "Point", "coordinates": [44.160499, 49.456403]}, "properties": {}}, {"type": "Feature", "geometry": {"type": "Point", "coordinates": [43.948733, 49.278899]}, "properties": {}}, {"type": "Feature", "geometry": {"type": "Point", "coordinates": [43.953761, 49.278107]}, "properties": {}}]}