{"type": "FeatureCollection", "name": "Foeniculum vulgare Mill.", "features": [{"type": "Feature", "geometry": {"type": "Point", "coordinates": [-17.781607, 28.809883]}, "properties": {}}, {"type": "Feature", "geometry": {"type": "Point", "coordinates": [-117.195275, 33.095092]}, "properties": {}}, {"type": "Feature", "geometry": {"type": "Point", "coordinates": [-119.574197, 34.040742]}, "properties": {}}, {"type": "Feature", "geometry": {"type": "Point", "coordinates": [3.008189, 43.200017]}, "properties": {}}, {"type": "Feature", "geometry": {"type": "Point", "coordinates": [-121.745514, 36.841476]}, "properties": {}}, {"type": "Feature", "geometry": {"type": "Point", "coordinates": [25.487352, -33.951277]}, "properties": {}}, {"type": "Feature", "geometry": {"type": "Point", "coordinates": [-122.303038, 47.623287]}, "properties": {}}, {"type": "Feature", "geometry": {"type": "Point", "coordinates": [-7.745938, 41.075999]}, "properties": {}}, {"type": "Feature", "geometry": {"type": "Point", "coordinates": [-8.262746, 40.285057]}, "properties": {}}, {"type": "Feature", "geometry": {"type": "Point", "coordinates": [2.13707, 41.42064]}, "properties": {}}, {"type": "Feature", "geometry": {"type": "Point", "coordinates": [-73.149269, -40.570667]}, "properties": {}}, {"type": "Feature", "geometry": {"type": "Point", "coordinates": [-121.761128, 36.823278]}, "properties": {}}, {"type": "Feature", "geometry": {"type": "Point", "coordinates": [138.563633, -35.025953]}, "properties": {}}, {"type": "Feature", "geometry": {"type": "Point", "coordinates": [70.469437, 21.633836]}, "properties": {}}, {"type": "Feature", "geometry": {"type": "Point", "coordinates": [-117.204475, 33.109061]}, "properties": {}}, {"type": "Feature", "geometry": {"type": "Point", "coordinates": [18.629463, -33.862897]}, "properties": {}}, {"type": "Feature", "geometry": {"type": "Point", "coordinates": [-7.948953, 37.103356]}, "properties": {}}, {"type": "Feature", "geometry": {"type": "Point", "coordinates": [144.719526, -37.591553]}, "properties": {}}, {"type": "Feature", "geometry": {"type": "Point", "coordinates": [-117.143975, 32.732997]}, "properties": {}}, {"type": "Feature", "geometry": {"type": "Point", "coordinates": [3.0799, 43.118315]}, "properties": {}}, {"type": "Feature", "geometry": {"type": "Point", "coordinates": [-73.161765, -40.558412]}, "properties": {}}, {"type": "Feature", "geometry": {"type": "Point", "coordinates": [35.118941, 32.776974]}, "properties": {}}, {"type": "Feature", "geometry": {"type": "Point", "coordinates": [-1.986787, 48.681175]}, "properties": {}}, {"type": "Feature", "geometry": {"type": "Point", "coordinates": [-117.179772, 33.152639]}, "properties": {}}, {"type": "Feature", "geometry": {"type": "Point", "coordinates": [140.773255, -37.843433]}, "properties": {}}, {"type": "Feature", "geometry": {"type": "Point", "coordinates": [-122.307864, 47.64369]}, "properties": {}}, {"type": "Feature", "geometry": {"type": "Point", "coordinates": [21.857186, -34.28734]}, "properties": {}}, {"type": "Feature", "geometry": {"type": "Point", "coordinates": [174.985914, -40.94747]}, "properties": {}}, {"type": "Feature", "geometry": {"type": "Point", "coordinates": [174.9827, -40.951536]}, "properties": {}}, {"type": "Feature", "geometry": {"type": "Point", "coordinates": [174.984012, -40.941831]}, "properties": {}}, {"type": "Feature", "geometry": {"type": "Point", "coordinates": [5.488103, 43.479255]}, "properties": {}}, {"type": "Feature", "geometry": {"type": "Point", "coordinates": [151.726883, -32.955505]}, "properties": {}}, {"type": "Feature", "geometry": {"type": "Point", "coordinates": [-1.100921, 53.956134]}, "properties": {}}, {"type": "Feature", "geometry": {"type": "Point", "coordinates": [3.16475, 50.91147]}, "properties": {}}, {"type": "Feature", "geometry": {"type": "Point", "coordinates": [4.35877, 50.78806]}, "properties": {}}, {"type": "Feature", "geometry": {"type": "Point", "coordinates": [4.81588, 50.7801]}, "properties": {}}, {"type": "Feature", "geometry": {"type": "Point", "coordinates": [-17.794743, 28.613293]}, "properties": {}}, {"type": "Feature", "geometry": {"type": "Point", "coordinates": [-17.79285, 28.583265]}, "properties": {}}, {"type": "Feature", "geometry": {"type": "Point", "coordinates": [3.62055, 50.78038]}, "properties": {}}, {"type": "Feature", "geometry": {"type": "Point", "coordinates": [-17.742189, 28.750315]}, "properties": {}}, {"type": "Feature", "geometry": {"type": "Point", "coordinates": [-17.73571, 28.757351]}, "properties": {}}, {"type": "Feature", "geometry": {"type": "Point", "coordinates": [4.01582, 50.94621]}, "properties": {}}, {"type": "Feature", "geometry": {"type": "Point", "coordinates": [-17.792322, 28.621372]}, "properties": {}}, {"type": "Feature", "geometry": {"type": "Point", "coordinates": [-17.802229, 28.553455]}, "properties": {}}, {"type": "Feature", "geometry": {"type": "Point", "coordinates": [-71.551107, -33.029161]}, "properties": {}}, {"type": "Feature", "geometry": {"type": "Point", "coordinates": [-122.262021, 37.572505]}, "properties": {}}, {"type": "Feature", "geometry": {"type": "Point", "coordinates": [3.659459, 43.403215]}, "properties": {}}, {"type": "Feature", "geometry": {"type": "Point", "coordinates": [-117.906425, 33.620785]}, "properties": {}}, {"type": "Feature", "geometry": {"type": "Point", "coordinates": [174.843274, -41.095728]}, "properties": {}}, {"type": "Feature", "geometry": {"type": "Point", "coordinates": [147.29023, -42.987247]}, "properties": {}}, {"type": "Feature", "geometry": {"type": "Point", "coordinates": [-117.532988, 33.356522]}, "properties": {}}, {"type": "Feature", "geometry": {"type": "Point", "coordinates": [-117.210503, 33.089825]}, "properties": {}}, {"type": "Feature", "geometry": {"type": "Point", "coordinates": [35.444247, 32.642182]}, "properties": {}}, {"type": "Feature", "geometry": {"type": "Point", "coordinates": [147.058761, -43.017753]}, "properties": {}}, {"type": "Feature", "geometry": {"type": "Point", "coordinates": [73.82414, 18.525003]}, "properties": {}}, {"type": "Feature", "geometry": {"type": "Point", "coordinates": [174.8054, -41.194649]}, "properties": {}}, {"type": "Feature", "geometry": {"type": "Point", "coordinates": [-118.316, 34.134081]}, "properties": {}}, {"type": "Feature", "geometry": {"type": "Point", "coordinates": [-117.204505, 33.10908]}, "properties": {}}, {"type": "Feature", "geometry": {"type": "Point", "coordinates": [174.766894, -41.27074]}, "properties": {}}, {"type": "Feature", "geometry": {"type": "Point", "coordinates": [-64.603616, -37.378759]}, "properties": {}}, {"type": "Feature", "geometry": {"type": "Point", "coordinates": [-117.308552, 33.140965]}, "properties": {}}, {"type": "Feature", "geometry": {"type": "Point", "coordinates": [5.134137, 43.39912]}, "properties": {}}, {"type": "Feature", "geometry": {"type": "Point", "coordinates": [-117.308542, 33.141059]}, "properties": {}}, {"type": "Feature", "geometry": {"type": "Point", "coordinates": [-117.176375, 32.931213]}, "properties": {}}, {"type": "Feature", "geometry": {"type": "Point", "coordinates": [-120.867028, 35.367575]}, "properties": {}}, {"type": "Feature", "geometry": {"type": "Point", "coordinates": [145.930403, -38.164533]}, "properties": {}}, {"type": "Feature", "geometry": {"type": "Point", "coordinates": [-117.33011, 33.14669]}, "properties": {}}, {"type": "Feature", "geometry": {"type": "Point", "coordinates": [-8.101583, 37.172437]}, "properties": {}}, {"type": "Feature", "geometry": {"type": "Point", "coordinates": [-117.308581, 33.140856]}, "properties": {}}, {"type": "Feature", "geometry": {"type": "Point", "coordinates": [-122.185886, 38.070662]}, "properties": {}}, {"type": "Feature", "geometry": {"type": "Point", "coordinates": [-73.035548, -36.911526]}, "properties": {}}, {"type": "Feature", "geometry": {"type": "Point", "coordinates": [-117.328777, 33.145104]}, "properties": {}}, {"type": "Feature", "geometry": {"type": "Point", "coordinates": [-4.070211, 38.054169]}, "properties": {}}, {"type": "Feature", "geometry": {"type": "Point", "coordinates": [18.450914, -33.950457]}, "properties": {}}, {"type": "Feature", "geometry": {"type": "Point", "coordinates": [-2.804222, 36.727856]}, "properties": {}}, {"type": "Feature", "geometry": {"type": "Point", "coordinates": [-9.179003, 38.612264]}, "properties": {}}, {"type": "Feature", "geometry": {"type": "Point", "coordinates": [-117.286684, 33.16982]}, "properties": {}}, {"type": "Feature", "geometry": {"type": "Point", "coordinates": [-118.474084, 34.173572]}, "properties": {}}, {"type": "Feature", "geometry": {"type": "Point", "coordinates": [145.508627, -38.059215]}, "properties": {}}, {"type": "Feature", "geometry": {"type": "Point", "coordinates": [144.882783, -37.845917]}, "properties": {}}, {"type": "Feature", "geometry": {"type": "Point", "coordinates": [-116.943725, 32.732753]}, "properties": {}}, {"type": "Feature", "geometry": {"type": "Point", "coordinates": [-117.313911, 33.141945]}, "properties": {}}, {"type": "Feature", "geometry": {"type": "Point", "coordinates": [-117.313839, 33.141972]}, "properties": {}}, {"type": "Feature", "geometry": {"type": "Point", "coordinates": [-119.904945, 34.433983]}, "properties": {}}, {"type": "Feature", "geometry": {"type": "Point", "coordinates": [174.845885, -36.870101]}, "properties": {}}, {"type": "Feature", "geometry": {"type": "Point", "coordinates": [170.520062, -45.892625]}, "properties": {}}, {"type": "Feature", "geometry": {"type": "Point", "coordinates": [-118.466727, 33.984694]}, "properties": {}}, {"type": "Feature", "geometry": {"type": "Point", "coordinates": [12.313555, 37.926444]}, "properties": {}}, {"type": "Feature", "geometry": {"type": "Point", "coordinates": [-8.268635, 38.90729]}, "properties": {}}, {"type": "Feature", "geometry": {"type": "Point", "coordinates": [-5.071352, 37.553127]}, "properties": {}}, {"type": "Feature", "geometry": {"type": "Point", "coordinates": [-78.490864, -1.31449]}, "properties": {}}, {"type": "Feature", "geometry": {"type": "Point", "coordinates": [-117.332629, 33.148565]}, "properties": {}}, {"type": "Feature", "geometry": {"type": "Point", "coordinates": [-70.589753, -33.63257]}, "properties": {}}, {"type": "Feature", "geometry": {"type": "Point", "coordinates": [-78.454567, -0.000636]}, "properties": {}}, {"type": "Feature", "geometry": {"type": "Point", "coordinates": [-118.567266, 34.078627]}, "properties": {}}, {"type": "Feature", "geometry": {"type": "Point", "coordinates": [-122.680397, 38.323217]}, "properties": {}}, {"type": "Feature", "geometry": {"type": "Point", "coordinates": [-124.049702, 44.622986]}, "properties": {}}, {"type": "Feature", "geometry": {"type": "Point", "coordinates": [-122.262021, 37.572505]}, "properties": {}}, {"type": "Feature", "geometry": {"type": "Point", "coordinates": [1.983416, 41.274055]}, "properties": {}}, {"type": "Feature", "geometry": {"type": "Point", "coordinates": [-117.119564, 32.532313]}, "properties": {}}, {"type": "Feature", "geometry": {"type": "Point", "coordinates": [-117.18191, 32.926045]}, "properties": {}}, {"type": "Feature", "geometry": {"type": "Point", "coordinates": [174.985865, -40.94741]}, "properties": {}}, {"type": "Feature", "geometry": {"type": "Point", "coordinates": [-122.385579, 37.710147]}, "properties": {}}, {"type": "Feature", "geometry": {"type": "Point", "coordinates": [-117.306392, 33.141672]}, "properties": {}}, {"type": "Feature", "geometry": {"type": "Point", "coordinates": [-117.308527, 33.140974]}, "properties": {}}, {"type": "Feature", "geometry": {"type": "Point", "coordinates": [173.389582, -41.228997]}, "properties": {}}, {"type": "Feature", "geometry": {"type": "Point", "coordinates": [-122.185974, 38.070688]}, "properties": {}}, {"type": "Feature", "geometry": {"type": "Point", "coordinates": [-117.308671, 33.140848]}, "properties": {}}, {"type": "Feature", "geometry": {"type": "Point", "coordinates": [176.878009, -39.481753]}, "properties": {}}, {"type": "Feature", "geometry": {"type": "Point", "coordinates": [-117.210367, 33.103022]}, "properties": {}}, {"type": "Feature", "geometry": {"type": "Point", "coordinates": [144.829697, -37.797188]}, "properties": {}}, {"type": "Feature", "geometry": {"type": "Point", "coordinates": [-122.188087, 38.071053]}, "properties": {}}, {"type": "Feature", "geometry": {"type": "Point", "coordinates": [175.148636, -41.098269]}, "properties": {}}, {"type": "Feature", "geometry": {"type": "Point", "coordinates": [176.876975, -39.48649]}, "properties": {}}, {"type": "Feature", "geometry": {"type": "Point", "coordinates": [-0.893737, 38.182905]}, "properties": {}}, {"type": "Feature", "geometry": {"type": "Point", "coordinates": [3.827284, 43.604386]}, "properties": {}}, {"type": "Feature", "geometry": {"type": "Point", "coordinates": [-118.452131, 33.964441]}, "properties": {}}, {"type": "Feature", "geometry": {"type": "Point", "coordinates": [-4.60271, 36.579275]}, "properties": {}}, {"type": "Feature", "geometry": {"type": "Point", "coordinates": [174.957207, -41.174638]}, "properties": {}}, {"type": "Feature", "geometry": {"type": "Point", "coordinates": [20.898013, -34.196747]}, "properties": {}}, {"type": "Feature", "geometry": {"type": "Point", "coordinates": [-71.891965, -39.872733]}, "properties": {}}, {"type": "Feature", "geometry": {"type": "Point", "coordinates": [1.983949, 41.275042]}, "properties": {}}, {"type": "Feature", "geometry": {"type": "Point", "coordinates": [-118.537559, 32.938557]}, "properties": {}}, {"type": "Feature", "geometry": {"type": "Point", "coordinates": [35.119121, 32.777144]}, "properties": {}}, {"type": "Feature", "geometry": {"type": "Point", "coordinates": [-17.062005, 32.670047]}, "properties": {}}, {"type": "Feature", "geometry": {"type": "Point", "coordinates": [-122.189906, 38.077084]}, "properties": {}}, {"type": "Feature", "geometry": {"type": "Point", "coordinates": [27.532208, -29.322347]}, "properties": {}}, {"type": "Feature", "geometry": {"type": "Point", "coordinates": [-119.226657, 34.285198]}, "properties": {}}, {"type": "Feature", "geometry": {"type": "Point", "coordinates": [-2.900783, 43.305908]}, "properties": {}}, {"type": "Feature", "geometry": {"type": "Point", "coordinates": [-1.107639, 53.95459]}, "properties": {}}, {"type": "Feature", "geometry": {"type": "Point", "coordinates": [-116.731665, 31.90522]}, "properties": {}}, {"type": "Feature", "geometry": {"type": "Point", "coordinates": [151.102566, -32.749367]}, "properties": {}}, {"type": "Feature", "geometry": {"type": "Point", "coordinates": [174.809708, -41.33627]}, "properties": {}}, {"type": "Feature", "geometry": {"type": "Point", "coordinates": [-119.226097, 34.291]}, "properties": {}}, {"type": "Feature", "geometry": {"type": "Point", "coordinates": [176.877192, -39.486884]}, "properties": {}}, {"type": "Feature", "geometry": {"type": "Point", "coordinates": [-71.626755, -33.622528]}, "properties": {}}, {"type": "Feature", "geometry": {"type": "Point", "coordinates": [-122.601822, 48.513149]}, "properties": {}}, {"type": "Feature", "geometry": {"type": "Point", "coordinates": [-117.027652, 32.840688]}, "properties": {}}, {"type": "Feature", "geometry": {"type": "Point", "coordinates": [27.50632, -29.309313]}, "properties": {}}, {"type": "Feature", "geometry": {"type": "Point", "coordinates": [-122.302116, 37.574054]}, "properties": {}}, {"type": "Feature", "geometry": {"type": "Point", "coordinates": [-122.647163, 38.346783]}, "properties": {}}, {"type": "Feature", "geometry": {"type": "Point", "coordinates": [-117.219375, 33.34802]}, "properties": {}}, {"type": "Feature", "geometry": {"type": "Point", "coordinates": [13.791469, 45.661231]}, "properties": {}}, {"type": "Feature", "geometry": {"type": "Point", "coordinates": [-122.363423, 37.592948]}, "properties": {}}, {"type": "Feature", "geometry": {"type": "Point", "coordinates": [176.877958, -39.488527]}, "properties": {}}, {"type": "Feature", "geometry": {"type": "Point", "coordinates": [-122.571397, 38.458242]}, "properties": {}}, {"type": "Feature", "geometry": {"type": "Point", "coordinates": [-117.602212, 33.401274]}, "properties": {}}, {"type": "Feature", "geometry": {"type": "Point", "coordinates": [-9.178373, 38.636118]}, "properties": {}}, {"type": "Feature", "geometry": {"type": "Point", "coordinates": [-121.42966, 38.581803]}, "properties": {}}, {"type": "Feature", "geometry": {"type": "Point", "coordinates": [-116.679332, 31.876393]}, "properties": {}}, {"type": "Feature", "geometry": {"type": "Point", "coordinates": [-117.330127, 33.146719]}, "properties": {}}, {"type": "Feature", "geometry": {"type": "Point", "coordinates": [1.982129, 41.27473]}, "properties": {}}, {"type": "Feature", "geometry": {"type": "Point", "coordinates": [-122.379087, 37.651813]}, "properties": {}}, {"type": "Feature", "geometry": {"type": "Point", "coordinates": [1.980948, 41.275288]}, "properties": {}}, {"type": "Feature", "geometry": {"type": "Point", "coordinates": [-4.263637, 40.514379]}, "properties": {}}, {"type": "Feature", "geometry": {"type": "Point", "coordinates": [1.984375, 41.27502]}, "properties": {}}, {"type": "Feature", "geometry": {"type": "Point", "coordinates": [24.945833, 37.455818]}, "properties": {}}, {"type": "Feature", "geometry": {"type": "Point", "coordinates": [-121.90538, 37.345556]}, "properties": {}}, {"type": "Feature", "geometry": {"type": "Point", "coordinates": [-78.492049, -1.316325]}, "properties": {}}, {"type": "Feature", "geometry": {"type": "Point", "coordinates": [-122.062753, 38.267517]}, "properties": {}}, {"type": "Feature", "geometry": {"type": "Point", "coordinates": [172.820158, -43.66273]}, "properties": {}}, {"type": "Feature", "geometry": {"type": "Point", "coordinates": [145.068555, -37.873562]}, "properties": {}}, {"type": "Feature", "geometry": {"type": "Point", "coordinates": [-117.308534, 33.141018]}, "properties": {}}, {"type": "Feature", "geometry": {"type": "Point", "coordinates": [-117.03088, 32.840703]}, "properties": {}}, {"type": "Feature", "geometry": {"type": "Point", "coordinates": [-117.333562, 33.148509]}, "properties": {}}, {"type": "Feature", "geometry": {"type": "Point", "coordinates": [150.931236, -33.702014]}, "properties": {}}, {"type": "Feature", "geometry": {"type": "Point", "coordinates": [150.85459, -33.940608]}, "properties": {}}, {"type": "Feature", "geometry": {"type": "Point", "coordinates": [-16.901221, 32.648847]}, "properties": {}}, {"type": "Feature", "geometry": {"type": "Point", "coordinates": [149.13495, -35.225431]}, "properties": {}}, {"type": "Feature", "geometry": {"type": "Point", "coordinates": [149.16452, -35.310497]}, "properties": {}}, {"type": "Feature", "geometry": {"type": "Point", "coordinates": [-117.307804, 33.142289]}, "properties": {}}, {"type": "Feature", "geometry": {"type": "Point", "coordinates": [-122.185691, 38.070245]}, "properties": {}}, {"type": "Feature", "geometry": {"type": "Point", "coordinates": [24.003173, 38.007484]}, "properties": {}}, {"type": "Feature", "geometry": {"type": "Point", "coordinates": [147.258408, -42.748337]}, "properties": {}}, {"type": "Feature", "geometry": {"type": "Point", "coordinates": [-117.220413, 33.083203]}, "properties": {}}, {"type": "Feature", "geometry": {"type": "Point", "coordinates": [-120.814254, 35.334403]}, "properties": {}}, {"type": "Feature", "geometry": {"type": "Point", "coordinates": [-121.423621, 38.586888]}, "properties": {}}, {"type": "Feature", "geometry": {"type": "Point", "coordinates": [-117.04425, 33.122606]}, "properties": {}}, {"type": "Feature", "geometry": {"type": "Point", "coordinates": [-122.260041, 37.778052]}, "properties": {}}, {"type": "Feature", "geometry": {"type": "Point", "coordinates": [-122.88475, 49.050656]}, "properties": {}}, {"type": "Feature", "geometry": {"type": "Point", "coordinates": [-124.049702, 44.622986]}, "properties": {}}, {"type": "Feature", "geometry": {"type": "Point", "coordinates": [1.984156, 41.27502]}, "properties": {}}, {"type": "Feature", "geometry": {"type": "Point", "coordinates": [-121.495322, 35.98843]}, "properties": {}}, {"type": "Feature", "geometry": {"type": "Point", "coordinates": [-62.246408, -38.702061]}, "properties": {}}, {"type": "Feature", "geometry": {"type": "Point", "coordinates": [1.970263, 41.268922]}, "properties": {}}, {"type": "Feature", "geometry": {"type": "Point", "coordinates": [172.725881, -43.515057]}, "properties": {}}, {"type": "Feature", "geometry": {"type": "Point", "coordinates": [1.984137, 41.275125]}, "properties": {}}, {"type": "Feature", "geometry": {"type": "Point", "coordinates": [-117.744822, 33.738389]}, "properties": {}}, {"type": "Feature", "geometry": {"type": "Point", "coordinates": [176.876947, -39.486636]}, "properties": {}}, {"type": "Feature", "geometry": {"type": "Point", "coordinates": [-117.832672, 33.65712]}, "properties": {}}, {"type": "Feature", "geometry": {"type": "Point", "coordinates": [173.115651, -41.274897]}, "properties": {}}, {"type": "Feature", "geometry": {"type": "Point", "coordinates": [-8.098232, 37.250521]}, "properties": {}}, {"type": "Feature", "geometry": {"type": "Point", "coordinates": [147.290969, -42.837284]}, "properties": {}}, {"type": "Feature", "geometry": {"type": "Point", "coordinates": [-120.813447, 35.337438]}, "properties": {}}, {"type": "Feature", "geometry": {"type": "Point", "coordinates": [-122.315785, 37.591242]}, "properties": {}}, {"type": "Feature", "geometry": {"type": "Point", "coordinates": [138.582859, -35.071632]}, "properties": {}}, {"type": "Feature", "geometry": {"type": "Point", "coordinates": [149.692895, -31.885306]}, "properties": {}}, {"type": "Feature", "geometry": {"type": "Point", "coordinates": [-72.768986, -38.777831]}, "properties": {}}, {"type": "Feature", "geometry": {"type": "Point", "coordinates": [1.983504, 41.274837]}, "properties": {}}, {"type": "Feature", "geometry": {"type": "Point", "coordinates": [138.583762, -35.064353]}, "properties": {}}, {"type": "Feature", "geometry": {"type": "Point", "coordinates": [-122.22458, 37.498948]}, "properties": {}}, {"type": "Feature", "geometry": {"type": "Point", "coordinates": [174.76284, -41.345556]}, "properties": {}}, {"type": "Feature", "geometry": {"type": "Point", "coordinates": [-117.308157, 33.139521]}, "properties": {}}, {"type": "Feature", "geometry": {"type": "Point", "coordinates": [35.118472, 32.776611]}, "properties": {}}, {"type": "Feature", "geometry": {"type": "Point", "coordinates": [-71.229683, -29.925378]}, "properties": {}}, {"type": "Feature", "geometry": {"type": "Point", "coordinates": [-124.093344, 40.853783]}, "properties": {}}, {"type": "Feature", "geometry": {"type": "Point", "coordinates": [176.878143, -39.480987]}, "properties": {}}, {"type": "Feature", "geometry": {"type": "Point", "coordinates": [-123.381159, 48.440866]}, "properties": {}}, {"type": "Feature", "geometry": {"type": "Point", "coordinates": [18.424814, -34.207504]}, "properties": {}}, {"type": "Feature", "geometry": {"type": "Point", "coordinates": [175.057159, -39.937084]}, "properties": {}}, {"type": "Feature", "geometry": {"type": "Point", "coordinates": [-122.067764, 37.43192]}, "properties": {}}, {"type": "Feature", "geometry": {"type": "Point", "coordinates": [171.215762, -42.445731]}, "properties": {}}, {"type": "Feature", "geometry": {"type": "Point", "coordinates": [-123.35591, 48.406951]}, "properties": {}}, {"type": "Feature", "geometry": {"type": "Point", "coordinates": [-7.690952, 41.104244]}, "properties": {}}, {"type": "Feature", "geometry": {"type": "Point", "coordinates": [172.726639, -43.512103]}, "properties": {}}, {"type": "Feature", "geometry": {"type": "Point", "coordinates": [1.983983, 41.274979]}, "properties": {}}, {"type": "Feature", "geometry": {"type": "Point", "coordinates": [-7.689394, 41.103995]}, "properties": {}}, {"type": "Feature", "geometry": {"type": "Point", "coordinates": [-121.2883, 38.73702]}, "properties": {}}, {"type": "Feature", "geometry": {"type": "Point", "coordinates": [-122.654332, 45.554562]}, "properties": {}}, {"type": "Feature", "geometry": {"type": "Point", "coordinates": [-122.074844, 38.239555]}, "properties": {}}, {"type": "Feature", "geometry": {"type": "Point", "coordinates": [-72.976922, -36.662948]}, "properties": {}}, {"type": "Feature", "geometry": {"type": "Point", "coordinates": [-122.424083, 37.785478]}, "properties": {}}, {"type": "Feature", "geometry": {"type": "Point", "coordinates": [-122.302116, 37.574054]}, "properties": {}}, {"type": "Feature", "geometry": {"type": "Point", "coordinates": [-71.703487, -33.118429]}, "properties": {}}, {"type": "Feature", "geometry": {"type": "Point", "coordinates": [176.877923, -39.482413]}, "properties": {}}, {"type": "Feature", "geometry": {"type": "Point", "coordinates": [-7.74044, 41.143104]}, "properties": {}}, {"type": "Feature", "geometry": {"type": "Point", "coordinates": [-7.54526, 37.157956]}, "properties": {}}, {"type": "Feature", "geometry": {"type": "Point", "coordinates": [18.476731, -33.930861]}, "properties": {}}, {"type": "Feature", "geometry": {"type": "Point", "coordinates": [-117.286043, 33.169531]}, "properties": {}}, {"type": "Feature", "geometry": {"type": "Point", "coordinates": [173.282611, -41.29003]}, "properties": {}}, {"type": "Feature", "geometry": {"type": "Point", "coordinates": [-119.226038, 34.285673]}, "properties": {}}, {"type": "Feature", "geometry": {"type": "Point", "coordinates": [24.938766, 37.479088]}, "properties": {}}, {"type": "Feature", "geometry": {"type": "Point", "coordinates": [-117.832695, 33.6571]}, "properties": {}}, {"type": "Feature", "geometry": {"type": "Point", "coordinates": [-117.204467, 33.109061]}, "properties": {}}, {"type": "Feature", "geometry": {"type": "Point", "coordinates": [-117.308586, 33.140933]}, "properties": {}}, {"type": "Feature", "geometry": {"type": "Point", "coordinates": [-122.185691, 38.070245]}, "properties": {}}, {"type": "Feature", "geometry": {"type": "Point", "coordinates": [6.057251, 43.4415]}, "properties": {}}, {"type": "Feature", "geometry": {"type": "Point", "coordinates": [-3.736887, 40.598949]}, "properties": {}}, {"type": "Feature", "geometry": {"type": "Point", "coordinates": [-122.067939, 37.430675]}, "properties": {}}, {"type": "Feature", "geometry": {"type": "Point", "coordinates": [-117.201033, 33.101997]}, "properties": {}}, {"type": "Feature", "geometry": {"type": "Point", "coordinates": [-17.061839, 32.670389]}, "properties": {}}, {"type": "Feature", "geometry": {"type": "Point", "coordinates": [2.756577, 41.645978]}, "properties": {}}, {"type": "Feature", "geometry": {"type": "Point", "coordinates": [-61.788548, -38.140219]}, "properties": {}}, {"type": "Feature", "geometry": {"type": "Point", "coordinates": [-117.243417, 32.91698]}, "properties": {}}, {"type": "Feature", "geometry": {"type": "Point", "coordinates": [-7.639807, 41.155545]}, "properties": {}}, {"type": "Feature", "geometry": {"type": "Point", "coordinates": [-122.146033, 38.219393]}, "properties": {}}, {"type": "Feature", "geometry": {"type": "Point", "coordinates": [-117.056752, 32.758251]}, "properties": {}}, {"type": "Feature", "geometry": {"type": "Point", "coordinates": [-7.731103, 41.073812]}, "properties": {}}, {"type": "Feature", "geometry": {"type": "Point", "coordinates": [-118.514258, 34.081739]}, "properties": {}}, {"type": "Feature", "geometry": {"type": "Point", "coordinates": [1.983331, 41.274244]}, "properties": {}}, {"type": "Feature", "geometry": {"type": "Point", "coordinates": [1.980796, 41.274259]}, "properties": {}}, {"type": "Feature", "geometry": {"type": "Point", "coordinates": [173.117447, -41.345696]}, "properties": {}}, {"type": "Feature", "geometry": {"type": "Point", "coordinates": [-117.14083, 32.938208]}, "properties": {}}, {"type": "Feature", "geometry": {"type": "Point", "coordinates": [147.32392, -42.872148]}, "properties": {}}, {"type": "Feature", "geometry": {"type": "Point", "coordinates": [-117.183107, 32.779482]}, "properties": {}}, {"type": "Feature", "geometry": {"type": "Point", "coordinates": [-122.302116, 37.574054]}, "properties": {}}, {"type": "Feature", "geometry": {"type": "Point", "coordinates": [78.552202, 17.43161]}, "properties": {}}, {"type": "Feature", "geometry": {"type": "Point", "coordinates": [-117.030848, 32.84069]}, "properties": {}}, {"type": "Feature", "geometry": {"type": "Point", "coordinates": [170.971268, -45.105755]}, "properties": {}}, {"type": "Feature", "geometry": {"type": "Point", "coordinates": [-119.048533, 34.163689]}, "properties": {}}, {"type": "Feature", "geometry": {"type": "Point", "coordinates": [147.36891, -42.872997]}, "properties": {}}, {"type": "Feature", "geometry": {"type": "Point", "coordinates": [-72.438854, -36.787848]}, "properties": {}}, {"type": "Feature", "geometry": {"type": "Point", "coordinates": [-121.443327, 38.269666]}, "properties": {}}, {"type": "Feature", "geometry": {"type": "Point", "coordinates": [-117.94186, 33.660141]}, "properties": {}}, {"type": "Feature", "geometry": {"type": "Point", "coordinates": [-122.368713, 37.810178]}, "properties": {}}, {"type": "Feature", "geometry": {"type": "Point", "coordinates": [-117.086746, 32.556747]}, "properties": {}}, {"type": "Feature", "geometry": {"type": "Point", "coordinates": [-122.370055, 47.661466]}, "properties": {}}, {"type": "Feature", "geometry": {"type": "Point", "coordinates": [-122.811928, 38.415607]}, "properties": {}}, {"type": "Feature", "geometry": {"type": "Point", "coordinates": [-4.61389, 36.590574]}, "properties": {}}, {"type": "Feature", "geometry": {"type": "Point", "coordinates": [-73.621436, 5.616671]}, "properties": {}}, {"type": "Feature", "geometry": {"type": "Point", "coordinates": [-119.049583, 34.161878]}, "properties": {}}, {"type": "Feature", "geometry": {"type": "Point", "coordinates": [-117.028841, 32.840119]}, "properties": {}}, {"type": "Feature", "geometry": {"type": "Point", "coordinates": [147.319944, -42.888998]}, "properties": {}}, {"type": "Feature", "geometry": {"type": "Point", "coordinates": [18.432412, -34.209582]}, "properties": {}}, {"type": "Feature", "geometry": {"type": "Point", "coordinates": [174.826472, -41.297392]}, "properties": {}}, {"type": "Feature", "geometry": {"type": "Point", "coordinates": [-117.135672, 32.939675]}, "properties": {}}, {"type": "Feature", "geometry": {"type": "Point", "coordinates": [-7.571637, 41.129315]}, "properties": {}}, {"type": "Feature", "geometry": {"type": "Point", "coordinates": [-119.033082, 34.207758]}, "properties": {}}, {"type": "Feature", "geometry": {"type": "Point", "coordinates": [-116.677825, 31.876495]}, "properties": {}}, {"type": "Feature", "geometry": {"type": "Point", "coordinates": [-9.150713, 38.672701]}, "properties": {}}, {"type": "Feature", "geometry": {"type": "Point", "coordinates": [-118.534519, 34.036795]}, "properties": {}}, {"type": "Feature", "geometry": {"type": "Point", "coordinates": [-117.204462, 33.109036]}, "properties": {}}, {"type": "Feature", "geometry": {"type": "Point", "coordinates": [18.427857, -34.207308]}, "properties": {}}, {"type": "Feature", "geometry": {"type": "Point", "coordinates": [-121.881381, 37.512778]}, "properties": {}}, {"type": "Feature", "geometry": {"type": "Point", "coordinates": [147.290241, -42.98724]}, "properties": {}}, {"type": "Feature", "geometry": {"type": "Point", "coordinates": [-122.498703, 37.827703]}, "properties": {}}, {"type": "Feature", "geometry": {"type": "Point", "coordinates": [-121.77693, 36.918728]}, "properties": {}}, {"type": "Feature", "geometry": {"type": "Point", "coordinates": [78.548923, 17.426045]}, "properties": {}}, {"type": "Feature", "geometry": {"type": "Point", "coordinates": [-0.514537, 38.208654]}, "properties": {}}, {"type": "Feature", "geometry": {"type": "Point", "coordinates": [-119.898917, 34.424353]}, "properties": {}}, {"type": "Feature", "geometry": {"type": "Point", "coordinates": [-118.352678, 33.374]}, "properties": {}}, {"type": "Feature", "geometry": {"type": "Point", "coordinates": [-122.498703, 37.827703]}, "properties": {}}, {"type": "Feature", "geometry": {"type": "Point", "coordinates": [172.957058, -40.811547]}, "properties": {}}, {"type": "Feature", "geometry": {"type": "Point", "coordinates": [34.838403, 32.258197]}, "properties": {}}, {"type": "Feature", "geometry": {"type": "Point", "coordinates": [-117.028173, 32.841131]}, "properties": {}}, {"type": "Feature", "geometry": {"type": "Point", "coordinates": [-8.632506, 37.139981]}, "properties": {}}, {"type": "Feature", "geometry": {"type": "Point", "coordinates": [-71.626485, -33.622716]}, "properties": {}}, {"type": "Feature", "geometry": {"type": "Point", "coordinates": [-122.691513, 38.414684]}, "properties": {}}, {"type": "Feature", "geometry": {"type": "Point", "coordinates": [-117.028173, 32.841131]}, "properties": {}}, {"type": "Feature", "geometry": {"type": "Point", "coordinates": [-9.150478, 38.672626]}, "properties": {}}]}