{"type": "FeatureCollection", "name": "Juglans regia", "features": [{"type": "Feature", "geometry": {"type": "Point", "coordinates": [4.74456, 50.84521]}, "properties": {}}, {"type": "Feature", "geometry": {"type": "Point", "coordinates": [16.265807, 47.999245]}, "properties": {}}, {"type": "Feature", "geometry": {"type": "Point", "coordinates": [3.22238, 51.27134]}, "properties": {}}, {"type": "Feature", "geometry": {"type": "Point", "coordinates": [2.61747, 51.02261]}, "properties": {}}, {"type": "Feature", "geometry": {"type": "Point", "coordinates": [9.255617, 48.909962]}, "properties": {}}, {"type": "Feature", "geometry": {"type": "Point", "coordinates": [18.35059, 57.68598]}, "properties": {}}, {"type": "Feature", "geometry": {"type": "Point", "coordinates": [3.36514, 50.83753]}, "properties": {}}, {"type": "Feature", "geometry": {"type": "Point", "coordinates": [4.00712, 50.91456]}, "properties": {}}, {"type": "Feature", "geometry": {"type": "Point", "coordinates": [7.018762, 51.512909]}, "properties": {}}, {"type": "Feature", "geometry": {"type": "Point", "coordinates": [8.371582, 49.698727]}, "properties": {}}, {"type": "Feature", "geometry": {"type": "Point", "coordinates": [6.579351, 50.989529]}, "properties": {}}, {"type": "Feature", "geometry": {"type": "Point", "coordinates": [4.99589, 50.94333]}, "properties": {}}, {"type": "Feature", "geometry": {"type": "Point", "coordinates": [3.96573, 51.19149]}, "properties": {}}, {"type": "Feature", "geometry": {"type": "Point", "coordinates": [4.98004, 50.7989]}, "properties": {}}, {"type": "Feature", "geometry": {"type": "Point", "coordinates": [3.50301, 51.09519]}, "properties": {}}, {"type": "Feature", "geometry": {"type": "Point", "coordinates": [3.63502, 50.85124]}, "properties": {}}, {"type": "Feature", "geometry": {"type": "Point", "coordinates": [8.1911, 46.74621]}, "properties": {}}, {"type": "Feature", "geometry": {"type": "Point", "coordinates": [6.55826, 46.56536]}, "properties": {}}, {"type": "Feature", "geometry": {"type": "Point", "coordinates": [6.42784, 46.56428]}, "properties": {}}, {"type": "Feature", "geometry": {"type": "Point", "coordinates": [8.147109, 49.19129]}, "properties": {}}, {"type": "Feature", "geometry": {"type": "Point", "coordinates": [-122.808018, 38.376297]}, "properties": {}}, {"type": "Feature", "geometry": {"type": "Point", "coordinates": [-7.701467, 41.102971]}, "properties": {}}, {"type": "Feature", "geometry": {"type": "Point", "coordinates": [16.784332, 48.01832]}, "properties": {}}, {"type": "Feature", "geometry": {"type": "Point", "coordinates": [14.456706, 50.011372]}, "properties": {}}, {"type": "Feature", "geometry": {"type": "Point", "coordinates": [17.09855, 47.998622]}, "properties": {}}, {"type": "Feature", "geometry": {"type": "Point", "coordinates": [16.158194, 47.863687]}, "properties": {}}, {"type": "Feature", "geometry": {"type": "Point", "coordinates": [17.113002, 47.989483]}, "properties": {}}, {"type": "Feature", "geometry": {"type": "Point", "coordinates": [16.767986, 47.917894]}, "properties": {}}, {"type": "Feature", "geometry": {"type": "Point", "coordinates": [16.749077, 47.956345]}, "properties": {}}, {"type": "Feature", "geometry": {"type": "Point", "coordinates": [16.471287, 48.196567]}, "properties": {}}, {"type": "Feature", "geometry": {"type": "Point", "coordinates": [16.470076, 48.197205]}, "properties": {}}, {"type": "Feature", "geometry": {"type": "Point", "coordinates": [5.55, 52.25]}, "properties": {}}, {"type": "Feature", "geometry": {"type": "Point", "coordinates": [5.65, 51.95]}, "properties": {}}, {"type": "Feature", "geometry": {"type": "Point", "coordinates": [4.7, 51.75]}, "properties": {}}, {"type": "Feature", "geometry": {"type": "Point", "coordinates": [6.25, 51.95]}, "properties": {}}, {"type": "Feature", "geometry": {"type": "Point", "coordinates": [5.65, 51.35]}, "properties": {}}, {"type": "Feature", "geometry": {"type": "Point", "coordinates": [5.65, 50.75]}, "properties": {}}, {"type": "Feature", "geometry": {"type": "Point", "coordinates": [4.35, 52.0]}, "properties": {}}, {"type": "Feature", "geometry": {"type": "Point", "coordinates": [13.260609, 47.812174]}, "properties": {}}, {"type": "Feature", "geometry": {"type": "Point", "coordinates": [8.137455, 49.197173]}, "properties": {}}, {"type": "Feature", "geometry": {"type": "Point", "coordinates": [-0.711334, 50.859758]}, "properties": {}}, {"type": "Feature", "geometry": {"type": "Point", "coordinates": [13.401102, 47.989135]}, "properties": {}}, {"type": "Feature", "geometry": {"type": "Point", "coordinates": [13.260609, 47.812174]}, "properties": {}}, {"type": "Feature", "geometry": {"type": "Point", "coordinates": [26.102473, 52.111406]}, "properties": {}}, {"type": "Feature", "geometry": {"type": "Point", "coordinates": [26.102473, 52.111406]}, "properties": {}}, {"type": "Feature", "geometry": {"type": "Point", "coordinates": [4.26939, 51.128]}, "properties": {}}, {"type": "Feature", "geometry": {"type": "Point", "coordinates": [11.456751, 47.274134]}, "properties": {}}, {"type": "Feature", "geometry": {"type": "Point", "coordinates": [16.478438, 48.215042]}, "properties": {}}, {"type": "Feature", "geometry": {"type": "Point", "coordinates": [17.047552, 48.050587]}, "properties": {}}, {"type": "Feature", "geometry": {"type": "Point", "coordinates": [11.457665, 47.274423]}, "properties": {}}, {"type": "Feature", "geometry": {"type": "Point", "coordinates": [16.263278, 48.027956]}, "properties": {}}, {"type": "Feature", "geometry": {"type": "Point", "coordinates": [11.398748, 47.281633]}, "properties": {}}, {"type": "Feature", "geometry": {"type": "Point", "coordinates": [115.907886, 39.749331]}, "properties": {}}, {"type": "Feature", "geometry": {"type": "Point", "coordinates": [115.907119, 39.749561]}, "properties": {}}, {"type": "Feature", "geometry": {"type": "Point", "coordinates": [5.15, 51.95]}, "properties": {}}, {"type": "Feature", "geometry": {"type": "Point", "coordinates": [5.0, 52.05]}, "properties": {}}, {"type": "Feature", "geometry": {"type": "Point", "coordinates": [16.455093, 48.203213]}, "properties": {}}, {"type": "Feature", "geometry": {"type": "Point", "coordinates": [16.463763, 48.201906]}, "properties": {}}, {"type": "Feature", "geometry": {"type": "Point", "coordinates": [-7.70188, 41.13852]}, "properties": {}}, {"type": "Feature", "geometry": {"type": "Point", "coordinates": [16.464542, 48.201034]}, "properties": {}}, {"type": "Feature", "geometry": {"type": "Point", "coordinates": [-119.18902, 34.436008]}, "properties": {}}, {"type": "Feature", "geometry": {"type": "Point", "coordinates": [16.476438, 48.20586]}, "properties": {}}, {"type": "Feature", "geometry": {"type": "Point", "coordinates": [16.482677, 48.214448]}, "properties": {}}, {"type": "Feature", "geometry": {"type": "Point", "coordinates": [16.481894, 48.212686]}, "properties": {}}, {"type": "Feature", "geometry": {"type": "Point", "coordinates": [16.468493, 48.198731]}, "properties": {}}, {"type": "Feature", "geometry": {"type": "Point", "coordinates": [16.456017, 48.202916]}, "properties": {}}, {"type": "Feature", "geometry": {"type": "Point", "coordinates": [16.464681, 48.200846]}, "properties": {}}, {"type": "Feature", "geometry": {"type": "Point", "coordinates": [16.480815, 48.216856]}, "properties": {}}, {"type": "Feature", "geometry": {"type": "Point", "coordinates": [16.481758, 48.212384]}, "properties": {}}, {"type": "Feature", "geometry": {"type": "Point", "coordinates": [16.454688, 48.205222]}, "properties": {}}, {"type": "Feature", "geometry": {"type": "Point", "coordinates": [16.464409, 48.202936]}, "properties": {}}, {"type": "Feature", "geometry": {"type": "Point", "coordinates": [8.337859, 50.005189]}, "properties": {}}, {"type": "Feature", "geometry": {"type": "Point", "coordinates": [5.39651, 50.94888]}, "properties": {}}, {"type": "Feature", "geometry": {"type": "Point", "coordinates": [3.72394, 51.16714]}, "properties": {}}, {"type": "Feature", "geometry": {"type": "Point", "coordinates": [3.61428, 51.03444]}, "properties": {}}, {"type": "Feature", "geometry": {"type": "Point", "coordinates": [4.69981, 50.82256]}, "properties": {}}, {"type": "Feature", "geometry": {"type": "Point", "coordinates": [16.454231, 48.221076]}, "properties": {}}, {"type": "Feature", "geometry": {"type": "Point", "coordinates": [16.95161, 48.144162]}, "properties": {}}, {"type": "Feature", "geometry": {"type": "Point", "coordinates": [-124.185664, 43.585726]}, "properties": {}}, {"type": "Feature", "geometry": {"type": "Point", "coordinates": [16.46514, 47.1073]}, "properties": {}}, {"type": "Feature", "geometry": {"type": "Point", "coordinates": [16.45177, 48.217173]}, "properties": {}}, {"type": "Feature", "geometry": {"type": "Point", "coordinates": [19.32342, 47.195183]}, "properties": {}}, {"type": "Feature", "geometry": {"type": "Point", "coordinates": [16.451662, 48.218797]}, "properties": {}}, {"type": "Feature", "geometry": {"type": "Point", "coordinates": [16.458934, 48.22457]}, "properties": {}}, {"type": "Feature", "geometry": {"type": "Point", "coordinates": [116.060922, 39.869583]}, "properties": {}}, {"type": "Feature", "geometry": {"type": "Point", "coordinates": [26.221269, 50.532041]}, "properties": {}}, {"type": "Feature", "geometry": {"type": "Point", "coordinates": [16.947896, 48.142869]}, "properties": {}}, {"type": "Feature", "geometry": {"type": "Point", "coordinates": [16.949644, 48.155496]}, "properties": {}}, {"type": "Feature", "geometry": {"type": "Point", "coordinates": [168.730729, -45.017225]}, "properties": {}}, {"type": "Feature", "geometry": {"type": "Point", "coordinates": [16.457318, 48.222443]}, "properties": {}}, {"type": "Feature", "geometry": {"type": "Point", "coordinates": [6.1, 52.0]}, "properties": {}}, {"type": "Feature", "geometry": {"type": "Point", "coordinates": [5.05, 51.85]}, "properties": {}}, {"type": "Feature", "geometry": {"type": "Point", "coordinates": [5.15, 52.0]}, "properties": {}}, {"type": "Feature", "geometry": {"type": "Point", "coordinates": [16.40029, 48.314152]}, "properties": {}}, {"type": "Feature", "geometry": {"type": "Point", "coordinates": [16.40219, 48.314318]}, "properties": {}}, {"type": "Feature", "geometry": {"type": "Point", "coordinates": [16.401867, 48.313685]}, "properties": {}}, {"type": "Feature", "geometry": {"type": "Point", "coordinates": [16.858388, 47.989075]}, "properties": {}}, {"type": "Feature", "geometry": {"type": "Point", "coordinates": [16.39504, 48.316004]}, "properties": {}}, {"type": "Feature", "geometry": {"type": "Point", "coordinates": [16.401029, 48.313844]}, "properties": {}}, {"type": "Feature", "geometry": {"type": "Point", "coordinates": [12.642388, 46.90307]}, "properties": {}}, {"type": "Feature", "geometry": {"type": "Point", "coordinates": [16.857183, 47.989422]}, "properties": {}}, {"type": "Feature", "geometry": {"type": "Point", "coordinates": [16.322489, 49.088021]}, "properties": {}}, {"type": "Feature", "geometry": {"type": "Point", "coordinates": [15.497117, 47.04145]}, "properties": {}}, {"type": "Feature", "geometry": {"type": "Point", "coordinates": [6.0, 53.2]}, "properties": {}}, {"type": "Feature", "geometry": {"type": "Point", "coordinates": [16.273036, 48.000986]}, "properties": {}}, {"type": "Feature", "geometry": {"type": "Point", "coordinates": [-0.20692, 50.85606]}, "properties": {}}, {"type": "Feature", "geometry": {"type": "Point", "coordinates": [13.213188, 47.422391]}, "properties": {}}, {"type": "Feature", "geometry": {"type": "Point", "coordinates": [4.7, 51.75]}, "properties": {}}, {"type": "Feature", "geometry": {"type": "Point", "coordinates": [5.15, 51.95]}, "properties": {}}, {"type": "Feature", "geometry": {"type": "Point", "coordinates": [8.700408, 49.342041]}, "properties": {}}, {"type": "Feature", "geometry": {"type": "Point", "coordinates": [5.30139, 51.22042]}, "properties": {}}, {"type": "Feature", "geometry": {"type": "Point", "coordinates": [5.26266, 50.91309]}, "properties": {}}, {"type": "Feature", "geometry": {"type": "Point", "coordinates": [5.40991, 50.81402]}, "properties": {}}, {"type": "Feature", "geometry": {"type": "Point", "coordinates": [5.29393, 50.81457]}, "properties": {}}, {"type": "Feature", "geometry": {"type": "Point", "coordinates": [4.17583, 51.10791]}, "properties": {}}, {"type": "Feature", "geometry": {"type": "Point", "coordinates": [4.62972, 50.77632]}, "properties": {}}, {"type": "Feature", "geometry": {"type": "Point", "coordinates": [4.68454, 50.86528]}, "properties": {}}, {"type": "Feature", "geometry": {"type": "Point", "coordinates": [76.603639, 43.169631]}, "properties": {}}, {"type": "Feature", "geometry": {"type": "Point", "coordinates": [14.042412, 50.760559]}, "properties": {}}, {"type": "Feature", "geometry": {"type": "Point", "coordinates": [3.018458, 45.758611]}, "properties": {}}, {"type": "Feature", "geometry": {"type": "Point", "coordinates": [26.225581, 50.529204]}, "properties": {}}, {"type": "Feature", "geometry": {"type": "Point", "coordinates": [14.524485, 48.353258]}, "properties": {}}, {"type": "Feature", "geometry": {"type": "Point", "coordinates": [13.854831, 50.681092]}, "properties": {}}, {"type": "Feature", "geometry": {"type": "Point", "coordinates": [16.512357, 48.16171]}, "properties": {}}, {"type": "Feature", "geometry": {"type": "Point", "coordinates": [2.127689, 47.877684]}, "properties": {}}, {"type": "Feature", "geometry": {"type": "Point", "coordinates": [19.819001, 50.164181]}, "properties": {}}, {"type": "Feature", "geometry": {"type": "Point", "coordinates": [16.35509, 56.66027]}, "properties": {}}, {"type": "Feature", "geometry": {"type": "Point", "coordinates": [5.366461, 50.594422]}, "properties": {}}, {"type": "Feature", "geometry": {"type": "Point", "coordinates": [4.23128, 50.80135]}, "properties": {}}, {"type": "Feature", "geometry": {"type": "Point", "coordinates": [8.65963, 49.265228]}, "properties": {}}, {"type": "Feature", "geometry": {"type": "Point", "coordinates": [4.0, 51.25]}, "properties": {}}, {"type": "Feature", "geometry": {"type": "Point", "coordinates": [13.24025, 47.419971]}, "properties": {}}, {"type": "Feature", "geometry": {"type": "Point", "coordinates": [5.2, 51.45]}, "properties": {}}, {"type": "Feature", "geometry": {"type": "Point", "coordinates": [5.1, 52.1]}, "properties": {}}, {"type": "Feature", "geometry": {"type": "Point", "coordinates": [4.1054, 51.00797]}, "properties": {}}, {"type": "Feature", "geometry": {"type": "Point", "coordinates": [4.34318, 51.13153]}, "properties": {}}, {"type": "Feature", "geometry": {"type": "Point", "coordinates": [3.54993, 50.75824]}, "properties": {}}, {"type": "Feature", "geometry": {"type": "Point", "coordinates": [4.74729, 51.4451]}, "properties": {}}, {"type": "Feature", "geometry": {"type": "Point", "coordinates": [4.1107, 51.00712]}, "properties": {}}, {"type": "Feature", "geometry": {"type": "Point", "coordinates": [8.459278, 49.319607]}, "properties": {}}, {"type": "Feature", "geometry": {"type": "Point", "coordinates": [10.63956, 53.84832]}, "properties": {}}, {"type": "Feature", "geometry": {"type": "Point", "coordinates": [2.446042, 48.774083]}, "properties": {}}, {"type": "Feature", "geometry": {"type": "Point", "coordinates": [17.2828, 46.982122]}, "properties": {}}, {"type": "Feature", "geometry": {"type": "Point", "coordinates": [12.476495, 41.815628]}, "properties": {}}, {"type": "Feature", "geometry": {"type": "Point", "coordinates": [37.432581, 44.802092]}, "properties": {}}, {"type": "Feature", "geometry": {"type": "Point", "coordinates": [2.477044, 49.282125]}, "properties": {}}, {"type": "Feature", "geometry": {"type": "Point", "coordinates": [1.633063, 49.000847]}, "properties": {}}, {"type": "Feature", "geometry": {"type": "Point", "coordinates": [17.281681, 46.983209]}, "properties": {}}, {"type": "Feature", "geometry": {"type": "Point", "coordinates": [16.323373, 50.863196]}, "properties": {}}, {"type": "Feature", "geometry": {"type": "Point", "coordinates": [16.323417, 50.863171]}, "properties": {}}, {"type": "Feature", "geometry": {"type": "Point", "coordinates": [33.533758, 44.556648]}, "properties": {}}, {"type": "Feature", "geometry": {"type": "Point", "coordinates": [-3.809288, 37.698735]}, "properties": {}}, {"type": "Feature", "geometry": {"type": "Point", "coordinates": [5.2, 51.85]}, "properties": {}}, {"type": "Feature", "geometry": {"type": "Point", "coordinates": [4.15, 51.55]}, "properties": {}}, {"type": "Feature", "geometry": {"type": "Point", "coordinates": [4.33892, 50.91355]}, "properties": {}}, {"type": "Feature", "geometry": {"type": "Point", "coordinates": [-7.918137, 31.135333]}, "properties": {}}, {"type": "Feature", "geometry": {"type": "Point", "coordinates": [10.002022, 48.475426]}, "properties": {}}, {"type": "Feature", "geometry": {"type": "Point", "coordinates": [104.761725, 32.576242]}, "properties": {}}, {"type": "Feature", "geometry": {"type": "Point", "coordinates": [6.75, 52.25]}, "properties": {}}, {"type": "Feature", "geometry": {"type": "Point", "coordinates": [11.178349, 51.893148]}, "properties": {}}, {"type": "Feature", "geometry": {"type": "Point", "coordinates": [37.432304, 44.801686]}, "properties": {}}, {"type": "Feature", "geometry": {"type": "Point", "coordinates": [4.02191, 50.73807]}, "properties": {}}, {"type": "Feature", "geometry": {"type": "Point", "coordinates": [4.95, 51.8]}, "properties": {}}, {"type": "Feature", "geometry": {"type": "Point", "coordinates": [5.30302, 50.9529]}, "properties": {}}, {"type": "Feature", "geometry": {"type": "Point", "coordinates": [5.45746, 50.82961]}, "properties": {}}, {"type": "Feature", "geometry": {"type": "Point", "coordinates": [4.30392, 50.9465]}, "properties": {}}, {"type": "Feature", "geometry": {"type": "Point", "coordinates": [4.43418, 51.20665]}, "properties": {}}, {"type": "Feature", "geometry": {"type": "Point", "coordinates": [5.45746, 50.82961]}, "properties": {}}, {"type": "Feature", "geometry": {"type": "Point", "coordinates": [8.70482, 49.183556]}, "properties": {}}, {"type": "Feature", "geometry": {"type": "Point", "coordinates": [8.696451, 49.186695]}, "properties": {}}, {"type": "Feature", "geometry": {"type": "Point", "coordinates": [11.281155, 50.708168]}, "properties": {}}, {"type": "Feature", "geometry": {"type": "Point", "coordinates": [17.20544, 45.505437]}, "properties": {}}, {"type": "Feature", "geometry": {"type": "Point", "coordinates": [115.712994, 39.565907]}, "properties": {}}, {"type": "Feature", "geometry": {"type": "Point", "coordinates": [-122.181297, 37.428058]}, "properties": {}}, {"type": "Feature", "geometry": {"type": "Point", "coordinates": [8.277574, 49.643571]}, "properties": {}}, {"type": "Feature", "geometry": {"type": "Point", "coordinates": [13.670463, 42.849824]}, "properties": {}}, {"type": "Feature", "geometry": {"type": "Point", "coordinates": [6.1, 52.55]}, "properties": {}}, {"type": "Feature", "geometry": {"type": "Point", "coordinates": [5.2, 51.95]}, "properties": {}}, {"type": "Feature", "geometry": {"type": "Point", "coordinates": [5.85, 50.85]}, "properties": {}}, {"type": "Feature", "geometry": {"type": "Point", "coordinates": [5.7, 51.85]}, "properties": {}}, {"type": "Feature", "geometry": {"type": "Point", "coordinates": [13.048324, 47.302416]}, "properties": {}}, {"type": "Feature", "geometry": {"type": "Point", "coordinates": [4.84778, 50.79492]}, "properties": {}}, {"type": "Feature", "geometry": {"type": "Point", "coordinates": [4.00616, 51.17588]}, "properties": {}}, {"type": "Feature", "geometry": {"type": "Point", "coordinates": [4.28794, 51.06495]}, "properties": {}}, {"type": "Feature", "geometry": {"type": "Point", "coordinates": [3.74562, 51.02462]}, "properties": {}}, {"type": "Feature", "geometry": {"type": "Point", "coordinates": [3.44478, 50.85055]}, "properties": {}}, {"type": "Feature", "geometry": {"type": "Point", "coordinates": [3.78885, 51.04774]}, "properties": {}}, {"type": "Feature", "geometry": {"type": "Point", "coordinates": [4.61704, 51.22929]}, "properties": {}}, {"type": "Feature", "geometry": {"type": "Point", "coordinates": [4.34314, 51.1316]}, "properties": {}}, {"type": "Feature", "geometry": {"type": "Point", "coordinates": [4.94411, 50.78554]}, "properties": {}}, {"type": "Feature", "geometry": {"type": "Point", "coordinates": [4.34319, 51.13157]}, "properties": {}}, {"type": "Feature", "geometry": {"type": "Point", "coordinates": [4.70519, 50.88518]}, "properties": {}}, {"type": "Feature", "geometry": {"type": "Point", "coordinates": [4.57206, 50.87554]}, "properties": {}}, {"type": "Feature", "geometry": {"type": "Point", "coordinates": [3.71378, 50.85174]}, "properties": {}}, {"type": "Feature", "geometry": {"type": "Point", "coordinates": [3.6822, 51.03602]}, "properties": {}}, {"type": "Feature", "geometry": {"type": "Point", "coordinates": [4.30392, 50.9465]}, "properties": {}}, {"type": "Feature", "geometry": {"type": "Point", "coordinates": [4.70519, 50.8853]}, "properties": {}}, {"type": "Feature", "geometry": {"type": "Point", "coordinates": [5.52721, 50.84042]}, "properties": {}}, {"type": "Feature", "geometry": {"type": "Point", "coordinates": [9.500049, 52.50338]}, "properties": {}}, {"type": "Feature", "geometry": {"type": "Point", "coordinates": [8.497227, 49.866409]}, "properties": {}}, {"type": "Feature", "geometry": {"type": "Point", "coordinates": [8.381281, 49.996899]}, "properties": {}}, {"type": "Feature", "geometry": {"type": "Point", "coordinates": [8.622808, 50.146665]}, "properties": {}}, {"type": "Feature", "geometry": {"type": "Point", "coordinates": [20.128532, 44.997699]}, "properties": {}}, {"type": "Feature", "geometry": {"type": "Point", "coordinates": [16.871675, 46.801105]}, "properties": {}}, {"type": "Feature", "geometry": {"type": "Point", "coordinates": [3.068881, 45.676072]}, "properties": {}}, {"type": "Feature", "geometry": {"type": "Point", "coordinates": [3.068891, 45.676081]}, "properties": {}}, {"type": "Feature", "geometry": {"type": "Point", "coordinates": [15.563997, 46.746018]}, "properties": {}}, {"type": "Feature", "geometry": {"type": "Point", "coordinates": [16.26778, 47.999605]}, "properties": {}}, {"type": "Feature", "geometry": {"type": "Point", "coordinates": [15.565546, 48.056078]}, "properties": {}}, {"type": "Feature", "geometry": {"type": "Point", "coordinates": [8.269332, 49.626792]}, "properties": {}}, {"type": "Feature", "geometry": {"type": "Point", "coordinates": [8.517512, 50.138536]}, "properties": {}}, {"type": "Feature", "geometry": {"type": "Point", "coordinates": [8.451007, 48.979219]}, "properties": {}}, {"type": "Feature", "geometry": {"type": "Point", "coordinates": [16.129071, 48.504675]}, "properties": {}}, {"type": "Feature", "geometry": {"type": "Point", "coordinates": [8.270547, 46.122804]}, "properties": {}}, {"type": "Feature", "geometry": {"type": "Point", "coordinates": [21.378728, 46.740842]}, "properties": {}}, {"type": "Feature", "geometry": {"type": "Point", "coordinates": [3.137522, 45.979678]}, "properties": {}}, {"type": "Feature", "geometry": {"type": "Point", "coordinates": [8.274086, 49.635146]}, "properties": {}}, {"type": "Feature", "geometry": {"type": "Point", "coordinates": [19.020408, 47.413336]}, "properties": {}}, {"type": "Feature", "geometry": {"type": "Point", "coordinates": [5.2, 51.85]}, "properties": {}}, {"type": "Feature", "geometry": {"type": "Point", "coordinates": [5.85, 51.9]}, "properties": {}}, {"type": "Feature", "geometry": {"type": "Point", "coordinates": [10.397338, 53.249319]}, "properties": {}}, {"type": "Feature", "geometry": {"type": "Point", "coordinates": [6.4, 52.05]}, "properties": {}}, {"type": "Feature", "geometry": {"type": "Point", "coordinates": [5.85, 51.9]}, "properties": {}}, {"type": "Feature", "geometry": {"type": "Point", "coordinates": [15.781994, 47.09927]}, "properties": {}}, {"type": "Feature", "geometry": {"type": "Point", "coordinates": [5.6, 52.0]}, "properties": {}}, {"type": "Feature", "geometry": {"type": "Point", "coordinates": [14.249286, 48.302479]}, "properties": {}}, {"type": "Feature", "geometry": {"type": "Point", "coordinates": [4.8, 52.45]}, "properties": {}}, {"type": "Feature", "geometry": {"type": "Point", "coordinates": [13.076237, 47.757459]}, "properties": {}}, {"type": "Feature", "geometry": {"type": "Point", "coordinates": [4.85, 51.45]}, "properties": {}}, {"type": "Feature", "geometry": {"type": "Point", "coordinates": [16.875027, 47.756347]}, "properties": {}}, {"type": "Feature", "geometry": {"type": "Point", "coordinates": [3.68534, 51.06775]}, "properties": {}}, {"type": "Feature", "geometry": {"type": "Point", "coordinates": [4.91118, 51.06379]}, "properties": {}}, {"type": "Feature", "geometry": {"type": "Point", "coordinates": [3.82325, 51.00836]}, "properties": {}}, {"type": "Feature", "geometry": {"type": "Point", "coordinates": [3.39871, 51.17372]}, "properties": {}}, {"type": "Feature", "geometry": {"type": "Point", "coordinates": [4.17404, 51.11784]}, "properties": {}}, {"type": "Feature", "geometry": {"type": "Point", "coordinates": [4.64024, 51.34564]}, "properties": {}}, {"type": "Feature", "geometry": {"type": "Point", "coordinates": [4.10841, 51.12487]}, "properties": {}}, {"type": "Feature", "geometry": {"type": "Point", "coordinates": [3.70732, 50.99955]}, "properties": {}}, {"type": "Feature", "geometry": {"type": "Point", "coordinates": [3.55401, 50.99377]}, "properties": {}}, {"type": "Feature", "geometry": {"type": "Point", "coordinates": [4.66772, 51.20597]}, "properties": {}}, {"type": "Feature", "geometry": {"type": "Point", "coordinates": [4.32114, 51.15885]}, "properties": {}}, {"type": "Feature", "geometry": {"type": "Point", "coordinates": [5.32774, 50.89132]}, "properties": {}}, {"type": "Feature", "geometry": {"type": "Point", "coordinates": [3.12599, 51.02672]}, "properties": {}}, {"type": "Feature", "geometry": {"type": "Point", "coordinates": [4.08956, 51.14678]}, "properties": {}}, {"type": "Feature", "geometry": {"type": "Point", "coordinates": [4.25717, 50.87941]}, "properties": {}}, {"type": "Feature", "geometry": {"type": "Point", "coordinates": [5.32774, 50.89132]}, "properties": {}}, {"type": "Feature", "geometry": {"type": "Point", "coordinates": [4.66804, 51.20599]}, "properties": {}}, {"type": "Feature", "geometry": {"type": "Point", "coordinates": [3.55399, 50.99378]}, "properties": {}}, {"type": "Feature", "geometry": {"type": "Point", "coordinates": [4.17352, 51.11725]}, "properties": {}}, {"type": "Feature", "geometry": {"type": "Point", "coordinates": [4.8805, 50.83834]}, "properties": {}}, {"type": "Feature", "geometry": {"type": "Point", "coordinates": [4.89322, 50.85583]}, "properties": {}}, {"type": "Feature", "geometry": {"type": "Point", "coordinates": [3.55402, 50.99375]}, "properties": {}}, {"type": "Feature", "geometry": {"type": "Point", "coordinates": [2.99036, 51.08771]}, "properties": {}}, {"type": "Feature", "geometry": {"type": "Point", "coordinates": [4.41154, 51.16512]}, "properties": {}}, {"type": "Feature", "geometry": {"type": "Point", "coordinates": [3.77585, 50.77618]}, "properties": {}}, {"type": "Feature", "geometry": {"type": "Point", "coordinates": [4.11167, 51.1723]}, "properties": {}}, {"type": "Feature", "geometry": {"type": "Point", "coordinates": [3.56242, 51.08983]}, "properties": {}}, {"type": "Feature", "geometry": {"type": "Point", "coordinates": [4.38374, 51.05304]}, "properties": {}}, {"type": "Feature", "geometry": {"type": "Point", "coordinates": [3.68221, 51.06637]}, "properties": {}}, {"type": "Feature", "geometry": {"type": "Point", "coordinates": [3.77585, 50.77617]}, "properties": {}}, {"type": "Feature", "geometry": {"type": "Point", "coordinates": [5.18132, 50.83985]}, "properties": {}}, {"type": "Feature", "geometry": {"type": "Point", "coordinates": [4.76572, 51.40911]}, "properties": {}}, {"type": "Feature", "geometry": {"type": "Point", "coordinates": [3.31721, 50.83813]}, "properties": {}}, {"type": "Feature", "geometry": {"type": "Point", "coordinates": [13.008576, 47.837517]}, "properties": {}}, {"type": "Feature", "geometry": {"type": "Point", "coordinates": [6.25, 52.2]}, "properties": {}}, {"type": "Feature", "geometry": {"type": "Point", "coordinates": [13.063179, 47.776122]}, "properties": {}}, {"type": "Feature", "geometry": {"type": "Point", "coordinates": [4.8, 51.5]}, "properties": {}}, {"type": "Feature", "geometry": {"type": "Point", "coordinates": [13.068989, 47.790705]}, "properties": {}}, {"type": "Feature", "geometry": {"type": "Point", "coordinates": [6.1, 52.75]}, "properties": {}}, {"type": "Feature", "geometry": {"type": "Point", "coordinates": [13.07473, 47.777412]}, "properties": {}}, {"type": "Feature", "geometry": {"type": "Point", "coordinates": [13.00228, 47.836036]}, "properties": {}}, {"type": "Feature", "geometry": {"type": "Point", "coordinates": [6.3, 52.05]}, "properties": {}}, {"type": "Feature", "geometry": {"type": "Point", "coordinates": [4.1055, 50.98999]}, "properties": {}}, {"type": "Feature", "geometry": {"type": "Point", "coordinates": [11.0394, 46.375534]}, "properties": {}}, {"type": "Feature", "geometry": {"type": "Point", "coordinates": [19.955867, 50.082263]}, "properties": {}}, {"type": "Feature", "geometry": {"type": "Point", "coordinates": [1.451704, 43.632454]}, "properties": {}}, {"type": "Feature", "geometry": {"type": "Point", "coordinates": [16.328077, 46.299179]}, "properties": {}}, {"type": "Feature", "geometry": {"type": "Point", "coordinates": [19.935064, 50.040489]}, "properties": {}}, {"type": "Feature", "geometry": {"type": "Point", "coordinates": [14.449919, 50.016358]}, "properties": {}}, {"type": "Feature", "geometry": {"type": "Point", "coordinates": [15.626925, 46.098282]}, "properties": {}}, {"type": "Feature", "geometry": {"type": "Point", "coordinates": [15.337722, 47.114192]}, "properties": {}}, {"type": "Feature", "geometry": {"type": "Point", "coordinates": [6.650094, 46.779254]}, "properties": {}}, {"type": "Feature", "geometry": {"type": "Point", "coordinates": [16.477053, 48.171399]}, "properties": {}}, {"type": "Feature", "geometry": {"type": "Point", "coordinates": [2.039731, 41.479591]}, "properties": {}}, {"type": "Feature", "geometry": {"type": "Point", "coordinates": [19.956556, 50.082162]}, "properties": {}}, {"type": "Feature", "geometry": {"type": "Point", "coordinates": [1.240628, 45.120213]}, "properties": {}}, {"type": "Feature", "geometry": {"type": "Point", "coordinates": [14.415275, 50.096439]}, "properties": {}}, {"type": "Feature", "geometry": {"type": "Point", "coordinates": [13.876772, 50.303793]}, "properties": {}}, {"type": "Feature", "geometry": {"type": "Point", "coordinates": [7.630369, 47.508123]}, "properties": {}}, {"type": "Feature", "geometry": {"type": "Point", "coordinates": [6.34115, 49.619969]}, "properties": {}}, {"type": "Feature", "geometry": {"type": "Point", "coordinates": [11.439937, 53.604986]}, "properties": {}}, {"type": "Feature", "geometry": {"type": "Point", "coordinates": [19.956444, 50.082247]}, "properties": {}}, {"type": "Feature", "geometry": {"type": "Point", "coordinates": [15.61154, 48.205481]}, "properties": {}}, {"type": "Feature", "geometry": {"type": "Point", "coordinates": [19.120886, 47.608739]}, "properties": {}}, {"type": "Feature", "geometry": {"type": "Point", "coordinates": [19.975247, 50.054407]}, "properties": {}}, {"type": "Feature", "geometry": {"type": "Point", "coordinates": [15.304061, 46.99085]}, "properties": {}}, {"type": "Feature", "geometry": {"type": "Point", "coordinates": [26.12045, 44.41331]}, "properties": {}}, {"type": "Feature", "geometry": {"type": "Point", "coordinates": [26.126873, 44.406203]}, "properties": {}}, {"type": "Feature", "geometry": {"type": "Point", "coordinates": [2.828461, 48.376769]}, "properties": {}}, {"type": "Feature", "geometry": {"type": "Point", "coordinates": [-0.611361, 38.847519]}, "properties": {}}]}