{"type": "FeatureCollection", "name": "Artemisia absinthium", "features": [{"type": "Feature", "geometry": {"type": "Point", "coordinates": [18.761505, 47.066811]}, "properties": {}}, {"type": "Feature", "geometry": {"type": "Point", "coordinates": [46.428867, 55.495561]}, "properties": {}}, {"type": "Feature", "geometry": {"type": "Point", "coordinates": [37.616204, 54.168828]}, "properties": {}}, {"type": "Feature", "geometry": {"type": "Point", "coordinates": [-0.667325, 52.92226]}, "properties": {}}, {"type": "Feature", "geometry": {"type": "Point", "coordinates": [16.54372, 56.33163]}, "properties": {}}, {"type": "Feature", "geometry": {"type": "Point", "coordinates": [18.12834, 57.44045]}, "properties": {}}, {"type": "Feature", "geometry": {"type": "Point", "coordinates": [7.34139, 46.25389]}, "properties": {}}, {"type": "Feature", "geometry": {"type": "Point", "coordinates": [7.34139, 46.25389]}, "properties": {}}, {"type": "Feature", "geometry": {"type": "Point", "coordinates": [7.34139, 46.25389]}, "properties": {}}, {"type": "Feature", "geometry": {"type": "Point", "coordinates": [16.968667, 47.768975]}, "properties": {}}, {"type": "Feature", "geometry": {"type": "Point", "coordinates": [-121.764041, 38.538864]}, "properties": {}}, {"type": "Feature", "geometry": {"type": "Point", "coordinates": [7.390536, 50.451308]}, "properties": {}}, {"type": "Feature", "geometry": {"type": "Point", "coordinates": [-121.763965, 38.538879]}, "properties": {}}, {"type": "Feature", "geometry": {"type": "Point", "coordinates": [40.449768, 56.144017]}, "properties": {}}, {"type": "Feature", "geometry": {"type": "Point", "coordinates": [49.452236, 53.468206]}, "properties": {}}, {"type": "Feature", "geometry": {"type": "Point", "coordinates": [-114.021521, 50.956843]}, "properties": {}}, {"type": "Feature", "geometry": {"type": "Point", "coordinates": [-114.008775, 50.899912]}, "properties": {}}, {"type": "Feature", "geometry": {"type": "Point", "coordinates": [-113.546176, 53.451611]}, "properties": {}}, {"type": "Feature", "geometry": {"type": "Point", "coordinates": [-97.104382, 49.878346]}, "properties": {}}, {"type": "Feature", "geometry": {"type": "Point", "coordinates": [36.051405, 51.73875]}, "properties": {}}, {"type": "Feature", "geometry": {"type": "Point", "coordinates": [7.678313, 46.313538]}, "properties": {}}, {"type": "Feature", "geometry": {"type": "Point", "coordinates": [-121.764009, 38.538876]}, "properties": {}}, {"type": "Feature", "geometry": {"type": "Point", "coordinates": [40.259408, 56.106607]}, "properties": {}}, {"type": "Feature", "geometry": {"type": "Point", "coordinates": [60.1991, 55.496333]}, "properties": {}}, {"type": "Feature", "geometry": {"type": "Point", "coordinates": [14.410312, 49.855028]}, "properties": {}}, {"type": "Feature", "geometry": {"type": "Point", "coordinates": [3.75, 51.7]}, "properties": {}}, {"type": "Feature", "geometry": {"type": "Point", "coordinates": [3.75, 51.7]}, "properties": {}}, {"type": "Feature", "geometry": {"type": "Point", "coordinates": [3.85, 51.3]}, "properties": {}}, {"type": "Feature", "geometry": {"type": "Point", "coordinates": [3.75, 51.7]}, "properties": {}}, {"type": "Feature", "geometry": {"type": "Point", "coordinates": [5.65, 50.8]}, "properties": {}}, {"type": "Feature", "geometry": {"type": "Point", "coordinates": [-119.349228, 50.232522]}, "properties": {}}, {"type": "Feature", "geometry": {"type": "Point", "coordinates": [-114.041564, 51.047078]}, "properties": {}}, {"type": "Feature", "geometry": {"type": "Point", "coordinates": [3.75, 51.7]}, "properties": {}}, {"type": "Feature", "geometry": {"type": "Point", "coordinates": [59.421728, 55.321106]}, "properties": {}}, {"type": "Feature", "geometry": {"type": "Point", "coordinates": [37.367798, 45.270196]}, "properties": {}}, {"type": "Feature", "geometry": {"type": "Point", "coordinates": [26.102473, 52.111406]}, "properties": {}}, {"type": "Feature", "geometry": {"type": "Point", "coordinates": [11.728685, 44.153188]}, "properties": {}}, {"type": "Feature", "geometry": {"type": "Point", "coordinates": [17.116215, 47.987557]}, "properties": {}}, {"type": "Feature", "geometry": {"type": "Point", "coordinates": [17.04782, 48.050637]}, "properties": {}}, {"type": "Feature", "geometry": {"type": "Point", "coordinates": [50.055706, 53.194223]}, "properties": {}}, {"type": "Feature", "geometry": {"type": "Point", "coordinates": [4.25, 52.05]}, "properties": {}}, {"type": "Feature", "geometry": {"type": "Point", "coordinates": [5.6, 52.2]}, "properties": {}}, {"type": "Feature", "geometry": {"type": "Point", "coordinates": [5.2, 52.35]}, "properties": {}}, {"type": "Feature", "geometry": {"type": "Point", "coordinates": [-110.671743, 50.046808]}, "properties": {}}, {"type": "Feature", "geometry": {"type": "Point", "coordinates": [58.613578, 53.789102]}, "properties": {}}, {"type": "Feature", "geometry": {"type": "Point", "coordinates": [12.678788, 46.875592]}, "properties": {}}, {"type": "Feature", "geometry": {"type": "Point", "coordinates": [-118.83743, 49.012696]}, "properties": {}}, {"type": "Feature", "geometry": {"type": "Point", "coordinates": [58.635541, 53.811485]}, "properties": {}}, {"type": "Feature", "geometry": {"type": "Point", "coordinates": [58.637947, 53.805913]}, "properties": {}}, {"type": "Feature", "geometry": {"type": "Point", "coordinates": [58.620718, 53.79124]}, "properties": {}}, {"type": "Feature", "geometry": {"type": "Point", "coordinates": [16.287168, 48.004888]}, "properties": {}}, {"type": "Feature", "geometry": {"type": "Point", "coordinates": [-97.115438, 49.89874]}, "properties": {}}, {"type": "Feature", "geometry": {"type": "Point", "coordinates": [18.410302, 45.855198]}, "properties": {}}, {"type": "Feature", "geometry": {"type": "Point", "coordinates": [58.63553, 53.811559]}, "properties": {}}, {"type": "Feature", "geometry": {"type": "Point", "coordinates": [-0.19243, 51.468244]}, "properties": {}}, {"type": "Feature", "geometry": {"type": "Point", "coordinates": [58.60398, 53.796702]}, "properties": {}}, {"type": "Feature", "geometry": {"type": "Point", "coordinates": [-112.851354, 49.754424]}, "properties": {}}, {"type": "Feature", "geometry": {"type": "Point", "coordinates": [4.25, 52.05]}, "properties": {}}, {"type": "Feature", "geometry": {"type": "Point", "coordinates": [4.25, 52.05]}, "properties": {}}, {"type": "Feature", "geometry": {"type": "Point", "coordinates": [3.75, 51.7]}, "properties": {}}, {"type": "Feature", "geometry": {"type": "Point", "coordinates": [-106.698255, 52.089597]}, "properties": {}}, {"type": "Feature", "geometry": {"type": "Point", "coordinates": [-106.641338, 52.133734]}, "properties": {}}, {"type": "Feature", "geometry": {"type": "Point", "coordinates": [-106.68407, 52.101901]}, "properties": {}}, {"type": "Feature", "geometry": {"type": "Point", "coordinates": [-97.595853, 30.272527]}, "properties": {}}, {"type": "Feature", "geometry": {"type": "Point", "coordinates": [58.620105, 53.812959]}, "properties": {}}, {"type": "Feature", "geometry": {"type": "Point", "coordinates": [18.420137, 45.856345]}, "properties": {}}, {"type": "Feature", "geometry": {"type": "Point", "coordinates": [-113.522792, 53.538311]}, "properties": {}}, {"type": "Feature", "geometry": {"type": "Point", "coordinates": [-114.038742, 51.046825]}, "properties": {}}, {"type": "Feature", "geometry": {"type": "Point", "coordinates": [18.43037, 45.855184]}, "properties": {}}, {"type": "Feature", "geometry": {"type": "Point", "coordinates": [4.9, 52.4]}, "properties": {}}, {"type": "Feature", "geometry": {"type": "Point", "coordinates": [4.25, 51.8]}, "properties": {}}, {"type": "Feature", "geometry": {"type": "Point", "coordinates": [4.0, 51.35]}, "properties": {}}, {"type": "Feature", "geometry": {"type": "Point", "coordinates": [-97.246145, 49.959801]}, "properties": {}}, {"type": "Feature", "geometry": {"type": "Point", "coordinates": [-0.667706, 52.922325]}, "properties": {}}, {"type": "Feature", "geometry": {"type": "Point", "coordinates": [6.904359, 44.520134]}, "properties": {}}, {"type": "Feature", "geometry": {"type": "Point", "coordinates": [26.227868, 50.527962]}, "properties": {}}, {"type": "Feature", "geometry": {"type": "Point", "coordinates": [-5.555547, 42.612442]}, "properties": {}}, {"type": "Feature", "geometry": {"type": "Point", "coordinates": [26.222042, 50.525972]}, "properties": {}}, {"type": "Feature", "geometry": {"type": "Point", "coordinates": [7.023674, 50.51977]}, "properties": {}}, {"type": "Feature", "geometry": {"type": "Point", "coordinates": [37.988074, 55.773984]}, "properties": {}}, {"type": "Feature", "geometry": {"type": "Point", "coordinates": [33.870677, 44.611642]}, "properties": {}}, {"type": "Feature", "geometry": {"type": "Point", "coordinates": [60.205076, 55.495823]}, "properties": {}}, {"type": "Feature", "geometry": {"type": "Point", "coordinates": [28.708304, 46.969462]}, "properties": {}}, {"type": "Feature", "geometry": {"type": "Point", "coordinates": [-5.55537, 42.61237]}, "properties": {}}, {"type": "Feature", "geometry": {"type": "Point", "coordinates": [-1.133408, 53.977817]}, "properties": {}}, {"type": "Feature", "geometry": {"type": "Point", "coordinates": [49.287676, 53.489362]}, "properties": {}}, {"type": "Feature", "geometry": {"type": "Point", "coordinates": [16.281548, 47.98912]}, "properties": {}}, {"type": "Feature", "geometry": {"type": "Point", "coordinates": [6.939997, 46.996443]}, "properties": {}}, {"type": "Feature", "geometry": {"type": "Point", "coordinates": [-5.555374, 42.612399]}, "properties": {}}, {"type": "Feature", "geometry": {"type": "Point", "coordinates": [-106.652944, 52.125876]}, "properties": {}}, {"type": "Feature", "geometry": {"type": "Point", "coordinates": [-112.872734, 49.706299]}, "properties": {}}, {"type": "Feature", "geometry": {"type": "Point", "coordinates": [33.872187, 44.61327]}, "properties": {}}, {"type": "Feature", "geometry": {"type": "Point", "coordinates": [60.211136, 55.48874]}, "properties": {}}, {"type": "Feature", "geometry": {"type": "Point", "coordinates": [22.213131, 44.5447]}, "properties": {}}, {"type": "Feature", "geometry": {"type": "Point", "coordinates": [4.6, 52.45]}, "properties": {}}, {"type": "Feature", "geometry": {"type": "Point", "coordinates": [4.95, 52.35]}, "properties": {}}, {"type": "Feature", "geometry": {"type": "Point", "coordinates": [4.3, 51.7]}, "properties": {}}, {"type": "Feature", "geometry": {"type": "Point", "coordinates": [4.95, 52.35]}, "properties": {}}, {"type": "Feature", "geometry": {"type": "Point", "coordinates": [4.95, 52.35]}, "properties": {}}, {"type": "Feature", "geometry": {"type": "Point", "coordinates": [4.75, 51.65]}, "properties": {}}, {"type": "Feature", "geometry": {"type": "Point", "coordinates": [4.95, 52.35]}, "properties": {}}, {"type": "Feature", "geometry": {"type": "Point", "coordinates": [4.6, 52.45]}, "properties": {}}, {"type": "Feature", "geometry": {"type": "Point", "coordinates": [5.2, 52.35]}, "properties": {}}, {"type": "Feature", "geometry": {"type": "Point", "coordinates": [4.95, 52.35]}, "properties": {}}, {"type": "Feature", "geometry": {"type": "Point", "coordinates": [-113.904813, 50.941345]}, "properties": {}}, {"type": "Feature", "geometry": {"type": "Point", "coordinates": [-113.707847, 53.591308]}, "properties": {}}, {"type": "Feature", "geometry": {"type": "Point", "coordinates": [-114.009048, 50.938291]}, "properties": {}}, {"type": "Feature", "geometry": {"type": "Point", "coordinates": [7.855922, 45.467024]}, "properties": {}}, {"type": "Feature", "geometry": {"type": "Point", "coordinates": [60.580678, 56.853189]}, "properties": {}}, {"type": "Feature", "geometry": {"type": "Point", "coordinates": [-114.047547, 51.039281]}, "properties": {}}, {"type": "Feature", "geometry": {"type": "Point", "coordinates": [-114.048675, 51.038886]}, "properties": {}}, {"type": "Feature", "geometry": {"type": "Point", "coordinates": [15.865398, 48.855045]}, "properties": {}}, {"type": "Feature", "geometry": {"type": "Point", "coordinates": [7.079867, 46.128865]}, "properties": {}}, {"type": "Feature", "geometry": {"type": "Point", "coordinates": [21.567968, 52.158436]}, "properties": {}}, {"type": "Feature", "geometry": {"type": "Point", "coordinates": [47.253177, 56.14995]}, "properties": {}}, {"type": "Feature", "geometry": {"type": "Point", "coordinates": [30.249479, 48.982165]}, "properties": {}}, {"type": "Feature", "geometry": {"type": "Point", "coordinates": [18.761839, 47.433106]}, "properties": {}}, {"type": "Feature", "geometry": {"type": "Point", "coordinates": [60.531733, 56.818356]}, "properties": {}}, {"type": "Feature", "geometry": {"type": "Point", "coordinates": [17.820828, 46.923548]}, "properties": {}}, {"type": "Feature", "geometry": {"type": "Point", "coordinates": [16.763783, 47.951103]}, "properties": {}}, {"type": "Feature", "geometry": {"type": "Point", "coordinates": [33.932539, 44.715939]}, "properties": {}}, {"type": "Feature", "geometry": {"type": "Point", "coordinates": [14.390469, 49.912247]}, "properties": {}}, {"type": "Feature", "geometry": {"type": "Point", "coordinates": [-113.372353, 53.60105]}, "properties": {}}, {"type": "Feature", "geometry": {"type": "Point", "coordinates": [61.557936, 55.143952]}, "properties": {}}, {"type": "Feature", "geometry": {"type": "Point", "coordinates": [-113.903122, 50.939258]}, "properties": {}}, {"type": "Feature", "geometry": {"type": "Point", "coordinates": [56.148595, 54.684091]}, "properties": {}}, {"type": "Feature", "geometry": {"type": "Point", "coordinates": [16.476898, 47.658343]}, "properties": {}}, {"type": "Feature", "geometry": {"type": "Point", "coordinates": [10.382708, 46.470225]}, "properties": {}}, {"type": "Feature", "geometry": {"type": "Point", "coordinates": [-114.047692, 51.039803]}, "properties": {}}, {"type": "Feature", "geometry": {"type": "Point", "coordinates": [35.161792, 49.47558]}, "properties": {}}, {"type": "Feature", "geometry": {"type": "Point", "coordinates": [8.469485, 49.481072]}, "properties": {}}, {"type": "Feature", "geometry": {"type": "Point", "coordinates": [16.320136, 48.014117]}, "properties": {}}, {"type": "Feature", "geometry": {"type": "Point", "coordinates": [16.757282, 49.107935]}, "properties": {}}, {"type": "Feature", "geometry": {"type": "Point", "coordinates": [16.32137, 48.01367]}, "properties": {}}, {"type": "Feature", "geometry": {"type": "Point", "coordinates": [-112.381183, 51.633233]}, "properties": {}}, {"type": "Feature", "geometry": {"type": "Point", "coordinates": [16.612783, 47.975992]}, "properties": {}}, {"type": "Feature", "geometry": {"type": "Point", "coordinates": [16.774513, 47.953578]}, "properties": {}}, {"type": "Feature", "geometry": {"type": "Point", "coordinates": [16.469702, 47.332883]}, "properties": {}}, {"type": "Feature", "geometry": {"type": "Point", "coordinates": [16.535657, 47.55014]}, "properties": {}}, {"type": "Feature", "geometry": {"type": "Point", "coordinates": [-93.441678, 44.942103]}, "properties": {}}, {"type": "Feature", "geometry": {"type": "Point", "coordinates": [17.222855, 48.154183]}, "properties": {}}, {"type": "Feature", "geometry": {"type": "Point", "coordinates": [-114.009048, 50.938291]}, "properties": {}}, {"type": "Feature", "geometry": {"type": "Point", "coordinates": [47.173764, 56.108079]}, "properties": {}}, {"type": "Feature", "geometry": {"type": "Point", "coordinates": [23.309029, 51.266533]}, "properties": {}}, {"type": "Feature", "geometry": {"type": "Point", "coordinates": [18.761636, 47.433222]}, "properties": {}}, {"type": "Feature", "geometry": {"type": "Point", "coordinates": [40.272515, 56.113325]}, "properties": {}}, {"type": "Feature", "geometry": {"type": "Point", "coordinates": [16.97686, 48.099176]}, "properties": {}}, {"type": "Feature", "geometry": {"type": "Point", "coordinates": [-114.047644, 51.039817]}, "properties": {}}, {"type": "Feature", "geometry": {"type": "Point", "coordinates": [37.577555, 54.850137]}, "properties": {}}, {"type": "Feature", "geometry": {"type": "Point", "coordinates": [47.453946, 56.109243]}, "properties": {}}, {"type": "Feature", "geometry": {"type": "Point", "coordinates": [42.733596, 43.897064]}, "properties": {}}, {"type": "Feature", "geometry": {"type": "Point", "coordinates": [7.856038, 45.467139]}, "properties": {}}, {"type": "Feature", "geometry": {"type": "Point", "coordinates": [61.341043, 55.086257]}, "properties": {}}, {"type": "Feature", "geometry": {"type": "Point", "coordinates": [16.763363, 47.951062]}, "properties": {}}, {"type": "Feature", "geometry": {"type": "Point", "coordinates": [41.866811, 43.621622]}, "properties": {}}, {"type": "Feature", "geometry": {"type": "Point", "coordinates": [30.248231, 48.98621]}, "properties": {}}, {"type": "Feature", "geometry": {"type": "Point", "coordinates": [-104.678545, 50.459633]}, "properties": {}}, {"type": "Feature", "geometry": {"type": "Point", "coordinates": [26.644572, 48.759998]}, "properties": {}}, {"type": "Feature", "geometry": {"type": "Point", "coordinates": [36.109739, 51.729375]}, "properties": {}}, {"type": "Feature", "geometry": {"type": "Point", "coordinates": [11.441262, 48.177822]}, "properties": {}}, {"type": "Feature", "geometry": {"type": "Point", "coordinates": [-96.615303, 33.158108]}, "properties": {}}, {"type": "Feature", "geometry": {"type": "Point", "coordinates": [33.946237, 51.13802]}, "properties": {}}, {"type": "Feature", "geometry": {"type": "Point", "coordinates": [5.95, 51.95]}, "properties": {}}, {"type": "Feature", "geometry": {"type": "Point", "coordinates": [47.203242, 56.146714]}, "properties": {}}, {"type": "Feature", "geometry": {"type": "Point", "coordinates": [16.76382, 47.951095]}, "properties": {}}, {"type": "Feature", "geometry": {"type": "Point", "coordinates": [40.126831, 50.454022]}, "properties": {}}, {"type": "Feature", "geometry": {"type": "Point", "coordinates": [23.307021, 51.266667]}, "properties": {}}, {"type": "Feature", "geometry": {"type": "Point", "coordinates": [37.633806, 54.216719]}, "properties": {}}, {"type": "Feature", "geometry": {"type": "Point", "coordinates": [39.087921, 51.664755]}, "properties": {}}, {"type": "Feature", "geometry": {"type": "Point", "coordinates": [16.72195, 47.936455]}, "properties": {}}, {"type": "Feature", "geometry": {"type": "Point", "coordinates": [76.913888, 43.207787]}, "properties": {}}, {"type": "Feature", "geometry": {"type": "Point", "coordinates": [41.70149, 55.985708]}, "properties": {}}, {"type": "Feature", "geometry": {"type": "Point", "coordinates": [76.870962, 43.234631]}, "properties": {}}, {"type": "Feature", "geometry": {"type": "Point", "coordinates": [40.129269, 50.453589]}, "properties": {}}, {"type": "Feature", "geometry": {"type": "Point", "coordinates": [39.104765, 51.665433]}, "properties": {}}, {"type": "Feature", "geometry": {"type": "Point", "coordinates": [76.936922, 43.21794]}, "properties": {}}, {"type": "Feature", "geometry": {"type": "Point", "coordinates": [51.257328, 53.916029]}, "properties": {}}, {"type": "Feature", "geometry": {"type": "Point", "coordinates": [39.103435, 51.665101]}, "properties": {}}, {"type": "Feature", "geometry": {"type": "Point", "coordinates": [36.468166, 49.899014]}, "properties": {}}, {"type": "Feature", "geometry": {"type": "Point", "coordinates": [9.99039, 46.032823]}, "properties": {}}, {"type": "Feature", "geometry": {"type": "Point", "coordinates": [-97.097751, 33.01758]}, "properties": {}}, {"type": "Feature", "geometry": {"type": "Point", "coordinates": [39.107962, 51.665726]}, "properties": {}}, {"type": "Feature", "geometry": {"type": "Point", "coordinates": [39.099323, 51.664424]}, "properties": {}}, {"type": "Feature", "geometry": {"type": "Point", "coordinates": [37.588852, 55.812459]}, "properties": {}}, {"type": "Feature", "geometry": {"type": "Point", "coordinates": [-114.009048, 50.938291]}, "properties": {}}, {"type": "Feature", "geometry": {"type": "Point", "coordinates": [-114.009048, 50.938291]}, "properties": {}}, {"type": "Feature", "geometry": {"type": "Point", "coordinates": [-114.009048, 50.938291]}, "properties": {}}, {"type": "Feature", "geometry": {"type": "Point", "coordinates": [-114.048705, 51.038903]}, "properties": {}}, {"type": "Feature", "geometry": {"type": "Point", "coordinates": [43.09457, 44.037082]}, "properties": {}}, {"type": "Feature", "geometry": {"type": "Point", "coordinates": [44.817467, 40.13984]}, "properties": {}}, {"type": "Feature", "geometry": {"type": "Point", "coordinates": [76.907512, 43.200972]}, "properties": {}}, {"type": "Feature", "geometry": {"type": "Point", "coordinates": [-97.117682, 49.872007]}, "properties": {}}, {"type": "Feature", "geometry": {"type": "Point", "coordinates": [-2.00637, 52.69406]}, "properties": {}}, {"type": "Feature", "geometry": {"type": "Point", "coordinates": [-105.197188, 40.049076]}, "properties": {}}, {"type": "Feature", "geometry": {"type": "Point", "coordinates": [-97.118952, 49.871932]}, "properties": {}}, {"type": "Feature", "geometry": {"type": "Point", "coordinates": [-1.184204, 53.273693]}, "properties": {}}, {"type": "Feature", "geometry": {"type": "Point", "coordinates": [-1.860537, 38.974514]}, "properties": {}}, {"type": "Feature", "geometry": {"type": "Point", "coordinates": [-114.048675, 51.038892]}, "properties": {}}, {"type": "Feature", "geometry": {"type": "Point", "coordinates": [-40.498056, -10.825833]}, "properties": {}}, {"type": "Feature", "geometry": {"type": "Point", "coordinates": [6.5, 53.2]}, "properties": {}}, {"type": "Feature", "geometry": {"type": "Point", "coordinates": [6.5, 53.2]}, "properties": {}}, {"type": "Feature", "geometry": {"type": "Point", "coordinates": [16.457488, 47.48989]}, "properties": {}}, {"type": "Feature", "geometry": {"type": "Point", "coordinates": [39.129307, 51.718754]}, "properties": {}}, {"type": "Feature", "geometry": {"type": "Point", "coordinates": [56.943903, 57.432279]}, "properties": {}}, {"type": "Feature", "geometry": {"type": "Point", "coordinates": [58.021747, 55.018356]}, "properties": {}}, {"type": "Feature", "geometry": {"type": "Point", "coordinates": [39.166375, 54.906528]}, "properties": {}}, {"type": "Feature", "geometry": {"type": "Point", "coordinates": [37.591361, 54.16897]}, "properties": {}}, {"type": "Feature", "geometry": {"type": "Point", "coordinates": [33.784313, 44.538567]}, "properties": {}}, {"type": "Feature", "geometry": {"type": "Point", "coordinates": [61.655666, 55.10611]}, "properties": {}}, {"type": "Feature", "geometry": {"type": "Point", "coordinates": [38.698975, 54.904381]}, "properties": {}}, {"type": "Feature", "geometry": {"type": "Point", "coordinates": [50.215364, 53.247175]}, "properties": {}}, {"type": "Feature", "geometry": {"type": "Point", "coordinates": [36.803786, 51.400319]}, "properties": {}}, {"type": "Feature", "geometry": {"type": "Point", "coordinates": [39.130208, 51.71801]}, "properties": {}}, {"type": "Feature", "geometry": {"type": "Point", "coordinates": [61.620934, 55.111637]}, "properties": {}}, {"type": "Feature", "geometry": {"type": "Point", "coordinates": [39.141001, 51.715098]}, "properties": {}}, {"type": "Feature", "geometry": {"type": "Point", "coordinates": [39.257606, 54.930983]}, "properties": {}}, {"type": "Feature", "geometry": {"type": "Point", "coordinates": [37.392225, 55.830513]}, "properties": {}}, {"type": "Feature", "geometry": {"type": "Point", "coordinates": [36.172761, 51.649728]}, "properties": {}}, {"type": "Feature", "geometry": {"type": "Point", "coordinates": [39.203889, 51.716544]}, "properties": {}}, {"type": "Feature", "geometry": {"type": "Point", "coordinates": [26.537128, 48.974609]}, "properties": {}}, {"type": "Feature", "geometry": {"type": "Point", "coordinates": [37.655501, 54.207856]}, "properties": {}}, {"type": "Feature", "geometry": {"type": "Point", "coordinates": [16.67859, 47.517894]}, "properties": {}}, {"type": "Feature", "geometry": {"type": "Point", "coordinates": [39.128813, 51.718449]}, "properties": {}}, {"type": "Feature", "geometry": {"type": "Point", "coordinates": [16.607987, 47.400641]}, "properties": {}}, {"type": "Feature", "geometry": {"type": "Point", "coordinates": [37.950571, 55.786175]}, "properties": {}}, {"type": "Feature", "geometry": {"type": "Point", "coordinates": [-117.48655, 47.651997]}, "properties": {}}, {"type": "Feature", "geometry": {"type": "Point", "coordinates": [36.803607, 51.405915]}, "properties": {}}, {"type": "Feature", "geometry": {"type": "Point", "coordinates": [26.536869, 48.976772]}, "properties": {}}, {"type": "Feature", "geometry": {"type": "Point", "coordinates": [-106.746888, 51.995722]}, "properties": {}}, {"type": "Feature", "geometry": {"type": "Point", "coordinates": [16.702092, 47.422658]}, "properties": {}}, {"type": "Feature", "geometry": {"type": "Point", "coordinates": [39.156288, 51.70539]}, "properties": {}}, {"type": "Feature", "geometry": {"type": "Point", "coordinates": [37.528794, 54.821039]}, "properties": {}}, {"type": "Feature", "geometry": {"type": "Point", "coordinates": [39.126707, 56.69854]}, "properties": {}}, {"type": "Feature", "geometry": {"type": "Point", "coordinates": [15.85904, 56.0925]}, "properties": {}}, {"type": "Feature", "geometry": {"type": "Point", "coordinates": [15.88819, 56.1172]}, "properties": {}}, {"type": "Feature", "geometry": {"type": "Point", "coordinates": [16.53788, 56.7188]}, "properties": {}}, {"type": "Feature", "geometry": {"type": "Point", "coordinates": [5.4, 51.85]}, "properties": {}}, {"type": "Feature", "geometry": {"type": "Point", "coordinates": [5.75, 51.5]}, "properties": {}}, {"type": "Feature", "geometry": {"type": "Point", "coordinates": [4.25, 52.05]}, "properties": {}}, {"type": "Feature", "geometry": {"type": "Point", "coordinates": [43.43121, 43.105858]}, "properties": {}}, {"type": "Feature", "geometry": {"type": "Point", "coordinates": [39.453618, 52.601984]}, "properties": {}}, {"type": "Feature", "geometry": {"type": "Point", "coordinates": [45.041131, 53.131257]}, "properties": {}}, {"type": "Feature", "geometry": {"type": "Point", "coordinates": [31.928533, 49.240397]}, "properties": {}}, {"type": "Feature", "geometry": {"type": "Point", "coordinates": [43.921608, 56.423224]}, "properties": {}}, {"type": "Feature", "geometry": {"type": "Point", "coordinates": [31.931751, 49.241544]}, "properties": {}}, {"type": "Feature", "geometry": {"type": "Point", "coordinates": [39.229118, 51.572322]}, "properties": {}}, {"type": "Feature", "geometry": {"type": "Point", "coordinates": [39.227777, 51.576337]}, "properties": {}}, {"type": "Feature", "geometry": {"type": "Point", "coordinates": [-98.769203, 44.311662]}, "properties": {}}, {"type": "Feature", "geometry": {"type": "Point", "coordinates": [-117.135069, 47.677105]}, "properties": {}}, {"type": "Feature", "geometry": {"type": "Point", "coordinates": [39.21282, 51.603186]}, "properties": {}}, {"type": "Feature", "geometry": {"type": "Point", "coordinates": [34.60846, 48.047156]}, "properties": {}}, {"type": "Feature", "geometry": {"type": "Point", "coordinates": [-93.287955, 44.953717]}, "properties": {}}, {"type": "Feature", "geometry": {"type": "Point", "coordinates": [45.076662, 53.122182]}, "properties": {}}, {"type": "Feature", "geometry": {"type": "Point", "coordinates": [0.103496, 41.943191]}, "properties": {}}, {"type": "Feature", "geometry": {"type": "Point", "coordinates": [49.398512, 53.498638]}, "properties": {}}, {"type": "Feature", "geometry": {"type": "Point", "coordinates": [43.432372, 43.105521]}, "properties": {}}, {"type": "Feature", "geometry": {"type": "Point", "coordinates": [31.916966, 49.246269]}, "properties": {}}, {"type": "Feature", "geometry": {"type": "Point", "coordinates": [39.211554, 51.601274]}, "properties": {}}, {"type": "Feature", "geometry": {"type": "Point", "coordinates": [77.063645, 43.408692]}, "properties": {}}, {"type": "Feature", "geometry": {"type": "Point", "coordinates": [27.288675, 53.700697]}, "properties": {}}, {"type": "Feature", "geometry": {"type": "Point", "coordinates": [39.235443, 51.657917]}, "properties": {}}, {"type": "Feature", "geometry": {"type": "Point", "coordinates": [39.2239, 51.604565]}, "properties": {}}, {"type": "Feature", "geometry": {"type": "Point", "coordinates": [43.604942, 52.440772]}, "properties": {}}, {"type": "Feature", "geometry": {"type": "Point", "coordinates": [39.212172, 51.683702]}, "properties": {}}, {"type": "Feature", "geometry": {"type": "Point", "coordinates": [56.206997, 57.984645]}, "properties": {}}, {"type": "Feature", "geometry": {"type": "Point", "coordinates": [16.656999, 48.873304]}, "properties": {}}, {"type": "Feature", "geometry": {"type": "Point", "coordinates": [31.93113, 49.241812]}, "properties": {}}, {"type": "Feature", "geometry": {"type": "Point", "coordinates": [39.243586, 51.664899]}, "properties": {}}, {"type": "Feature", "geometry": {"type": "Point", "coordinates": [39.211807, 51.683569]}, "properties": {}}, {"type": "Feature", "geometry": {"type": "Point", "coordinates": [27.68775, 53.937368]}, "properties": {}}, {"type": "Feature", "geometry": {"type": "Point", "coordinates": [61.193581, 56.712421]}, "properties": {}}, {"type": "Feature", "geometry": {"type": "Point", "coordinates": [60.304907, 55.008457]}, "properties": {}}, {"type": "Feature", "geometry": {"type": "Point", "coordinates": [28.516355, 54.237597]}, "properties": {}}, {"type": "Feature", "geometry": {"type": "Point", "coordinates": [49.401658, 53.49912]}, "properties": {}}, {"type": "Feature", "geometry": {"type": "Point", "coordinates": [31.928377, 49.240007]}, "properties": {}}, {"type": "Feature", "geometry": {"type": "Point", "coordinates": [31.930221, 49.241964]}, "properties": {}}, {"type": "Feature", "geometry": {"type": "Point", "coordinates": [60.578019, 56.853787]}, "properties": {}}, {"type": "Feature", "geometry": {"type": "Point", "coordinates": [26.362005, 52.229619]}, "properties": {}}, {"type": "Feature", "geometry": {"type": "Point", "coordinates": [33.697014, 53.224734]}, "properties": {}}, {"type": "Feature", "geometry": {"type": "Point", "coordinates": [43.15416, 44.202437]}, "properties": {}}, {"type": "Feature", "geometry": {"type": "Point", "coordinates": [19.469391, 46.442]}, "properties": {}}, {"type": "Feature", "geometry": {"type": "Point", "coordinates": [43.724891, 43.374642]}, "properties": {}}, {"type": "Feature", "geometry": {"type": "Point", "coordinates": [10.637384, 47.112207]}, "properties": {}}, {"type": "Feature", "geometry": {"type": "Point", "coordinates": [39.220937, 51.667021]}, "properties": {}}, {"type": "Feature", "geometry": {"type": "Point", "coordinates": [39.236507, 51.60176]}, "properties": {}}, {"type": "Feature", "geometry": {"type": "Point", "coordinates": [60.203034, 55.492608]}, "properties": {}}, {"type": "Feature", "geometry": {"type": "Point", "coordinates": [39.228898, 51.667041]}, "properties": {}}, {"type": "Feature", "geometry": {"type": "Point", "coordinates": [31.928395, 49.24024]}, "properties": {}}, {"type": "Feature", "geometry": {"type": "Point", "coordinates": [56.65286, 55.381226]}, "properties": {}}, {"type": "Feature", "geometry": {"type": "Point", "coordinates": [43.72279, 43.373706]}, "properties": {}}, {"type": "Feature", "geometry": {"type": "Point", "coordinates": [16.55891, 56.67527]}, "properties": {}}, {"type": "Feature", "geometry": {"type": "Point", "coordinates": [16.60121, 56.59109]}, "properties": {}}, {"type": "Feature", "geometry": {"type": "Point", "coordinates": [4.9, 52.35]}, "properties": {}}, {"type": "Feature", "geometry": {"type": "Point", "coordinates": [4.25, 52.05]}, "properties": {}}, {"type": "Feature", "geometry": {"type": "Point", "coordinates": [5.2, 52.35]}, "properties": {}}, {"type": "Feature", "geometry": {"type": "Point", "coordinates": [3.5, 51.4]}, "properties": {}}, {"type": "Feature", "geometry": {"type": "Point", "coordinates": [5.2, 52.35]}, "properties": {}}, {"type": "Feature", "geometry": {"type": "Point", "coordinates": [5.85, 51.8]}, "properties": {}}, {"type": "Feature", "geometry": {"type": "Point", "coordinates": [6.05, 53.0]}, "properties": {}}, {"type": "Feature", "geometry": {"type": "Point", "coordinates": [4.9, 52.35]}, "properties": {}}]}