{"type": "FeatureCollection", "name": "Tussilago farfara", "features": [{"type": "Feature", "geometry": {"type": "Point", "coordinates": [-0.668192, 52.921986]}, "properties": {}}, {"type": "Feature", "geometry": {"type": "Point", "coordinates": [-0.475447, 51.532537]}, "properties": {}}, {"type": "Feature", "geometry": {"type": "Point", "coordinates": [17.284388, 43.471113]}, "properties": {}}, {"type": "Feature", "geometry": {"type": "Point", "coordinates": [11.387503, 47.298375]}, "properties": {}}, {"type": "Feature", "geometry": {"type": "Point", "coordinates": [3.51017, 50.881149]}, "properties": {}}, {"type": "Feature", "geometry": {"type": "Point", "coordinates": [9.46088, 47.113647]}, "properties": {}}, {"type": "Feature", "geometry": {"type": "Point", "coordinates": [-79.281598, 43.781198]}, "properties": {}}, {"type": "Feature", "geometry": {"type": "Point", "coordinates": [11.387479, 47.298392]}, "properties": {}}, {"type": "Feature", "geometry": {"type": "Point", "coordinates": [12.015821, 46.116267]}, "properties": {}}, {"type": "Feature", "geometry": {"type": "Point", "coordinates": [35.925696, 56.848586]}, "properties": {}}, {"type": "Feature", "geometry": {"type": "Point", "coordinates": [28.985992, 41.177361]}, "properties": {}}, {"type": "Feature", "geometry": {"type": "Point", "coordinates": [42.778558, 43.885267]}, "properties": {}}, {"type": "Feature", "geometry": {"type": "Point", "coordinates": [15.315095, 47.144233]}, "properties": {}}, {"type": "Feature", "geometry": {"type": "Point", "coordinates": [10.108094, 54.483628]}, "properties": {}}, {"type": "Feature", "geometry": {"type": "Point", "coordinates": [-85.303772, 35.837711]}, "properties": {}}, {"type": "Feature", "geometry": {"type": "Point", "coordinates": [11.366796, 47.272724]}, "properties": {}}, {"type": "Feature", "geometry": {"type": "Point", "coordinates": [-6.189203, 54.094322]}, "properties": {}}, {"type": "Feature", "geometry": {"type": "Point", "coordinates": [39.924999, 43.432204]}, "properties": {}}, {"type": "Feature", "geometry": {"type": "Point", "coordinates": [5.9, 50.75]}, "properties": {}}, {"type": "Feature", "geometry": {"type": "Point", "coordinates": [4.5, 52.0]}, "properties": {}}, {"type": "Feature", "geometry": {"type": "Point", "coordinates": [4.7, 51.75]}, "properties": {}}, {"type": "Feature", "geometry": {"type": "Point", "coordinates": [4.65, 51.95]}, "properties": {}}, {"type": "Feature", "geometry": {"type": "Point", "coordinates": [5.35, 51.8]}, "properties": {}}, {"type": "Feature", "geometry": {"type": "Point", "coordinates": [4.7, 51.75]}, "properties": {}}, {"type": "Feature", "geometry": {"type": "Point", "coordinates": [4.3, 51.95]}, "properties": {}}, {"type": "Feature", "geometry": {"type": "Point", "coordinates": [5.7, 50.9]}, "properties": {}}, {"type": "Feature", "geometry": {"type": "Point", "coordinates": [4.6, 51.9]}, "properties": {}}, {"type": "Feature", "geometry": {"type": "Point", "coordinates": [4.4, 51.95]}, "properties": {}}, {"type": "Feature", "geometry": {"type": "Point", "coordinates": [4.45, 51.95]}, "properties": {}}, {"type": "Feature", "geometry": {"type": "Point", "coordinates": [4.45, 51.9]}, "properties": {}}, {"type": "Feature", "geometry": {"type": "Point", "coordinates": [5.7, 50.8]}, "properties": {}}, {"type": "Feature", "geometry": {"type": "Point", "coordinates": [4.6, 51.65]}, "properties": {}}, {"type": "Feature", "geometry": {"type": "Point", "coordinates": [5.05, 52.3]}, "properties": {}}, {"type": "Feature", "geometry": {"type": "Point", "coordinates": [4.3, 52.0]}, "properties": {}}, {"type": "Feature", "geometry": {"type": "Point", "coordinates": [4.7, 51.7]}, "properties": {}}, {"type": "Feature", "geometry": {"type": "Point", "coordinates": [7.30435, 46.756447]}, "properties": {}}, {"type": "Feature", "geometry": {"type": "Point", "coordinates": [-2.612725, 53.669281]}, "properties": {}}, {"type": "Feature", "geometry": {"type": "Point", "coordinates": [-73.425719, 44.556179]}, "properties": {}}, {"type": "Feature", "geometry": {"type": "Point", "coordinates": [33.808217, 44.505253]}, "properties": {}}, {"type": "Feature", "geometry": {"type": "Point", "coordinates": [12.60384, 42.209802]}, "properties": {}}, {"type": "Feature", "geometry": {"type": "Point", "coordinates": [9.648082, 47.523208]}, "properties": {}}, {"type": "Feature", "geometry": {"type": "Point", "coordinates": [33.811602, 44.504862]}, "properties": {}}, {"type": "Feature", "geometry": {"type": "Point", "coordinates": [9.996902, 47.247528]}, "properties": {}}, {"type": "Feature", "geometry": {"type": "Point", "coordinates": [7.606068, 51.035351]}, "properties": {}}, {"type": "Feature", "geometry": {"type": "Point", "coordinates": [11.310053, 47.269965]}, "properties": {}}, {"type": "Feature", "geometry": {"type": "Point", "coordinates": [10.973761, 44.204181]}, "properties": {}}, {"type": "Feature", "geometry": {"type": "Point", "coordinates": [-0.964183, 42.766269]}, "properties": {}}, {"type": "Feature", "geometry": {"type": "Point", "coordinates": [9.768375, 46.936283]}, "properties": {}}, {"type": "Feature", "geometry": {"type": "Point", "coordinates": [3.37577, 50.59679]}, "properties": {}}, {"type": "Feature", "geometry": {"type": "Point", "coordinates": [8.379393, 48.225255]}, "properties": {}}, {"type": "Feature", "geometry": {"type": "Point", "coordinates": [10.551172, 43.733757]}, "properties": {}}, {"type": "Feature", "geometry": {"type": "Point", "coordinates": [11.022938, 46.433628]}, "properties": {}}, {"type": "Feature", "geometry": {"type": "Point", "coordinates": [11.366713, 47.612442]}, "properties": {}}, {"type": "Feature", "geometry": {"type": "Point", "coordinates": [8.2812, 45.238105]}, "properties": {}}, {"type": "Feature", "geometry": {"type": "Point", "coordinates": [13.020995, 47.372015]}, "properties": {}}, {"type": "Feature", "geometry": {"type": "Point", "coordinates": [15.961277, 46.98767]}, "properties": {}}, {"type": "Feature", "geometry": {"type": "Point", "coordinates": [-1.912678, 53.323897]}, "properties": {}}, {"type": "Feature", "geometry": {"type": "Point", "coordinates": [0.040133, 52.345991]}, "properties": {}}, {"type": "Feature", "geometry": {"type": "Point", "coordinates": [11.30958, 47.269802]}, "properties": {}}, {"type": "Feature", "geometry": {"type": "Point", "coordinates": [1.54251, 42.849672]}, "properties": {}}, {"type": "Feature", "geometry": {"type": "Point", "coordinates": [8.476944, 49.494167]}, "properties": {}}, {"type": "Feature", "geometry": {"type": "Point", "coordinates": [11.223048, 47.67062]}, "properties": {}}, {"type": "Feature", "geometry": {"type": "Point", "coordinates": [18.916083, 42.260955]}, "properties": {}}, {"type": "Feature", "geometry": {"type": "Point", "coordinates": [1.566595, 52.469495]}, "properties": {}}, {"type": "Feature", "geometry": {"type": "Point", "coordinates": [6.415446, 46.175302]}, "properties": {}}, {"type": "Feature", "geometry": {"type": "Point", "coordinates": [4.124692, 44.257169]}, "properties": {}}, {"type": "Feature", "geometry": {"type": "Point", "coordinates": [9.798863, 46.97495]}, "properties": {}}, {"type": "Feature", "geometry": {"type": "Point", "coordinates": [-2.476256, 51.533151]}, "properties": {}}, {"type": "Feature", "geometry": {"type": "Point", "coordinates": [7.623572, 47.511037]}, "properties": {}}, {"type": "Feature", "geometry": {"type": "Point", "coordinates": [15.376053, 47.864507]}, "properties": {}}, {"type": "Feature", "geometry": {"type": "Point", "coordinates": [-2.914635, 50.732736]}, "properties": {}}, {"type": "Feature", "geometry": {"type": "Point", "coordinates": [9.706803, 47.329983]}, "properties": {}}, {"type": "Feature", "geometry": {"type": "Point", "coordinates": [4.2, 51.9]}, "properties": {}}, {"type": "Feature", "geometry": {"type": "Point", "coordinates": [9.636849, 47.314573]}, "properties": {}}, {"type": "Feature", "geometry": {"type": "Point", "coordinates": [4.45, 51.95]}, "properties": {}}, {"type": "Feature", "geometry": {"type": "Point", "coordinates": [4.55, 52.45]}, "properties": {}}, {"type": "Feature", "geometry": {"type": "Point", "coordinates": [5.9, 52.55]}, "properties": {}}, {"type": "Feature", "geometry": {"type": "Point", "coordinates": [4.3, 52.05]}, "properties": {}}, {"type": "Feature", "geometry": {"type": "Point", "coordinates": [7.300056, 51.50071]}, "properties": {}}, {"type": "Feature", "geometry": {"type": "Point", "coordinates": [4.4, 52.05]}, "properties": {}}, {"type": "Feature", "geometry": {"type": "Point", "coordinates": [13.010963, 47.810649]}, "properties": {}}, {"type": "Feature", "geometry": {"type": "Point", "coordinates": [4.6, 51.85]}, "properties": {}}, {"type": "Feature", "geometry": {"type": "Point", "coordinates": [4.55, 52.45]}, "properties": {}}, {"type": "Feature", "geometry": {"type": "Point", "coordinates": [4.6, 52.05]}, "properties": {}}, {"type": "Feature", "geometry": {"type": "Point", "coordinates": [4.55, 52.3]}, "properties": {}}, {"type": "Feature", "geometry": {"type": "Point", "coordinates": [5.65, 51.2]}, "properties": {}}, {"type": "Feature", "geometry": {"type": "Point", "coordinates": [4.6, 51.85]}, "properties": {}}, {"type": "Feature", "geometry": {"type": "Point", "coordinates": [1.877919, 50.886965]}, "properties": {}}, {"type": "Feature", "geometry": {"type": "Point", "coordinates": [4.8, 52.35]}, "properties": {}}, {"type": "Feature", "geometry": {"type": "Point", "coordinates": [4.4, 52.05]}, "properties": {}}, {"type": "Feature", "geometry": {"type": "Point", "coordinates": [4.0, 51.35]}, "properties": {}}, {"type": "Feature", "geometry": {"type": "Point", "coordinates": [5.2, 52.35]}, "properties": {}}, {"type": "Feature", "geometry": {"type": "Point", "coordinates": [4.4, 52.05]}, "properties": {}}, {"type": "Feature", "geometry": {"type": "Point", "coordinates": [9.917452, 51.495408]}, "properties": {}}, {"type": "Feature", "geometry": {"type": "Point", "coordinates": [4.8, 51.75]}, "properties": {}}, {"type": "Feature", "geometry": {"type": "Point", "coordinates": [5.9, 50.85]}, "properties": {}}, {"type": "Feature", "geometry": {"type": "Point", "coordinates": [4.35, 52.0]}, "properties": {}}, {"type": "Feature", "geometry": {"type": "Point", "coordinates": [5.95, 50.9]}, "properties": {}}, {"type": "Feature", "geometry": {"type": "Point", "coordinates": [4.55, 51.85]}, "properties": {}}, {"type": "Feature", "geometry": {"type": "Point", "coordinates": [4.8, 52.3]}, "properties": {}}, {"type": "Feature", "geometry": {"type": "Point", "coordinates": [3.65, 51.55]}, "properties": {}}, {"type": "Feature", "geometry": {"type": "Point", "coordinates": [5.7, 50.9]}, "properties": {}}, {"type": "Feature", "geometry": {"type": "Point", "coordinates": [3.5, 51.35]}, "properties": {}}, {"type": "Feature", "geometry": {"type": "Point", "coordinates": [4.5, 51.95]}, "properties": {}}, {"type": "Feature", "geometry": {"type": "Point", "coordinates": [4.7, 51.85]}, "properties": {}}, {"type": "Feature", "geometry": {"type": "Point", "coordinates": [4.65, 52.0]}, "properties": {}}, {"type": "Feature", "geometry": {"type": "Point", "coordinates": [5.0, 52.05]}, "properties": {}}, {"type": "Feature", "geometry": {"type": "Point", "coordinates": [5.3, 51.9]}, "properties": {}}, {"type": "Feature", "geometry": {"type": "Point", "coordinates": [4.3, 51.9]}, "properties": {}}, {"type": "Feature", "geometry": {"type": "Point", "coordinates": [4.65, 52.4]}, "properties": {}}, {"type": "Feature", "geometry": {"type": "Point", "coordinates": [4.6, 51.8]}, "properties": {}}, {"type": "Feature", "geometry": {"type": "Point", "coordinates": [10.210661, 47.517217]}, "properties": {}}, {"type": "Feature", "geometry": {"type": "Point", "coordinates": [5.8, 50.9]}, "properties": {}}, {"type": "Feature", "geometry": {"type": "Point", "coordinates": [4.45, 51.95]}, "properties": {}}, {"type": "Feature", "geometry": {"type": "Point", "coordinates": [5.65, 50.8]}, "properties": {}}, {"type": "Feature", "geometry": {"type": "Point", "coordinates": [5.75, 50.9]}, "properties": {}}, {"type": "Feature", "geometry": {"type": "Point", "coordinates": [4.45, 51.9]}, "properties": {}}, {"type": "Feature", "geometry": {"type": "Point", "coordinates": [4.35, 51.9]}, "properties": {}}, {"type": "Feature", "geometry": {"type": "Point", "coordinates": [4.5, 52.15]}, "properties": {}}, {"type": "Feature", "geometry": {"type": "Point", "coordinates": [5.65, 50.8]}, "properties": {}}, {"type": "Feature", "geometry": {"type": "Point", "coordinates": [4.3, 52.0]}, "properties": {}}, {"type": "Feature", "geometry": {"type": "Point", "coordinates": [4.0, 51.35]}, "properties": {}}, {"type": "Feature", "geometry": {"type": "Point", "coordinates": [4.4, 52.05]}, "properties": {}}, {"type": "Feature", "geometry": {"type": "Point", "coordinates": [5.65, 50.8]}, "properties": {}}, {"type": "Feature", "geometry": {"type": "Point", "coordinates": [4.35, 52.0]}, "properties": {}}, {"type": "Feature", "geometry": {"type": "Point", "coordinates": [8.051552, 49.792206]}, "properties": {}}, {"type": "Feature", "geometry": {"type": "Point", "coordinates": [10.232048, 50.017887]}, "properties": {}}, {"type": "Feature", "geometry": {"type": "Point", "coordinates": [11.647226, 48.126358]}, "properties": {}}, {"type": "Feature", "geometry": {"type": "Point", "coordinates": [9.625234, 45.995584]}, "properties": {}}, {"type": "Feature", "geometry": {"type": "Point", "coordinates": [-3.907605, 42.990788]}, "properties": {}}, {"type": "Feature", "geometry": {"type": "Point", "coordinates": [15.349637, 47.070073]}, "properties": {}}, {"type": "Feature", "geometry": {"type": "Point", "coordinates": [-0.654838, 52.919807]}, "properties": {}}, {"type": "Feature", "geometry": {"type": "Point", "coordinates": [13.313359, 46.696132]}, "properties": {}}, {"type": "Feature", "geometry": {"type": "Point", "coordinates": [12.799437, 46.843128]}, "properties": {}}, {"type": "Feature", "geometry": {"type": "Point", "coordinates": [8.413711, 46.834414]}, "properties": {}}, {"type": "Feature", "geometry": {"type": "Point", "coordinates": [11.349477, 47.272819]}, "properties": {}}, {"type": "Feature", "geometry": {"type": "Point", "coordinates": [15.500143, 46.873787]}, "properties": {}}, {"type": "Feature", "geometry": {"type": "Point", "coordinates": [11.228702, 48.189965]}, "properties": {}}, {"type": "Feature", "geometry": {"type": "Point", "coordinates": [9.207584, 48.488235]}, "properties": {}}, {"type": "Feature", "geometry": {"type": "Point", "coordinates": [7.035387, 47.009633]}, "properties": {}}, {"type": "Feature", "geometry": {"type": "Point", "coordinates": [34.392536, 44.76044]}, "properties": {}}, {"type": "Feature", "geometry": {"type": "Point", "coordinates": [6.075161, 46.236028]}, "properties": {}}, {"type": "Feature", "geometry": {"type": "Point", "coordinates": [23.129181, 45.150325]}, "properties": {}}, {"type": "Feature", "geometry": {"type": "Point", "coordinates": [84.188138, 28.573387]}, "properties": {}}, {"type": "Feature", "geometry": {"type": "Point", "coordinates": [7.621525, 47.525405]}, "properties": {}}, {"type": "Feature", "geometry": {"type": "Point", "coordinates": [10.27512, 43.970877]}, "properties": {}}, {"type": "Feature", "geometry": {"type": "Point", "coordinates": [23.131483, 45.163644]}, "properties": {}}, {"type": "Feature", "geometry": {"type": "Point", "coordinates": [11.418963, 47.205947]}, "properties": {}}, {"type": "Feature", "geometry": {"type": "Point", "coordinates": [23.131484, 45.146148]}, "properties": {}}, {"type": "Feature", "geometry": {"type": "Point", "coordinates": [17.139129, 44.877219]}, "properties": {}}, {"type": "Feature", "geometry": {"type": "Point", "coordinates": [7.621587, 47.52413]}, "properties": {}}, {"type": "Feature", "geometry": {"type": "Point", "coordinates": [2.207422, 42.207945]}, "properties": {}}, {"type": "Feature", "geometry": {"type": "Point", "coordinates": [-0.656563, 53.786443]}, "properties": {}}, {"type": "Feature", "geometry": {"type": "Point", "coordinates": [39.925526, 43.416253]}, "properties": {}}, {"type": "Feature", "geometry": {"type": "Point", "coordinates": [15.912665, 47.09402]}, "properties": {}}, {"type": "Feature", "geometry": {"type": "Point", "coordinates": [0.107103, 52.230696]}, "properties": {}}, {"type": "Feature", "geometry": {"type": "Point", "coordinates": [10.275162, 43.970833]}, "properties": {}}, {"type": "Feature", "geometry": {"type": "Point", "coordinates": [23.133071, 45.142687]}, "properties": {}}, {"type": "Feature", "geometry": {"type": "Point", "coordinates": [11.215192, 45.649147]}, "properties": {}}, {"type": "Feature", "geometry": {"type": "Point", "coordinates": [11.40236, 47.244721]}, "properties": {}}, {"type": "Feature", "geometry": {"type": "Point", "coordinates": [10.010087, 45.713402]}, "properties": {}}, {"type": "Feature", "geometry": {"type": "Point", "coordinates": [12.008553, 42.736047]}, "properties": {}}, {"type": "Feature", "geometry": {"type": "Point", "coordinates": [23.12913, 45.149465]}, "properties": {}}, {"type": "Feature", "geometry": {"type": "Point", "coordinates": [-1.071714, 42.805533]}, "properties": {}}, {"type": "Feature", "geometry": {"type": "Point", "coordinates": [11.353174, 47.271529]}, "properties": {}}, {"type": "Feature", "geometry": {"type": "Point", "coordinates": [6.373504, 46.162162]}, "properties": {}}, {"type": "Feature", "geometry": {"type": "Point", "coordinates": [7.857665, 48.011345]}, "properties": {}}, {"type": "Feature", "geometry": {"type": "Point", "coordinates": [12.008533, 42.736033]}, "properties": {}}, {"type": "Feature", "geometry": {"type": "Point", "coordinates": [13.653455, 47.409162]}, "properties": {}}, {"type": "Feature", "geometry": {"type": "Point", "coordinates": [35.925816, 56.848572]}, "properties": {}}, {"type": "Feature", "geometry": {"type": "Point", "coordinates": [12.108594, 48.347692]}, "properties": {}}, {"type": "Feature", "geometry": {"type": "Point", "coordinates": [14.085722, 46.394383]}, "properties": {}}, {"type": "Feature", "geometry": {"type": "Point", "coordinates": [-1.357028, 54.964573]}, "properties": {}}, {"type": "Feature", "geometry": {"type": "Point", "coordinates": [10.506409, 43.53365]}, "properties": {}}, {"type": "Feature", "geometry": {"type": "Point", "coordinates": [14.245918, 47.585184]}, "properties": {}}, {"type": "Feature", "geometry": {"type": "Point", "coordinates": [10.275087, 43.970898]}, "properties": {}}, {"type": "Feature", "geometry": {"type": "Point", "coordinates": [23.134699, 45.173776]}, "properties": {}}, {"type": "Feature", "geometry": {"type": "Point", "coordinates": [5.331501, 60.298257]}, "properties": {}}, {"type": "Feature", "geometry": {"type": "Point", "coordinates": [9.549343, 59.300744]}, "properties": {}}, {"type": "Feature", "geometry": {"type": "Point", "coordinates": [8.123467, 49.214258]}, "properties": {}}, {"type": "Feature", "geometry": {"type": "Point", "coordinates": [10.89342, 55.733266]}, "properties": {}}, {"type": "Feature", "geometry": {"type": "Point", "coordinates": [11.902788, 54.721103]}, "properties": {}}, {"type": "Feature", "geometry": {"type": "Point", "coordinates": [3.607193, 43.924319]}, "properties": {}}, {"type": "Feature", "geometry": {"type": "Point", "coordinates": [5.945897, 46.068347]}, "properties": {}}, {"type": "Feature", "geometry": {"type": "Point", "coordinates": [6.239186, 45.877736]}, "properties": {}}, {"type": "Feature", "geometry": {"type": "Point", "coordinates": [-81.860114, 36.070351]}, "properties": {}}, {"type": "Feature", "geometry": {"type": "Point", "coordinates": [-0.489994, 52.661091]}, "properties": {}}, {"type": "Feature", "geometry": {"type": "Point", "coordinates": [2.656127, 48.863677]}, "properties": {}}, {"type": "Feature", "geometry": {"type": "Point", "coordinates": [-2.933103, 53.207575]}, "properties": {}}, {"type": "Feature", "geometry": {"type": "Point", "coordinates": [2.541008, 49.921395]}, "properties": {}}, {"type": "Feature", "geometry": {"type": "Point", "coordinates": [12.762851, 46.851443]}, "properties": {}}, {"type": "Feature", "geometry": {"type": "Point", "coordinates": [9.758262, 45.777694]}, "properties": {}}, {"type": "Feature", "geometry": {"type": "Point", "coordinates": [11.311945, 47.268247]}, "properties": {}}, {"type": "Feature", "geometry": {"type": "Point", "coordinates": [16.513309, 43.731428]}, "properties": {}}, {"type": "Feature", "geometry": {"type": "Point", "coordinates": [5.971451, 49.49435]}, "properties": {}}, {"type": "Feature", "geometry": {"type": "Point", "coordinates": [39.780965, 43.563452]}, "properties": {}}, {"type": "Feature", "geometry": {"type": "Point", "coordinates": [12.147578, 48.269829]}, "properties": {}}, {"type": "Feature", "geometry": {"type": "Point", "coordinates": [-4.292669, 55.885406]}, "properties": {}}, {"type": "Feature", "geometry": {"type": "Point", "coordinates": [15.914057, 45.84516]}, "properties": {}}, {"type": "Feature", "geometry": {"type": "Point", "coordinates": [7.803332, 48.516817]}, "properties": {}}, {"type": "Feature", "geometry": {"type": "Point", "coordinates": [23.009898, 46.003183]}, "properties": {}}, {"type": "Feature", "geometry": {"type": "Point", "coordinates": [11.312947, 47.268156]}, "properties": {}}, {"type": "Feature", "geometry": {"type": "Point", "coordinates": [14.083586, 46.582122]}, "properties": {}}, {"type": "Feature", "geometry": {"type": "Point", "coordinates": [11.174788, 45.714218]}, "properties": {}}, {"type": "Feature", "geometry": {"type": "Point", "coordinates": [9.132908, 44.411314]}, "properties": {}}, {"type": "Feature", "geometry": {"type": "Point", "coordinates": [12.568001, 46.191525]}, "properties": {}}, {"type": "Feature", "geometry": {"type": "Point", "coordinates": [38.720005, 44.357937]}, "properties": {}}, {"type": "Feature", "geometry": {"type": "Point", "coordinates": [16.170938, 46.03153]}, "properties": {}}, {"type": "Feature", "geometry": {"type": "Point", "coordinates": [-1.687454, 53.271638]}, "properties": {}}, {"type": "Feature", "geometry": {"type": "Point", "coordinates": [6.941194, 46.995583]}, "properties": {}}, {"type": "Feature", "geometry": {"type": "Point", "coordinates": [0.115492, 52.200976]}, "properties": {}}, {"type": "Feature", "geometry": {"type": "Point", "coordinates": [-0.397008, 53.731354]}, "properties": {}}, {"type": "Feature", "geometry": {"type": "Point", "coordinates": [11.314173, 47.268541]}, "properties": {}}, {"type": "Feature", "geometry": {"type": "Point", "coordinates": [9.672223, 47.493172]}, "properties": {}}, {"type": "Feature", "geometry": {"type": "Point", "coordinates": [9.631351, 46.002637]}, "properties": {}}, {"type": "Feature", "geometry": {"type": "Point", "coordinates": [38.802353, 44.333194]}, "properties": {}}, {"type": "Feature", "geometry": {"type": "Point", "coordinates": [13.99303, 41.709781]}, "properties": {}}, {"type": "Feature", "geometry": {"type": "Point", "coordinates": [-1.453924, 55.069916]}, "properties": {}}, {"type": "Feature", "geometry": {"type": "Point", "coordinates": [-1.593058, 54.976128]}, "properties": {}}, {"type": "Feature", "geometry": {"type": "Point", "coordinates": [5.273655, 45.291517]}, "properties": {}}, {"type": "Feature", "geometry": {"type": "Point", "coordinates": [18.84651, 44.436054]}, "properties": {}}, {"type": "Feature", "geometry": {"type": "Point", "coordinates": [12.88092, 43.170391]}, "properties": {}}, {"type": "Feature", "geometry": {"type": "Point", "coordinates": [-6.179398, 56.742666]}, "properties": {}}, {"type": "Feature", "geometry": {"type": "Point", "coordinates": [7.001662, 47.151823]}, "properties": {}}, {"type": "Feature", "geometry": {"type": "Point", "coordinates": [-81.866494, 36.069005]}, "properties": {}}, {"type": "Feature", "geometry": {"type": "Point", "coordinates": [38.80462, 44.33443]}, "properties": {}}, {"type": "Feature", "geometry": {"type": "Point", "coordinates": [-1.113472, 53.928284]}, "properties": {}}, {"type": "Feature", "geometry": {"type": "Point", "coordinates": [-0.054153, 51.678734]}, "properties": {}}, {"type": "Feature", "geometry": {"type": "Point", "coordinates": [-1.952572, 50.623725]}, "properties": {}}, {"type": "Feature", "geometry": {"type": "Point", "coordinates": [2.482669, 47.9242]}, "properties": {}}, {"type": "Feature", "geometry": {"type": "Point", "coordinates": [6.147888, 46.186517]}, "properties": {}}, {"type": "Feature", "geometry": {"type": "Point", "coordinates": [31.510825, 40.711042]}, "properties": {}}, {"type": "Feature", "geometry": {"type": "Point", "coordinates": [-0.541908, 50.913292]}, "properties": {}}, {"type": "Feature", "geometry": {"type": "Point", "coordinates": [-2.116558, 43.145092]}, "properties": {}}, {"type": "Feature", "geometry": {"type": "Point", "coordinates": [0.135967, 52.167529]}, "properties": {}}, {"type": "Feature", "geometry": {"type": "Point", "coordinates": [38.804653, 44.334387]}, "properties": {}}, {"type": "Feature", "geometry": {"type": "Point", "coordinates": [-2.683753, 53.747555]}, "properties": {}}, {"type": "Feature", "geometry": {"type": "Point", "coordinates": [39.545971, 44.412415]}, "properties": {}}, {"type": "Feature", "geometry": {"type": "Point", "coordinates": [0.53528, 52.361179]}, "properties": {}}, {"type": "Feature", "geometry": {"type": "Point", "coordinates": [38.802313, 44.333247]}, "properties": {}}, {"type": "Feature", "geometry": {"type": "Point", "coordinates": [1.531305, 42.840993]}, "properties": {}}, {"type": "Feature", "geometry": {"type": "Point", "coordinates": [10.302179, 42.701592]}, "properties": {}}, {"type": "Feature", "geometry": {"type": "Point", "coordinates": [-1.462083, 51.012291]}, "properties": {}}, {"type": "Feature", "geometry": {"type": "Point", "coordinates": [-2.202706, 53.155856]}, "properties": {}}, {"type": "Feature", "geometry": {"type": "Point", "coordinates": [15.396181, 45.32525]}, "properties": {}}, {"type": "Feature", "geometry": {"type": "Point", "coordinates": [4.34293, 50.069192]}, "properties": {}}, {"type": "Feature", "geometry": {"type": "Point", "coordinates": [-1.689384, 53.273668]}, "properties": {}}, {"type": "Feature", "geometry": {"type": "Point", "coordinates": [6.380387, 49.304192]}, "properties": {}}, {"type": "Feature", "geometry": {"type": "Point", "coordinates": [-1.90758, 53.328342]}, "properties": {}}, {"type": "Feature", "geometry": {"type": "Point", "coordinates": [10.424551, 43.531514]}, "properties": {}}, {"type": "Feature", "geometry": {"type": "Point", "coordinates": [9.564253, 45.83115]}, "properties": {}}, {"type": "Feature", "geometry": {"type": "Point", "coordinates": [9.426933, 44.390056]}, "properties": {}}, {"type": "Feature", "geometry": {"type": "Point", "coordinates": [40.199598, 44.24753]}, "properties": {}}, {"type": "Feature", "geometry": {"type": "Point", "coordinates": [4.277997, 52.028927]}, "properties": {}}, {"type": "Feature", "geometry": {"type": "Point", "coordinates": [11.039182, 44.226476]}, "properties": {}}, {"type": "Feature", "geometry": {"type": "Point", "coordinates": [14.357, 46.155822]}, "properties": {}}, {"type": "Feature", "geometry": {"type": "Point", "coordinates": [-122.104575, 48.206124]}, "properties": {}}, {"type": "Feature", "geometry": {"type": "Point", "coordinates": [19.340901, 47.713823]}, "properties": {}}, {"type": "Feature", "geometry": {"type": "Point", "coordinates": [6.015979, 46.188416]}, "properties": {}}, {"type": "Feature", "geometry": {"type": "Point", "coordinates": [-0.273042, 51.965577]}, "properties": {}}, {"type": "Feature", "geometry": {"type": "Point", "coordinates": [11.312026, 47.267803]}, "properties": {}}, {"type": "Feature", "geometry": {"type": "Point", "coordinates": [2.450266, 48.827305]}, "properties": {}}, {"type": "Feature", "geometry": {"type": "Point", "coordinates": [-2.889587, 52.908288]}, "properties": {}}, {"type": "Feature", "geometry": {"type": "Point", "coordinates": [7.215372, 47.564524]}, "properties": {}}, {"type": "Feature", "geometry": {"type": "Point", "coordinates": [38.80207, 44.333175]}, "properties": {}}, {"type": "Feature", "geometry": {"type": "Point", "coordinates": [9.582389, 47.638067]}, "properties": {}}, {"type": "Feature", "geometry": {"type": "Point", "coordinates": [-3.245526, 55.934326]}, "properties": {}}, {"type": "Feature", "geometry": {"type": "Point", "coordinates": [-0.112427, 42.894778]}, "properties": {}}, {"type": "Feature", "geometry": {"type": "Point", "coordinates": [-2.884558, 52.905839]}, "properties": {}}, {"type": "Feature", "geometry": {"type": "Point", "coordinates": [5.903813, 45.71129]}, "properties": {}}, {"type": "Feature", "geometry": {"type": "Point", "coordinates": [15.982005, 45.862822]}, "properties": {}}, {"type": "Feature", "geometry": {"type": "Point", "coordinates": [11.734928, 44.204651]}, "properties": {}}, {"type": "Feature", "geometry": {"type": "Point", "coordinates": [10.414285, 44.653941]}, "properties": {}}, {"type": "Feature", "geometry": {"type": "Point", "coordinates": [15.286459, 45.980488]}, "properties": {}}, {"type": "Feature", "geometry": {"type": "Point", "coordinates": [38.72007, 44.357942]}, "properties": {}}, {"type": "Feature", "geometry": {"type": "Point", "coordinates": [0.492058, 52.449578]}, "properties": {}}, {"type": "Feature", "geometry": {"type": "Point", "coordinates": [38.568142, 39.456395]}, "properties": {}}, {"type": "Feature", "geometry": {"type": "Point", "coordinates": [14.518283, 41.98871]}, "properties": {}}, {"type": "Feature", "geometry": {"type": "Point", "coordinates": [6.021375, 49.684833]}, "properties": {}}, {"type": "Feature", "geometry": {"type": "Point", "coordinates": [19.298131, 47.747414]}, "properties": {}}, {"type": "Feature", "geometry": {"type": "Point", "coordinates": [-2.125117, 53.221811]}, "properties": {}}, {"type": "Feature", "geometry": {"type": "Point", "coordinates": [5.6, 51.7]}, "properties": {}}, {"type": "Feature", "geometry": {"type": "Point", "coordinates": [5.4, 52.95]}, "properties": {}}, {"type": "Feature", "geometry": {"type": "Point", "coordinates": [4.65, 52.1]}, "properties": {}}, {"type": "Feature", "geometry": {"type": "Point", "coordinates": [5.75, 50.85]}, "properties": {}}, {"type": "Feature", "geometry": {"type": "Point", "coordinates": [5.1, 52.05]}, "properties": {}}, {"type": "Feature", "geometry": {"type": "Point", "coordinates": [6.0, 52.5]}, "properties": {}}, {"type": "Feature", "geometry": {"type": "Point", "coordinates": [4.75, 51.75]}, "properties": {}}, {"type": "Feature", "geometry": {"type": "Point", "coordinates": [4.15, 52.0]}, "properties": {}}, {"type": "Feature", "geometry": {"type": "Point", "coordinates": [5.3, 51.7]}, "properties": {}}, {"type": "Feature", "geometry": {"type": "Point", "coordinates": [5.95, 50.9]}, "properties": {}}, {"type": "Feature", "geometry": {"type": "Point", "coordinates": [4.6, 52.05]}, "properties": {}}, {"type": "Feature", "geometry": {"type": "Point", "coordinates": [4.4, 51.95]}, "properties": {}}, {"type": "Feature", "geometry": {"type": "Point", "coordinates": [4.85, 52.35]}, "properties": {}}, {"type": "Feature", "geometry": {"type": "Point", "coordinates": [4.85, 51.7]}, "properties": {}}, {"type": "Feature", "geometry": {"type": "Point", "coordinates": [6.7, 53.15]}, "properties": {}}, {"type": "Feature", "geometry": {"type": "Point", "coordinates": [5.0, 52.85]}, "properties": {}}, {"type": "Feature", "geometry": {"type": "Point", "coordinates": [3.047559, 50.635992]}, "properties": {}}, {"type": "Feature", "geometry": {"type": "Point", "coordinates": [5.05, 51.85]}, "properties": {}}, {"type": "Feature", "geometry": {"type": "Point", "coordinates": [5.6, 51.7]}, "properties": {}}]}