{"type": "FeatureCollection", "name": "Malva sylvestris", "features": [{"type": "Feature", "geometry": {"type": "Point", "coordinates": [172.572341, -43.466579]}, "properties": {}}, {"type": "Feature", "geometry": {"type": "Point", "coordinates": [169.119297, -44.699933]}, "properties": {}}, {"type": "Feature", "geometry": {"type": "Point", "coordinates": [147.31877, -42.889535]}, "properties": {}}, {"type": "Feature", "geometry": {"type": "Point", "coordinates": [147.350953, -42.863842]}, "properties": {}}, {"type": "Feature", "geometry": {"type": "Point", "coordinates": [-3.087173, 40.685695]}, "properties": {}}, {"type": "Feature", "geometry": {"type": "Point", "coordinates": [172.583308, -43.548852]}, "properties": {}}, {"type": "Feature", "geometry": {"type": "Point", "coordinates": [172.501367, -43.65175]}, "properties": {}}, {"type": "Feature", "geometry": {"type": "Point", "coordinates": [-3.150275, 51.146406]}, "properties": {}}, {"type": "Feature", "geometry": {"type": "Point", "coordinates": [174.975162, -40.953493]}, "properties": {}}, {"type": "Feature", "geometry": {"type": "Point", "coordinates": [44.795534, 41.716813]}, "properties": {}}, {"type": "Feature", "geometry": {"type": "Point", "coordinates": [34.144006, 44.52378]}, "properties": {}}, {"type": "Feature", "geometry": {"type": "Point", "coordinates": [172.614123, -43.4432]}, "properties": {}}, {"type": "Feature", "geometry": {"type": "Point", "coordinates": [172.591395, -43.571224]}, "properties": {}}, {"type": "Feature", "geometry": {"type": "Point", "coordinates": [172.642046, -43.507726]}, "properties": {}}, {"type": "Feature", "geometry": {"type": "Point", "coordinates": [169.195569, -45.04592]}, "properties": {}}, {"type": "Feature", "geometry": {"type": "Point", "coordinates": [172.584002, -43.549118]}, "properties": {}}, {"type": "Feature", "geometry": {"type": "Point", "coordinates": [-0.150789, 51.482298]}, "properties": {}}, {"type": "Feature", "geometry": {"type": "Point", "coordinates": [172.775762, -43.583525]}, "properties": {}}, {"type": "Feature", "geometry": {"type": "Point", "coordinates": [-5.685944, 43.523192]}, "properties": {}}, {"type": "Feature", "geometry": {"type": "Point", "coordinates": [11.96026, 57.70384]}, "properties": {}}, {"type": "Feature", "geometry": {"type": "Point", "coordinates": [175.135562, -40.76125]}, "properties": {}}, {"type": "Feature", "geometry": {"type": "Point", "coordinates": [-0.271723, 51.328683]}, "properties": {}}, {"type": "Feature", "geometry": {"type": "Point", "coordinates": [-1.086629, 53.953345]}, "properties": {}}, {"type": "Feature", "geometry": {"type": "Point", "coordinates": [-1.75456, 52.732382]}, "properties": {}}, {"type": "Feature", "geometry": {"type": "Point", "coordinates": [1.980875, 41.275002]}, "properties": {}}, {"type": "Feature", "geometry": {"type": "Point", "coordinates": [3.991258, 43.649443]}, "properties": {}}, {"type": "Feature", "geometry": {"type": "Point", "coordinates": [0.150431, 52.231453]}, "properties": {}}, {"type": "Feature", "geometry": {"type": "Point", "coordinates": [-0.271611, 51.328676]}, "properties": {}}, {"type": "Feature", "geometry": {"type": "Point", "coordinates": [175.641824, -40.930438]}, "properties": {}}, {"type": "Feature", "geometry": {"type": "Point", "coordinates": [5.405264, 43.272205]}, "properties": {}}, {"type": "Feature", "geometry": {"type": "Point", "coordinates": [28.617452, 41.104247]}, "properties": {}}, {"type": "Feature", "geometry": {"type": "Point", "coordinates": [-3.800827, 37.765461]}, "properties": {}}, {"type": "Feature", "geometry": {"type": "Point", "coordinates": [28.214568, 36.44064]}, "properties": {}}, {"type": "Feature", "geometry": {"type": "Point", "coordinates": [-0.878718, 41.630347]}, "properties": {}}, {"type": "Feature", "geometry": {"type": "Point", "coordinates": [12.467052, 41.888739]}, "properties": {}}, {"type": "Feature", "geometry": {"type": "Point", "coordinates": [169.146397, -45.058394]}, "properties": {}}, {"type": "Feature", "geometry": {"type": "Point", "coordinates": [176.344624, -40.023314]}, "properties": {}}, {"type": "Feature", "geometry": {"type": "Point", "coordinates": [173.691758, -42.425655]}, "properties": {}}, {"type": "Feature", "geometry": {"type": "Point", "coordinates": [10.352557, 43.840997]}, "properties": {}}, {"type": "Feature", "geometry": {"type": "Point", "coordinates": [172.645115, -43.626084]}, "properties": {}}, {"type": "Feature", "geometry": {"type": "Point", "coordinates": [147.071914, -42.777355]}, "properties": {}}, {"type": "Feature", "geometry": {"type": "Point", "coordinates": [-1.13257, 53.942445]}, "properties": {}}, {"type": "Feature", "geometry": {"type": "Point", "coordinates": [169.212478, -45.047153]}, "properties": {}}, {"type": "Feature", "geometry": {"type": "Point", "coordinates": [-70.873741, -53.139278]}, "properties": {}}, {"type": "Feature", "geometry": {"type": "Point", "coordinates": [10.352557, 43.840997]}, "properties": {}}, {"type": "Feature", "geometry": {"type": "Point", "coordinates": [171.284946, -44.242501]}, "properties": {}}, {"type": "Feature", "geometry": {"type": "Point", "coordinates": [28.160992, 39.936188]}, "properties": {}}, {"type": "Feature", "geometry": {"type": "Point", "coordinates": [-0.63052, 52.924068]}, "properties": {}}, {"type": "Feature", "geometry": {"type": "Point", "coordinates": [6.67117, 43.467621]}, "properties": {}}, {"type": "Feature", "geometry": {"type": "Point", "coordinates": [27.326672, 36.884362]}, "properties": {}}, {"type": "Feature", "geometry": {"type": "Point", "coordinates": [172.790961, -43.769053]}, "properties": {}}, {"type": "Feature", "geometry": {"type": "Point", "coordinates": [3.088645, 43.103522]}, "properties": {}}, {"type": "Feature", "geometry": {"type": "Point", "coordinates": [12.357664, 41.770185]}, "properties": {}}, {"type": "Feature", "geometry": {"type": "Point", "coordinates": [3.879792, 43.603458]}, "properties": {}}, {"type": "Feature", "geometry": {"type": "Point", "coordinates": [169.194694, -45.035118]}, "properties": {}}, {"type": "Feature", "geometry": {"type": "Point", "coordinates": [12.493325, 41.891908]}, "properties": {}}, {"type": "Feature", "geometry": {"type": "Point", "coordinates": [-122.775672, 48.107389]}, "properties": {}}, {"type": "Feature", "geometry": {"type": "Point", "coordinates": [50.078258, 36.27752]}, "properties": {}}, {"type": "Feature", "geometry": {"type": "Point", "coordinates": [168.653549, -45.035147]}, "properties": {}}, {"type": "Feature", "geometry": {"type": "Point", "coordinates": [-1.745189, 52.730694]}, "properties": {}}, {"type": "Feature", "geometry": {"type": "Point", "coordinates": [-3.188108, 51.507412]}, "properties": {}}, {"type": "Feature", "geometry": {"type": "Point", "coordinates": [-4.084542, 52.422199]}, "properties": {}}, {"type": "Feature", "geometry": {"type": "Point", "coordinates": [173.292491, -41.273618]}, "properties": {}}, {"type": "Feature", "geometry": {"type": "Point", "coordinates": [175.154168, -40.763143]}, "properties": {}}, {"type": "Feature", "geometry": {"type": "Point", "coordinates": [-1.752335, 52.734135]}, "properties": {}}, {"type": "Feature", "geometry": {"type": "Point", "coordinates": [172.633805, -43.531187]}, "properties": {}}, {"type": "Feature", "geometry": {"type": "Point", "coordinates": [0.266595, 52.391648]}, "properties": {}}, {"type": "Feature", "geometry": {"type": "Point", "coordinates": [174.19603, -41.834837]}, "properties": {}}, {"type": "Feature", "geometry": {"type": "Point", "coordinates": [9.209886, 45.530643]}, "properties": {}}, {"type": "Feature", "geometry": {"type": "Point", "coordinates": [172.653277, -43.525659]}, "properties": {}}, {"type": "Feature", "geometry": {"type": "Point", "coordinates": [169.146397, -45.058394]}, "properties": {}}, {"type": "Feature", "geometry": {"type": "Point", "coordinates": [172.661189, -43.519404]}, "properties": {}}, {"type": "Feature", "geometry": {"type": "Point", "coordinates": [3.864042, 43.631465]}, "properties": {}}, {"type": "Feature", "geometry": {"type": "Point", "coordinates": [-9.228428, 38.788039]}, "properties": {}}, {"type": "Feature", "geometry": {"type": "Point", "coordinates": [173.280317, -41.260863]}, "properties": {}}, {"type": "Feature", "geometry": {"type": "Point", "coordinates": [-5.071278, 37.547852]}, "properties": {}}, {"type": "Feature", "geometry": {"type": "Point", "coordinates": [172.790052, -43.770648]}, "properties": {}}, {"type": "Feature", "geometry": {"type": "Point", "coordinates": [3.859184, 43.622665]}, "properties": {}}, {"type": "Feature", "geometry": {"type": "Point", "coordinates": [172.63295, -43.563822]}, "properties": {}}, {"type": "Feature", "geometry": {"type": "Point", "coordinates": [40.259408, 56.106607]}, "properties": {}}, {"type": "Feature", "geometry": {"type": "Point", "coordinates": [172.217544, -43.702447]}, "properties": {}}, {"type": "Feature", "geometry": {"type": "Point", "coordinates": [3.864787, 43.632454]}, "properties": {}}, {"type": "Feature", "geometry": {"type": "Point", "coordinates": [12.425376, 41.901899]}, "properties": {}}, {"type": "Feature", "geometry": {"type": "Point", "coordinates": [-0.239599, 51.377397]}, "properties": {}}, {"type": "Feature", "geometry": {"type": "Point", "coordinates": [172.484967, -43.649193]}, "properties": {}}, {"type": "Feature", "geometry": {"type": "Point", "coordinates": [2.027826, 41.300084]}, "properties": {}}, {"type": "Feature", "geometry": {"type": "Point", "coordinates": [-1.658528, 42.806145]}, "properties": {}}, {"type": "Feature", "geometry": {"type": "Point", "coordinates": [-7.127104, 42.388873]}, "properties": {}}, {"type": "Feature", "geometry": {"type": "Point", "coordinates": [3.866132, 43.632915]}, "properties": {}}, {"type": "Feature", "geometry": {"type": "Point", "coordinates": [13.714618, 42.86151]}, "properties": {}}, {"type": "Feature", "geometry": {"type": "Point", "coordinates": [173.699678, -42.429622]}, "properties": {}}, {"type": "Feature", "geometry": {"type": "Point", "coordinates": [-3.620745, 40.419997]}, "properties": {}}, {"type": "Feature", "geometry": {"type": "Point", "coordinates": [-1.743632, 52.733135]}, "properties": {}}, {"type": "Feature", "geometry": {"type": "Point", "coordinates": [-5.167402, 36.738895]}, "properties": {}}, {"type": "Feature", "geometry": {"type": "Point", "coordinates": [16.293061, 39.433376]}, "properties": {}}, {"type": "Feature", "geometry": {"type": "Point", "coordinates": [-64.603616, -37.378759]}, "properties": {}}, {"type": "Feature", "geometry": {"type": "Point", "coordinates": [172.372573, -43.854347]}, "properties": {}}, {"type": "Feature", "geometry": {"type": "Point", "coordinates": [-0.752146, 50.951613]}, "properties": {}}, {"type": "Feature", "geometry": {"type": "Point", "coordinates": [-0.72107, 50.838867]}, "properties": {}}, {"type": "Feature", "geometry": {"type": "Point", "coordinates": [3.9, 51.75]}, "properties": {}}, {"type": "Feature", "geometry": {"type": "Point", "coordinates": [3.8, 51.65]}, "properties": {}}, {"type": "Feature", "geometry": {"type": "Point", "coordinates": [4.3, 52.0]}, "properties": {}}, {"type": "Feature", "geometry": {"type": "Point", "coordinates": [4.25, 52.05]}, "properties": {}}, {"type": "Feature", "geometry": {"type": "Point", "coordinates": [5.9, 52.55]}, "properties": {}}, {"type": "Feature", "geometry": {"type": "Point", "coordinates": [3.9, 51.7]}, "properties": {}}, {"type": "Feature", "geometry": {"type": "Point", "coordinates": [3.9, 51.7]}, "properties": {}}, {"type": "Feature", "geometry": {"type": "Point", "coordinates": [5.05, 51.5]}, "properties": {}}, {"type": "Feature", "geometry": {"type": "Point", "coordinates": [1.82791, 50.892341]}, "properties": {}}, {"type": "Feature", "geometry": {"type": "Point", "coordinates": [4.4, 52.0]}, "properties": {}}, {"type": "Feature", "geometry": {"type": "Point", "coordinates": [4.55, 51.8]}, "properties": {}}, {"type": "Feature", "geometry": {"type": "Point", "coordinates": [3.9, 51.75]}, "properties": {}}, {"type": "Feature", "geometry": {"type": "Point", "coordinates": [4.7, 52.65]}, "properties": {}}, {"type": "Feature", "geometry": {"type": "Point", "coordinates": [5.9, 51.7]}, "properties": {}}, {"type": "Feature", "geometry": {"type": "Point", "coordinates": [-5.044147, 36.875537]}, "properties": {}}, {"type": "Feature", "geometry": {"type": "Point", "coordinates": [2.8309, 36.467039]}, "properties": {}}, {"type": "Feature", "geometry": {"type": "Point", "coordinates": [171.140883, -44.262347]}, "properties": {}}, {"type": "Feature", "geometry": {"type": "Point", "coordinates": [35.013644, 32.562276]}, "properties": {}}, {"type": "Feature", "geometry": {"type": "Point", "coordinates": [34.919651, 31.858281]}, "properties": {}}, {"type": "Feature", "geometry": {"type": "Point", "coordinates": [172.485733, -43.640211]}, "properties": {}}, {"type": "Feature", "geometry": {"type": "Point", "coordinates": [-1.75456, 52.732382]}, "properties": {}}, {"type": "Feature", "geometry": {"type": "Point", "coordinates": [-0.613079, 50.984218]}, "properties": {}}, {"type": "Feature", "geometry": {"type": "Point", "coordinates": [-1.752335, 52.734135]}, "properties": {}}, {"type": "Feature", "geometry": {"type": "Point", "coordinates": [-1.745189, 52.730694]}, "properties": {}}, {"type": "Feature", "geometry": {"type": "Point", "coordinates": [-1.743632, 52.733135]}, "properties": {}}, {"type": "Feature", "geometry": {"type": "Point", "coordinates": [-0.713402, 50.859466]}, "properties": {}}, {"type": "Feature", "geometry": {"type": "Point", "coordinates": [2.433443, 50.971031]}, "properties": {}}, {"type": "Feature", "geometry": {"type": "Point", "coordinates": [2.348466, 51.005638]}, "properties": {}}, {"type": "Feature", "geometry": {"type": "Point", "coordinates": [2.348885, 51.00502]}, "properties": {}}, {"type": "Feature", "geometry": {"type": "Point", "coordinates": [-1.858441, 38.979757]}, "properties": {}}, {"type": "Feature", "geometry": {"type": "Point", "coordinates": [26.102473, 52.111406]}, "properties": {}}, {"type": "Feature", "geometry": {"type": "Point", "coordinates": [26.102473, 52.111406]}, "properties": {}}, {"type": "Feature", "geometry": {"type": "Point", "coordinates": [26.102473, 52.111406]}, "properties": {}}, {"type": "Feature", "geometry": {"type": "Point", "coordinates": [173.004989, -40.996631]}, "properties": {}}, {"type": "Feature", "geometry": {"type": "Point", "coordinates": [173.005067, -40.996678]}, "properties": {}}, {"type": "Feature", "geometry": {"type": "Point", "coordinates": [169.390257, -45.25941]}, "properties": {}}, {"type": "Feature", "geometry": {"type": "Point", "coordinates": [-1.563275, 52.862183]}, "properties": {}}, {"type": "Feature", "geometry": {"type": "Point", "coordinates": [-1.563365, 52.853194]}, "properties": {}}, {"type": "Feature", "geometry": {"type": "Point", "coordinates": [2.348885, 51.00502]}, "properties": {}}, {"type": "Feature", "geometry": {"type": "Point", "coordinates": [2.348466, 51.005638]}, "properties": {}}, {"type": "Feature", "geometry": {"type": "Point", "coordinates": [20.861324, 31.523515]}, "properties": {}}, {"type": "Feature", "geometry": {"type": "Point", "coordinates": [173.97653, -41.476622]}, "properties": {}}, {"type": "Feature", "geometry": {"type": "Point", "coordinates": [170.192026, -44.60341]}, "properties": {}}, {"type": "Feature", "geometry": {"type": "Point", "coordinates": [5.397575, 43.27955]}, "properties": {}}, {"type": "Feature", "geometry": {"type": "Point", "coordinates": [11.96026, 57.70384]}, "properties": {}}, {"type": "Feature", "geometry": {"type": "Point", "coordinates": [11.01305, 44.474961]}, "properties": {}}, {"type": "Feature", "geometry": {"type": "Point", "coordinates": [3.861148, 43.632864]}, "properties": {}}, {"type": "Feature", "geometry": {"type": "Point", "coordinates": [172.61937, -43.569839]}, "properties": {}}, {"type": "Feature", "geometry": {"type": "Point", "coordinates": [3.22543, 43.266136]}, "properties": {}}, {"type": "Feature", "geometry": {"type": "Point", "coordinates": [-6.482245, 37.405872]}, "properties": {}}, {"type": "Feature", "geometry": {"type": "Point", "coordinates": [14.485483, 40.74912]}, "properties": {}}, {"type": "Feature", "geometry": {"type": "Point", "coordinates": [3.860989, 43.634072]}, "properties": {}}, {"type": "Feature", "geometry": {"type": "Point", "coordinates": [147.324656, -42.976631]}, "properties": {}}, {"type": "Feature", "geometry": {"type": "Point", "coordinates": [16.859092, 43.399492]}, "properties": {}}, {"type": "Feature", "geometry": {"type": "Point", "coordinates": [10.253062, 45.519388]}, "properties": {}}, {"type": "Feature", "geometry": {"type": "Point", "coordinates": [-0.047894, 51.397306]}, "properties": {}}, {"type": "Feature", "geometry": {"type": "Point", "coordinates": [3.209222, 43.304808]}, "properties": {}}, {"type": "Feature", "geometry": {"type": "Point", "coordinates": [3.852972, 43.587603]}, "properties": {}}, {"type": "Feature", "geometry": {"type": "Point", "coordinates": [-0.048064, 51.397497]}, "properties": {}}, {"type": "Feature", "geometry": {"type": "Point", "coordinates": [5.36025, 43.274713]}, "properties": {}}, {"type": "Feature", "geometry": {"type": "Point", "coordinates": [-1.668742, 42.802843]}, "properties": {}}, {"type": "Feature", "geometry": {"type": "Point", "coordinates": [5.438158, 43.239357]}, "properties": {}}, {"type": "Feature", "geometry": {"type": "Point", "coordinates": [5.416035, 43.352187]}, "properties": {}}, {"type": "Feature", "geometry": {"type": "Point", "coordinates": [172.720606, -43.478966]}, "properties": {}}, {"type": "Feature", "geometry": {"type": "Point", "coordinates": [174.026247, -41.537597]}, "properties": {}}, {"type": "Feature", "geometry": {"type": "Point", "coordinates": [3.046685, 36.769172]}, "properties": {}}, {"type": "Feature", "geometry": {"type": "Point", "coordinates": [1.991342, 41.562249]}, "properties": {}}, {"type": "Feature", "geometry": {"type": "Point", "coordinates": [5.411405, 43.343675]}, "properties": {}}, {"type": "Feature", "geometry": {"type": "Point", "coordinates": [-3.617128, 40.417233]}, "properties": {}}, {"type": "Feature", "geometry": {"type": "Point", "coordinates": [1.891337, 41.54517]}, "properties": {}}, {"type": "Feature", "geometry": {"type": "Point", "coordinates": [3.8, 51.65]}, "properties": {}}, {"type": "Feature", "geometry": {"type": "Point", "coordinates": [6.0, 51.6]}, "properties": {}}, {"type": "Feature", "geometry": {"type": "Point", "coordinates": [4.3, 51.85]}, "properties": {}}, {"type": "Feature", "geometry": {"type": "Point", "coordinates": [172.705755, -43.304073]}, "properties": {}}, {"type": "Feature", "geometry": {"type": "Point", "coordinates": [3.178111, 36.735997]}, "properties": {}}, {"type": "Feature", "geometry": {"type": "Point", "coordinates": [173.820463, -41.499528]}, "properties": {}}, {"type": "Feature", "geometry": {"type": "Point", "coordinates": [172.482119, -43.646272]}, "properties": {}}, {"type": "Feature", "geometry": {"type": "Point", "coordinates": [-1.893728, 50.742494]}, "properties": {}}, {"type": "Feature", "geometry": {"type": "Point", "coordinates": [-1.629776, 42.796917]}, "properties": {}}, {"type": "Feature", "geometry": {"type": "Point", "coordinates": [173.975876, -41.477996]}, "properties": {}}, {"type": "Feature", "geometry": {"type": "Point", "coordinates": [173.686661, -42.367706]}, "properties": {}}, {"type": "Feature", "geometry": {"type": "Point", "coordinates": [3.865153, 43.633363]}, "properties": {}}, {"type": "Feature", "geometry": {"type": "Point", "coordinates": [-3.724992, 40.448978]}, "properties": {}}, {"type": "Feature", "geometry": {"type": "Point", "coordinates": [174.077405, -41.657492]}, "properties": {}}, {"type": "Feature", "geometry": {"type": "Point", "coordinates": [-1.647155, 42.799072]}, "properties": {}}, {"type": "Feature", "geometry": {"type": "Point", "coordinates": [147.334703, -42.87863]}, "properties": {}}, {"type": "Feature", "geometry": {"type": "Point", "coordinates": [12.476281, 41.876305]}, "properties": {}}, {"type": "Feature", "geometry": {"type": "Point", "coordinates": [3.861765, 43.632036]}, "properties": {}}, {"type": "Feature", "geometry": {"type": "Point", "coordinates": [173.820548, -41.499289]}, "properties": {}}, {"type": "Feature", "geometry": {"type": "Point", "coordinates": [-1.078785, 54.009875]}, "properties": {}}, {"type": "Feature", "geometry": {"type": "Point", "coordinates": [-0.630783, 52.924057]}, "properties": {}}, {"type": "Feature", "geometry": {"type": "Point", "coordinates": [13.703349, 42.861736]}, "properties": {}}, {"type": "Feature", "geometry": {"type": "Point", "coordinates": [3.178111, 36.735997]}, "properties": {}}, {"type": "Feature", "geometry": {"type": "Point", "coordinates": [-3.89895, 40.329345]}, "properties": {}}, {"type": "Feature", "geometry": {"type": "Point", "coordinates": [-1.663753, 42.803475]}, "properties": {}}, {"type": "Feature", "geometry": {"type": "Point", "coordinates": [3.864025, 43.634454]}, "properties": {}}, {"type": "Feature", "geometry": {"type": "Point", "coordinates": [-9.251659, 38.702286]}, "properties": {}}, {"type": "Feature", "geometry": {"type": "Point", "coordinates": [7.684755, 43.961014]}, "properties": {}}, {"type": "Feature", "geometry": {"type": "Point", "coordinates": [2.972505, 42.951592]}, "properties": {}}, {"type": "Feature", "geometry": {"type": "Point", "coordinates": [-1.682405, 42.801675]}, "properties": {}}, {"type": "Feature", "geometry": {"type": "Point", "coordinates": [3.172788, 43.265827]}, "properties": {}}, {"type": "Feature", "geometry": {"type": "Point", "coordinates": [176.769156, -39.721435]}, "properties": {}}, {"type": "Feature", "geometry": {"type": "Point", "coordinates": [34.609401, 30.513681]}, "properties": {}}, {"type": "Feature", "geometry": {"type": "Point", "coordinates": [34.641905, 30.567891]}, "properties": {}}, {"type": "Feature", "geometry": {"type": "Point", "coordinates": [34.85931, 30.671476]}, "properties": {}}, {"type": "Feature", "geometry": {"type": "Point", "coordinates": [4.31625, 50.85521]}, "properties": {}}, {"type": "Feature", "geometry": {"type": "Point", "coordinates": [34.7775, 30.70007]}, "properties": {}}, {"type": "Feature", "geometry": {"type": "Point", "coordinates": [34.694859, 30.597361]}, "properties": {}}, {"type": "Feature", "geometry": {"type": "Point", "coordinates": [-1.671755, 42.804458]}, "properties": {}}, {"type": "Feature", "geometry": {"type": "Point", "coordinates": [-1.65073, 42.810451]}, "properties": {}}, {"type": "Feature", "geometry": {"type": "Point", "coordinates": [15.254007, 44.121469]}, "properties": {}}, {"type": "Feature", "geometry": {"type": "Point", "coordinates": [172.666082, -43.519492]}, "properties": {}}, {"type": "Feature", "geometry": {"type": "Point", "coordinates": [2.306403, 48.864764]}, "properties": {}}, {"type": "Feature", "geometry": {"type": "Point", "coordinates": [-0.562063, 38.62493]}, "properties": {}}, {"type": "Feature", "geometry": {"type": "Point", "coordinates": [28.212675, 36.445217]}, "properties": {}}, {"type": "Feature", "geometry": {"type": "Point", "coordinates": [-1.621592, 42.042799]}, "properties": {}}, {"type": "Feature", "geometry": {"type": "Point", "coordinates": [5.343109, 43.498001]}, "properties": {}}, {"type": "Feature", "geometry": {"type": "Point", "coordinates": [174.049217, -41.530859]}, "properties": {}}, {"type": "Feature", "geometry": {"type": "Point", "coordinates": [-1.762942, 42.23825]}, "properties": {}}, {"type": "Feature", "geometry": {"type": "Point", "coordinates": [-1.967104, 48.53641]}, "properties": {}}, {"type": "Feature", "geometry": {"type": "Point", "coordinates": [-9.306291, 38.728141]}, "properties": {}}, {"type": "Feature", "geometry": {"type": "Point", "coordinates": [3.861791, 43.63155]}, "properties": {}}, {"type": "Feature", "geometry": {"type": "Point", "coordinates": [-99.044317, 19.477777]}, "properties": {}}, {"type": "Feature", "geometry": {"type": "Point", "coordinates": [12.691634, 41.705394]}, "properties": {}}, {"type": "Feature", "geometry": {"type": "Point", "coordinates": [3.042528, 41.971137]}, "properties": {}}, {"type": "Feature", "geometry": {"type": "Point", "coordinates": [4.144731, 43.802953]}, "properties": {}}, {"type": "Feature", "geometry": {"type": "Point", "coordinates": [2.822586, 42.666978]}, "properties": {}}, {"type": "Feature", "geometry": {"type": "Point", "coordinates": [5.421268, 43.254141]}, "properties": {}}, {"type": "Feature", "geometry": {"type": "Point", "coordinates": [3.023681, 43.379168]}, "properties": {}}, {"type": "Feature", "geometry": {"type": "Point", "coordinates": [-1.675287, 42.805668]}, "properties": {}}, {"type": "Feature", "geometry": {"type": "Point", "coordinates": [2.314428, 48.86802]}, "properties": {}}, {"type": "Feature", "geometry": {"type": "Point", "coordinates": [14.507243, 42.161783]}, "properties": {}}, {"type": "Feature", "geometry": {"type": "Point", "coordinates": [3.861955, 43.632795]}, "properties": {}}, {"type": "Feature", "geometry": {"type": "Point", "coordinates": [-2.691, 42.855657]}, "properties": {}}, {"type": "Feature", "geometry": {"type": "Point", "coordinates": [8.606126, 45.075869]}, "properties": {}}, {"type": "Feature", "geometry": {"type": "Point", "coordinates": [12.554356, 41.906195]}, "properties": {}}, {"type": "Feature", "geometry": {"type": "Point", "coordinates": [-1.640059, 42.836263]}, "properties": {}}, {"type": "Feature", "geometry": {"type": "Point", "coordinates": [172.66626, -43.519617]}, "properties": {}}, {"type": "Feature", "geometry": {"type": "Point", "coordinates": [170.664055, -44.849431]}, "properties": {}}, {"type": "Feature", "geometry": {"type": "Point", "coordinates": [-4.195182, 40.413132]}, "properties": {}}, {"type": "Feature", "geometry": {"type": "Point", "coordinates": [172.72759, -43.516951]}, "properties": {}}, {"type": "Feature", "geometry": {"type": "Point", "coordinates": [3.861987, 43.632733]}, "properties": {}}, {"type": "Feature", "geometry": {"type": "Point", "coordinates": [23.721066, 38.045991]}, "properties": {}}, {"type": "Feature", "geometry": {"type": "Point", "coordinates": [3.70681, 43.763648]}, "properties": {}}, {"type": "Feature", "geometry": {"type": "Point", "coordinates": [5.25, 51.65]}, "properties": {}}, {"type": "Feature", "geometry": {"type": "Point", "coordinates": [5.25, 52.7]}, "properties": {}}, {"type": "Feature", "geometry": {"type": "Point", "coordinates": [5.1, 52.35]}, "properties": {}}, {"type": "Feature", "geometry": {"type": "Point", "coordinates": [4.65, 51.8]}, "properties": {}}, {"type": "Feature", "geometry": {"type": "Point", "coordinates": [1.660119, 50.884129]}, "properties": {}}, {"type": "Feature", "geometry": {"type": "Point", "coordinates": [172.26606, -43.340425]}, "properties": {}}, {"type": "Feature", "geometry": {"type": "Point", "coordinates": [-1.711389, 48.046944]}, "properties": {}}, {"type": "Feature", "geometry": {"type": "Point", "coordinates": [34.645976, 30.54595]}, "properties": {}}, {"type": "Feature", "geometry": {"type": "Point", "coordinates": [5.40624, 43.356122]}, "properties": {}}, {"type": "Feature", "geometry": {"type": "Point", "coordinates": [2.923062, 42.54476]}, "properties": {}}, {"type": "Feature", "geometry": {"type": "Point", "coordinates": [175.841662, -38.035886]}, "properties": {}}, {"type": "Feature", "geometry": {"type": "Point", "coordinates": [-1.085092, 53.946103]}, "properties": {}}, {"type": "Feature", "geometry": {"type": "Point", "coordinates": [-5.278235, 36.44613]}, "properties": {}}, {"type": "Feature", "geometry": {"type": "Point", "coordinates": [7.127794, 43.628405]}, "properties": {}}, {"type": "Feature", "geometry": {"type": "Point", "coordinates": [-1.684525, 42.801842]}, "properties": {}}, {"type": "Feature", "geometry": {"type": "Point", "coordinates": [-1.62735, 42.825988]}, "properties": {}}, {"type": "Feature", "geometry": {"type": "Point", "coordinates": [169.421037, -44.882242]}, "properties": {}}, {"type": "Feature", "geometry": {"type": "Point", "coordinates": [170.468914, -44.731867]}, "properties": {}}, {"type": "Feature", "geometry": {"type": "Point", "coordinates": [169.199393, -45.03748]}, "properties": {}}, {"type": "Feature", "geometry": {"type": "Point", "coordinates": [-0.800259, 51.528507]}, "properties": {}}, {"type": "Feature", "geometry": {"type": "Point", "coordinates": [176.91919, -39.48923]}, "properties": {}}, {"type": "Feature", "geometry": {"type": "Point", "coordinates": [172.463242, -43.645908]}, "properties": {}}, {"type": "Feature", "geometry": {"type": "Point", "coordinates": [34.609399, 30.513684]}, "properties": {}}, {"type": "Feature", "geometry": {"type": "Point", "coordinates": [35.603363, 41.615215]}, "properties": {}}, {"type": "Feature", "geometry": {"type": "Point", "coordinates": [3.866255, 43.63299]}, "properties": {}}, {"type": "Feature", "geometry": {"type": "Point", "coordinates": [15.916669, 43.805809]}, "properties": {}}, {"type": "Feature", "geometry": {"type": "Point", "coordinates": [172.555411, -43.538236]}, "properties": {}}, {"type": "Feature", "geometry": {"type": "Point", "coordinates": [8.744303, 44.455459]}, "properties": {}}, {"type": "Feature", "geometry": {"type": "Point", "coordinates": [1.653462, 52.437965]}, "properties": {}}, {"type": "Feature", "geometry": {"type": "Point", "coordinates": [-0.802905, 50.734922]}, "properties": {}}, {"type": "Feature", "geometry": {"type": "Point", "coordinates": [-0.812221, 50.736366]}, "properties": {}}, {"type": "Feature", "geometry": {"type": "Point", "coordinates": [-0.799203, 50.727285]}, "properties": {}}, {"type": "Feature", "geometry": {"type": "Point", "coordinates": [-0.774599, 50.855628]}, "properties": {}}, {"type": "Feature", "geometry": {"type": "Point", "coordinates": [-0.772802, 50.869998]}, "properties": {}}, {"type": "Feature", "geometry": {"type": "Point", "coordinates": [172.496703, -43.650607]}, "properties": {}}, {"type": "Feature", "geometry": {"type": "Point", "coordinates": [3.7242, 43.495253]}, "properties": {}}, {"type": "Feature", "geometry": {"type": "Point", "coordinates": [169.390336, -45.257968]}, "properties": {}}, {"type": "Feature", "geometry": {"type": "Point", "coordinates": [169.012428, -46.618456]}, "properties": {}}, {"type": "Feature", "geometry": {"type": "Point", "coordinates": [22.521845, 40.287668]}, "properties": {}}, {"type": "Feature", "geometry": {"type": "Point", "coordinates": [10.325984, 36.844782]}, "properties": {}}, {"type": "Feature", "geometry": {"type": "Point", "coordinates": [-74.028786, 4.75578]}, "properties": {}}, {"type": "Feature", "geometry": {"type": "Point", "coordinates": [-0.899249, 41.657736]}, "properties": {}}, {"type": "Feature", "geometry": {"type": "Point", "coordinates": [-77.526224, -9.533469]}, "properties": {}}, {"type": "Feature", "geometry": {"type": "Point", "coordinates": [13.533327, 38.065494]}, "properties": {}}, {"type": "Feature", "geometry": {"type": "Point", "coordinates": [23.99582, 35.510908]}, "properties": {}}, {"type": "Feature", "geometry": {"type": "Point", "coordinates": [171.100561, -44.923633]}, "properties": {}}, {"type": "Feature", "geometry": {"type": "Point", "coordinates": [3.891784, 43.589911]}, "properties": {}}, {"type": "Feature", "geometry": {"type": "Point", "coordinates": [7.097233, 43.623658]}, "properties": {}}, {"type": "Feature", "geometry": {"type": "Point", "coordinates": [3.894718, 43.59091]}, "properties": {}}, {"type": "Feature", "geometry": {"type": "Point", "coordinates": [7.097063, 43.623952]}, "properties": {}}, {"type": "Feature", "geometry": {"type": "Point", "coordinates": [0.094288, 50.857209]}, "properties": {}}, {"type": "Feature", "geometry": {"type": "Point", "coordinates": [0.08009, 50.857463]}, "properties": {}}, {"type": "Feature", "geometry": {"type": "Point", "coordinates": [1.653462, 52.437965]}, "properties": {}}, {"type": "Feature", "geometry": {"type": "Point", "coordinates": [-5.501972, 37.269606]}, "properties": {}}, {"type": "Feature", "geometry": {"type": "Point", "coordinates": [172.6662, -43.5196]}, "properties": {}}, {"type": "Feature", "geometry": {"type": "Point", "coordinates": [147.355378, -42.913553]}, "properties": {}}, {"type": "Feature", "geometry": {"type": "Point", "coordinates": [172.726784, -43.557067]}, "properties": {}}]}