{"type": "FeatureCollection", "name": "Nerium oleander", "features": [{"type": "Feature", "geometry": {"type": "Point", "coordinates": [-56.690793, -36.540436]}, "properties": {}}, {"type": "Feature", "geometry": {"type": "Point", "coordinates": [23.345642, 37.709743]}, "properties": {}}, {"type": "Feature", "geometry": {"type": "Point", "coordinates": [100.261557, 16.847103]}, "properties": {}}, {"type": "Feature", "geometry": {"type": "Point", "coordinates": [78.151159, 9.949407]}, "properties": {}}, {"type": "Feature", "geometry": {"type": "Point", "coordinates": [-80.73102, -0.941263]}, "properties": {}}, {"type": "Feature", "geometry": {"type": "Point", "coordinates": [-80.04255, 0.110438]}, "properties": {}}, {"type": "Feature", "geometry": {"type": "Point", "coordinates": [-69.122902, 12.260778]}, "properties": {}}, {"type": "Feature", "geometry": {"type": "Point", "coordinates": [21.367116, 38.162704]}, "properties": {}}, {"type": "Feature", "geometry": {"type": "Point", "coordinates": [100.261556, 16.8471]}, "properties": {}}, {"type": "Feature", "geometry": {"type": "Point", "coordinates": [-69.123108, 12.260874]}, "properties": {}}, {"type": "Feature", "geometry": {"type": "Point", "coordinates": [-4.030092, 38.066431]}, "properties": {}}, {"type": "Feature", "geometry": {"type": "Point", "coordinates": [-17.802229, 28.553455]}, "properties": {}}, {"type": "Feature", "geometry": {"type": "Point", "coordinates": [79.095922, 10.885208]}, "properties": {}}, {"type": "Feature", "geometry": {"type": "Point", "coordinates": [-0.750081, 37.601822]}, "properties": {}}, {"type": "Feature", "geometry": {"type": "Point", "coordinates": [-63.041375, 18.053759]}, "properties": {}}, {"type": "Feature", "geometry": {"type": "Point", "coordinates": [27.421896, -26.424448]}, "properties": {}}, {"type": "Feature", "geometry": {"type": "Point", "coordinates": [-79.933798, -2.140408]}, "properties": {}}, {"type": "Feature", "geometry": {"type": "Point", "coordinates": [-4.059108, 38.069764]}, "properties": {}}, {"type": "Feature", "geometry": {"type": "Point", "coordinates": [152.115036, -32.779312]}, "properties": {}}, {"type": "Feature", "geometry": {"type": "Point", "coordinates": [-4.470809, 36.723216]}, "properties": {}}, {"type": "Feature", "geometry": {"type": "Point", "coordinates": [-4.073472, 38.070439]}, "properties": {}}, {"type": "Feature", "geometry": {"type": "Point", "coordinates": [27.532038, -29.322962]}, "properties": {}}, {"type": "Feature", "geometry": {"type": "Point", "coordinates": [-85.041206, 10.138559]}, "properties": {}}, {"type": "Feature", "geometry": {"type": "Point", "coordinates": [113.273195, 23.154147]}, "properties": {}}, {"type": "Feature", "geometry": {"type": "Point", "coordinates": [-3.786564, 37.811766]}, "properties": {}}, {"type": "Feature", "geometry": {"type": "Point", "coordinates": [145.288497, -38.069461]}, "properties": {}}, {"type": "Feature", "geometry": {"type": "Point", "coordinates": [56.267717, 25.39875]}, "properties": {}}, {"type": "Feature", "geometry": {"type": "Point", "coordinates": [-80.93924, -4.886607]}, "properties": {}}, {"type": "Feature", "geometry": {"type": "Point", "coordinates": [-80.07003, 19.665987]}, "properties": {}}, {"type": "Feature", "geometry": {"type": "Point", "coordinates": [-114.803481, 36.037961]}, "properties": {}}, {"type": "Feature", "geometry": {"type": "Point", "coordinates": [-77.324203, 25.075445]}, "properties": {}}, {"type": "Feature", "geometry": {"type": "Point", "coordinates": [-77.913774, 25.824517]}, "properties": {}}, {"type": "Feature", "geometry": {"type": "Point", "coordinates": [113.948128, 22.506356]}, "properties": {}}, {"type": "Feature", "geometry": {"type": "Point", "coordinates": [27.247093, 38.378818]}, "properties": {}}, {"type": "Feature", "geometry": {"type": "Point", "coordinates": [-81.251968, 23.151626]}, "properties": {}}, {"type": "Feature", "geometry": {"type": "Point", "coordinates": [-51.980996, -23.912627]}, "properties": {}}, {"type": "Feature", "geometry": {"type": "Point", "coordinates": [56.267717, 25.39875]}, "properties": {}}, {"type": "Feature", "geometry": {"type": "Point", "coordinates": [-5.933633, 37.390758]}, "properties": {}}, {"type": "Feature", "geometry": {"type": "Point", "coordinates": [151.692078, -32.987447]}, "properties": {}}, {"type": "Feature", "geometry": {"type": "Point", "coordinates": [-61.798997, 17.576725]}, "properties": {}}, {"type": "Feature", "geometry": {"type": "Point", "coordinates": [98.937462, 18.742289]}, "properties": {}}, {"type": "Feature", "geometry": {"type": "Point", "coordinates": [56.310901, 25.389132]}, "properties": {}}, {"type": "Feature", "geometry": {"type": "Point", "coordinates": [-68.26998, 12.134813]}, "properties": {}}, {"type": "Feature", "geometry": {"type": "Point", "coordinates": [77.660771, 12.776948]}, "properties": {}}, {"type": "Feature", "geometry": {"type": "Point", "coordinates": [75.839805, 25.233812]}, "properties": {}}, {"type": "Feature", "geometry": {"type": "Point", "coordinates": [27.864538, -29.2149]}, "properties": {}}, {"type": "Feature", "geometry": {"type": "Point", "coordinates": [56.068597, 25.093464]}, "properties": {}}, {"type": "Feature", "geometry": {"type": "Point", "coordinates": [79.097283, 10.888122]}, "properties": {}}, {"type": "Feature", "geometry": {"type": "Point", "coordinates": [-97.660225, 30.380833]}, "properties": {}}, {"type": "Feature", "geometry": {"type": "Point", "coordinates": [-17.045217, 32.810479]}, "properties": {}}, {"type": "Feature", "geometry": {"type": "Point", "coordinates": [99.002435, 18.776764]}, "properties": {}}, {"type": "Feature", "geometry": {"type": "Point", "coordinates": [151.184789, -33.835974]}, "properties": {}}, {"type": "Feature", "geometry": {"type": "Point", "coordinates": [56.266978, 25.399264]}, "properties": {}}, {"type": "Feature", "geometry": {"type": "Point", "coordinates": [27.25474, 37.860845]}, "properties": {}}, {"type": "Feature", "geometry": {"type": "Point", "coordinates": [56.267717, 25.39875]}, "properties": {}}, {"type": "Feature", "geometry": {"type": "Point", "coordinates": [79.388704, 10.422644]}, "properties": {}}, {"type": "Feature", "geometry": {"type": "Point", "coordinates": [-7.708631, 37.153174]}, "properties": {}}, {"type": "Feature", "geometry": {"type": "Point", "coordinates": [-0.7509, 37.602228]}, "properties": {}}, {"type": "Feature", "geometry": {"type": "Point", "coordinates": [175.298994, -37.760132]}, "properties": {}}, {"type": "Feature", "geometry": {"type": "Point", "coordinates": [22.847037, 38.441687]}, "properties": {}}, {"type": "Feature", "geometry": {"type": "Point", "coordinates": [-81.126953, 23.195478]}, "properties": {}}, {"type": "Feature", "geometry": {"type": "Point", "coordinates": [78.55227, 17.431543]}, "properties": {}}, {"type": "Feature", "geometry": {"type": "Point", "coordinates": [56.268151, 25.398297]}, "properties": {}}, {"type": "Feature", "geometry": {"type": "Point", "coordinates": [56.26725, 25.398864]}, "properties": {}}, {"type": "Feature", "geometry": {"type": "Point", "coordinates": [-77.935825, 25.818126]}, "properties": {}}, {"type": "Feature", "geometry": {"type": "Point", "coordinates": [9.002028, 24.95193]}, "properties": {}}, {"type": "Feature", "geometry": {"type": "Point", "coordinates": [32.824008, 34.970913]}, "properties": {}}, {"type": "Feature", "geometry": {"type": "Point", "coordinates": [-84.984871, 29.726521]}, "properties": {}}, {"type": "Feature", "geometry": {"type": "Point", "coordinates": [-7.523025, 37.555584]}, "properties": {}}, {"type": "Feature", "geometry": {"type": "Point", "coordinates": [-0.093992, 35.305812]}, "properties": {}}, {"type": "Feature", "geometry": {"type": "Point", "coordinates": [-76.017626, 36.890583]}, "properties": {}}, {"type": "Feature", "geometry": {"type": "Point", "coordinates": [56.26652, 25.399522]}, "properties": {}}, {"type": "Feature", "geometry": {"type": "Point", "coordinates": [-0.069475, 35.275233]}, "properties": {}}, {"type": "Feature", "geometry": {"type": "Point", "coordinates": [-68.269963, 12.134833]}, "properties": {}}, {"type": "Feature", "geometry": {"type": "Point", "coordinates": [24.948536, 37.449169]}, "properties": {}}, {"type": "Feature", "geometry": {"type": "Point", "coordinates": [56.267717, 25.39875]}, "properties": {}}, {"type": "Feature", "geometry": {"type": "Point", "coordinates": [121.167738, 14.594638]}, "properties": {}}, {"type": "Feature", "geometry": {"type": "Point", "coordinates": [153.525726, -28.223972]}, "properties": {}}, {"type": "Feature", "geometry": {"type": "Point", "coordinates": [78.805697, 18.333584]}, "properties": {}}, {"type": "Feature", "geometry": {"type": "Point", "coordinates": [-61.690313, 17.097672]}, "properties": {}}, {"type": "Feature", "geometry": {"type": "Point", "coordinates": [-120.948233, 38.240466]}, "properties": {}}, {"type": "Feature", "geometry": {"type": "Point", "coordinates": [-5.968047, 31.449764]}, "properties": {}}, {"type": "Feature", "geometry": {"type": "Point", "coordinates": [0.84574, 40.726425]}, "properties": {}}, {"type": "Feature", "geometry": {"type": "Point", "coordinates": [77.387537, 23.243104]}, "properties": {}}, {"type": "Feature", "geometry": {"type": "Point", "coordinates": [-77.914297, 25.824372]}, "properties": {}}, {"type": "Feature", "geometry": {"type": "Point", "coordinates": [83.786382, 19.34859]}, "properties": {}}, {"type": "Feature", "geometry": {"type": "Point", "coordinates": [69.64738, 23.2165]}, "properties": {}}, {"type": "Feature", "geometry": {"type": "Point", "coordinates": [-3.932133, 38.170328]}, "properties": {}}, {"type": "Feature", "geometry": {"type": "Point", "coordinates": [-4.068325, 38.071753]}, "properties": {}}, {"type": "Feature", "geometry": {"type": "Point", "coordinates": [85.11795, 23.084768]}, "properties": {}}, {"type": "Feature", "geometry": {"type": "Point", "coordinates": [174.867479, -41.143885]}, "properties": {}}, {"type": "Feature", "geometry": {"type": "Point", "coordinates": [58.339451, 23.569363]}, "properties": {}}, {"type": "Feature", "geometry": {"type": "Point", "coordinates": [35.011332, 37.28873]}, "properties": {}}, {"type": "Feature", "geometry": {"type": "Point", "coordinates": [72.981692, 18.802436]}, "properties": {}}, {"type": "Feature", "geometry": {"type": "Point", "coordinates": [56.270427, 25.397461]}, "properties": {}}, {"type": "Feature", "geometry": {"type": "Point", "coordinates": [76.947219, 10.935891]}, "properties": {}}, {"type": "Feature", "geometry": {"type": "Point", "coordinates": [174.842438, -36.871103]}, "properties": {}}, {"type": "Feature", "geometry": {"type": "Point", "coordinates": [120.019391, 26.833743]}, "properties": {}}, {"type": "Feature", "geometry": {"type": "Point", "coordinates": [27.248242, 38.379187]}, "properties": {}}, {"type": "Feature", "geometry": {"type": "Point", "coordinates": [-91.577622, 14.072678]}, "properties": {}}, {"type": "Feature", "geometry": {"type": "Point", "coordinates": [24.9459, 37.446709]}, "properties": {}}, {"type": "Feature", "geometry": {"type": "Point", "coordinates": [109.151456, 18.33204]}, "properties": {}}, {"type": "Feature", "geometry": {"type": "Point", "coordinates": [-77.936395, 25.819513]}, "properties": {}}, {"type": "Feature", "geometry": {"type": "Point", "coordinates": [-6.968715, 37.25293]}, "properties": {}}, {"type": "Feature", "geometry": {"type": "Point", "coordinates": [23.719116, 37.971756]}, "properties": {}}, {"type": "Feature", "geometry": {"type": "Point", "coordinates": [57.204654, 23.155701]}, "properties": {}}, {"type": "Feature", "geometry": {"type": "Point", "coordinates": [35.009854, 37.238587]}, "properties": {}}, {"type": "Feature", "geometry": {"type": "Point", "coordinates": [-34.830644, -7.548331]}, "properties": {}}, {"type": "Feature", "geometry": {"type": "Point", "coordinates": [32.533523, 36.126286]}, "properties": {}}, {"type": "Feature", "geometry": {"type": "Point", "coordinates": [-73.621455, 5.616803]}, "properties": {}}, {"type": "Feature", "geometry": {"type": "Point", "coordinates": [120.975938, 14.587081]}, "properties": {}}, {"type": "Feature", "geometry": {"type": "Point", "coordinates": [-8.510398, 41.409854]}, "properties": {}}, {"type": "Feature", "geometry": {"type": "Point", "coordinates": [-81.155092, 24.704562]}, "properties": {}}, {"type": "Feature", "geometry": {"type": "Point", "coordinates": [35.983469, 36.079574]}, "properties": {}}, {"type": "Feature", "geometry": {"type": "Point", "coordinates": [-90.062996, 29.954241]}, "properties": {}}, {"type": "Feature", "geometry": {"type": "Point", "coordinates": [35.218307, 36.840362]}, "properties": {}}, {"type": "Feature", "geometry": {"type": "Point", "coordinates": [-98.4822, 29.451453]}, "properties": {}}, {"type": "Feature", "geometry": {"type": "Point", "coordinates": [30.260423, -30.998984]}, "properties": {}}, {"type": "Feature", "geometry": {"type": "Point", "coordinates": [-72.437806, -36.796875]}, "properties": {}}, {"type": "Feature", "geometry": {"type": "Point", "coordinates": [100.281933, 13.566411]}, "properties": {}}, {"type": "Feature", "geometry": {"type": "Point", "coordinates": [-0.993645, 37.63128]}, "properties": {}}, {"type": "Feature", "geometry": {"type": "Point", "coordinates": [-0.242498, 39.822823]}, "properties": {}}, {"type": "Feature", "geometry": {"type": "Point", "coordinates": [21.628226, 37.640461]}, "properties": {}}, {"type": "Feature", "geometry": {"type": "Point", "coordinates": [35.0088, 37.2382]}, "properties": {}}, {"type": "Feature", "geometry": {"type": "Point", "coordinates": [-64.533495, 18.461805]}, "properties": {}}, {"type": "Feature", "geometry": {"type": "Point", "coordinates": [153.611416, -28.686207]}, "properties": {}}, {"type": "Feature", "geometry": {"type": "Point", "coordinates": [-90.063236, 29.953904]}, "properties": {}}, {"type": "Feature", "geometry": {"type": "Point", "coordinates": [-87.38433, 13.202903]}, "properties": {}}, {"type": "Feature", "geometry": {"type": "Point", "coordinates": [-64.969788, 18.333112]}, "properties": {}}, {"type": "Feature", "geometry": {"type": "Point", "coordinates": [-5.377138, 36.761281]}, "properties": {}}, {"type": "Feature", "geometry": {"type": "Point", "coordinates": [-63.092095, 18.027001]}, "properties": {}}, {"type": "Feature", "geometry": {"type": "Point", "coordinates": [145.381578, -37.918755]}, "properties": {}}, {"type": "Feature", "geometry": {"type": "Point", "coordinates": [-78.7716, 26.519917]}, "properties": {}}, {"type": "Feature", "geometry": {"type": "Point", "coordinates": [151.24, -33.73]}, "properties": {}}, {"type": "Feature", "geometry": {"type": "Point", "coordinates": [-70.3162, -18.473677]}, "properties": {}}, {"type": "Feature", "geometry": {"type": "Point", "coordinates": [-91.577622, 14.072678]}, "properties": {}}, {"type": "Feature", "geometry": {"type": "Point", "coordinates": [123.612737, 10.190414]}, "properties": {}}, {"type": "Feature", "geometry": {"type": "Point", "coordinates": [34.97515, 32.499983]}, "properties": {}}, {"type": "Feature", "geometry": {"type": "Point", "coordinates": [34.536744, 31.487919]}, "properties": {}}, {"type": "Feature", "geometry": {"type": "Point", "coordinates": [35.032707, 32.717318]}, "properties": {}}, {"type": "Feature", "geometry": {"type": "Point", "coordinates": [34.7574, 31.626449]}, "properties": {}}, {"type": "Feature", "geometry": {"type": "Point", "coordinates": [34.663345, 31.694968]}, "properties": {}}, {"type": "Feature", "geometry": {"type": "Point", "coordinates": [113.279473, 23.153004]}, "properties": {}}, {"type": "Feature", "geometry": {"type": "Point", "coordinates": [151.457427, -33.089965]}, "properties": {}}, {"type": "Feature", "geometry": {"type": "Point", "coordinates": [32.886811, 24.035745]}, "properties": {}}, {"type": "Feature", "geometry": {"type": "Point", "coordinates": [-38.360072, -12.952426]}, "properties": {}}, {"type": "Feature", "geometry": {"type": "Point", "coordinates": [138.571092, -34.913805]}, "properties": {}}, {"type": "Feature", "geometry": {"type": "Point", "coordinates": [-82.635131, 28.472626]}, "properties": {}}, {"type": "Feature", "geometry": {"type": "Point", "coordinates": [100.281933, 13.566411]}, "properties": {}}, {"type": "Feature", "geometry": {"type": "Point", "coordinates": [13.791508, 45.659031]}, "properties": {}}, {"type": "Feature", "geometry": {"type": "Point", "coordinates": [-117.243075, 32.957806]}, "properties": {}}, {"type": "Feature", "geometry": {"type": "Point", "coordinates": [73.821366, 18.102924]}, "properties": {}}, {"type": "Feature", "geometry": {"type": "Point", "coordinates": [-64.512895, 18.384825]}, "properties": {}}, {"type": "Feature", "geometry": {"type": "Point", "coordinates": [-6.584624, 30.640551]}, "properties": {}}, {"type": "Feature", "geometry": {"type": "Point", "coordinates": [56.060703, 25.101045]}, "properties": {}}, {"type": "Feature", "geometry": {"type": "Point", "coordinates": [56.099264, 25.208555]}, "properties": {}}, {"type": "Feature", "geometry": {"type": "Point", "coordinates": [-117.218203, 32.814006]}, "properties": {}}, {"type": "Feature", "geometry": {"type": "Point", "coordinates": [-3.527127, 40.318584]}, "properties": {}}, {"type": "Feature", "geometry": {"type": "Point", "coordinates": [35.396403, 31.371363]}, "properties": {}}, {"type": "Feature", "geometry": {"type": "Point", "coordinates": [4.202745, 44.25292]}, "properties": {}}, {"type": "Feature", "geometry": {"type": "Point", "coordinates": [-0.899077, 38.050915]}, "properties": {}}, {"type": "Feature", "geometry": {"type": "Point", "coordinates": [-67.822902, -9.97292]}, "properties": {}}, {"type": "Feature", "geometry": {"type": "Point", "coordinates": [-97.405755, 26.020331]}, "properties": {}}, {"type": "Feature", "geometry": {"type": "Point", "coordinates": [-97.089019, 31.62623]}, "properties": {}}, {"type": "Feature", "geometry": {"type": "Point", "coordinates": [73.729034, 21.882748]}, "properties": {}}, {"type": "Feature", "geometry": {"type": "Point", "coordinates": [56.257202, 25.421763]}, "properties": {}}, {"type": "Feature", "geometry": {"type": "Point", "coordinates": [-58.445718, -34.539607]}, "properties": {}}, {"type": "Feature", "geometry": {"type": "Point", "coordinates": [-78.682913, -1.65187]}, "properties": {}}, {"type": "Feature", "geometry": {"type": "Point", "coordinates": [9.885891, 12.225439]}, "properties": {}}, {"type": "Feature", "geometry": {"type": "Point", "coordinates": [-122.277787, 40.79747]}, "properties": {}}, {"type": "Feature", "geometry": {"type": "Point", "coordinates": [-10.367072, 29.118817]}, "properties": {}}, {"type": "Feature", "geometry": {"type": "Point", "coordinates": [-58.445757, -34.539562]}, "properties": {}}, {"type": "Feature", "geometry": {"type": "Point", "coordinates": [32.342871, 34.923779]}, "properties": {}}, {"type": "Feature", "geometry": {"type": "Point", "coordinates": [-118.429621, 34.376098]}, "properties": {}}, {"type": "Feature", "geometry": {"type": "Point", "coordinates": [-8.734028, 37.084242]}, "properties": {}}, {"type": "Feature", "geometry": {"type": "Point", "coordinates": [152.808259, -25.250355]}, "properties": {}}, {"type": "Feature", "geometry": {"type": "Point", "coordinates": [-60.063814, -38.858419]}, "properties": {}}, {"type": "Feature", "geometry": {"type": "Point", "coordinates": [2.843187, 39.618851]}, "properties": {}}, {"type": "Feature", "geometry": {"type": "Point", "coordinates": [106.794599, -6.141033]}, "properties": {}}, {"type": "Feature", "geometry": {"type": "Point", "coordinates": [-76.750414, 18.006296]}, "properties": {}}, {"type": "Feature", "geometry": {"type": "Point", "coordinates": [113.296911, 23.113172]}, "properties": {}}, {"type": "Feature", "geometry": {"type": "Point", "coordinates": [-61.382412, 15.298955]}, "properties": {}}, {"type": "Feature", "geometry": {"type": "Point", "coordinates": [-122.443803, 40.612197]}, "properties": {}}, {"type": "Feature", "geometry": {"type": "Point", "coordinates": [-78.680358, -1.655758]}, "properties": {}}, {"type": "Feature", "geometry": {"type": "Point", "coordinates": [73.72616, 18.538365]}, "properties": {}}, {"type": "Feature", "geometry": {"type": "Point", "coordinates": [-117.625101, 33.709803]}, "properties": {}}, {"type": "Feature", "geometry": {"type": "Point", "coordinates": [27.101886, -25.348512]}, "properties": {}}, {"type": "Feature", "geometry": {"type": "Point", "coordinates": [-0.795064, 39.40335]}, "properties": {}}, {"type": "Feature", "geometry": {"type": "Point", "coordinates": [176.875467, -39.480624]}, "properties": {}}, {"type": "Feature", "geometry": {"type": "Point", "coordinates": [-76.749695, 18.005086]}, "properties": {}}, {"type": "Feature", "geometry": {"type": "Point", "coordinates": [-68.297845, 12.195775]}, "properties": {}}, {"type": "Feature", "geometry": {"type": "Point", "coordinates": [71.787697, 23.50844]}, "properties": {}}, {"type": "Feature", "geometry": {"type": "Point", "coordinates": [-5.071367, 37.547097]}, "properties": {}}, {"type": "Feature", "geometry": {"type": "Point", "coordinates": [9.373777, 11.705419]}, "properties": {}}, {"type": "Feature", "geometry": {"type": "Point", "coordinates": [-68.956353, 12.114378]}, "properties": {}}, {"type": "Feature", "geometry": {"type": "Point", "coordinates": [73.484939, 4.176056]}, "properties": {}}, {"type": "Feature", "geometry": {"type": "Point", "coordinates": [-64.91897, 18.333513]}, "properties": {}}, {"type": "Feature", "geometry": {"type": "Point", "coordinates": [-38.271527, -12.871518]}, "properties": {}}, {"type": "Feature", "geometry": {"type": "Point", "coordinates": [-3.95375, 38.094219]}, "properties": {}}, {"type": "Feature", "geometry": {"type": "Point", "coordinates": [174.767763, -36.44447]}, "properties": {}}, {"type": "Feature", "geometry": {"type": "Point", "coordinates": [-4.734705, 36.485846]}, "properties": {}}, {"type": "Feature", "geometry": {"type": "Point", "coordinates": [56.201056, 25.438392]}, "properties": {}}, {"type": "Feature", "geometry": {"type": "Point", "coordinates": [-40.940241, -9.163702]}, "properties": {}}, {"type": "Feature", "geometry": {"type": "Point", "coordinates": [-3.953769, 38.094244]}, "properties": {}}, {"type": "Feature", "geometry": {"type": "Point", "coordinates": [-3.953692, 38.094067]}, "properties": {}}, {"type": "Feature", "geometry": {"type": "Point", "coordinates": [8.722824, 39.48492]}, "properties": {}}, {"type": "Feature", "geometry": {"type": "Point", "coordinates": [145.245127, -37.801804]}, "properties": {}}, {"type": "Feature", "geometry": {"type": "Point", "coordinates": [-3.955381, 38.094617]}, "properties": {}}, {"type": "Feature", "geometry": {"type": "Point", "coordinates": [-76.537521, 8.746099]}, "properties": {}}, {"type": "Feature", "geometry": {"type": "Point", "coordinates": [113.72432, 34.723822]}, "properties": {}}, {"type": "Feature", "geometry": {"type": "Point", "coordinates": [35.009862, 31.840523]}, "properties": {}}, {"type": "Feature", "geometry": {"type": "Point", "coordinates": [35.182805, 33.072092]}, "properties": {}}, {"type": "Feature", "geometry": {"type": "Point", "coordinates": [35.625874, 32.973399]}, "properties": {}}, {"type": "Feature", "geometry": {"type": "Point", "coordinates": [35.226949, 33.07522]}, "properties": {}}, {"type": "Feature", "geometry": {"type": "Point", "coordinates": [35.224111, 33.076158]}, "properties": {}}, {"type": "Feature", "geometry": {"type": "Point", "coordinates": [35.222109, 33.075699]}, "properties": {}}, {"type": "Feature", "geometry": {"type": "Point", "coordinates": [35.222184, 33.075383]}, "properties": {}}, {"type": "Feature", "geometry": {"type": "Point", "coordinates": [-82.574592, 27.512183]}, "properties": {}}, {"type": "Feature", "geometry": {"type": "Point", "coordinates": [153.038086, -27.462947]}, "properties": {}}, {"type": "Feature", "geometry": {"type": "Point", "coordinates": [-79.940872, 32.816895]}, "properties": {}}, {"type": "Feature", "geometry": {"type": "Point", "coordinates": [71.787079, 23.50992]}, "properties": {}}, {"type": "Feature", "geometry": {"type": "Point", "coordinates": [-0.411772, 38.358929]}, "properties": {}}, {"type": "Feature", "geometry": {"type": "Point", "coordinates": [29.095236, 41.178062]}, "properties": {}}, {"type": "Feature", "geometry": {"type": "Point", "coordinates": [-81.538429, 30.625069]}, "properties": {}}, {"type": "Feature", "geometry": {"type": "Point", "coordinates": [127.665669, 26.220406]}, "properties": {}}, {"type": "Feature", "geometry": {"type": "Point", "coordinates": [-62.201212, 16.781199]}, "properties": {}}, {"type": "Feature", "geometry": {"type": "Point", "coordinates": [56.267249, 25.399086]}, "properties": {}}, {"type": "Feature", "geometry": {"type": "Point", "coordinates": [-4.825591, 38.322728]}, "properties": {}}, {"type": "Feature", "geometry": {"type": "Point", "coordinates": [-7.816346, 31.263586]}, "properties": {}}, {"type": "Feature", "geometry": {"type": "Point", "coordinates": [-60.891857, 14.692725]}, "properties": {}}, {"type": "Feature", "geometry": {"type": "Point", "coordinates": [108.532653, -6.734042]}, "properties": {}}, {"type": "Feature", "geometry": {"type": "Point", "coordinates": [56.161422, 25.345185]}, "properties": {}}, {"type": "Feature", "geometry": {"type": "Point", "coordinates": [80.287372, 13.254927]}, "properties": {}}, {"type": "Feature", "geometry": {"type": "Point", "coordinates": [-82.574592, 27.512183]}, "properties": {}}, {"type": "Feature", "geometry": {"type": "Point", "coordinates": [32.661437, 34.730355]}, "properties": {}}, {"type": "Feature", "geometry": {"type": "Point", "coordinates": [29.091834, 41.177195]}, "properties": {}}, {"type": "Feature", "geometry": {"type": "Point", "coordinates": [-117.259712, 32.934597]}, "properties": {}}, {"type": "Feature", "geometry": {"type": "Point", "coordinates": [78.484137, 9.84439]}, "properties": {}}, {"type": "Feature", "geometry": {"type": "Point", "coordinates": [56.207488, 25.441441]}, "properties": {}}, {"type": "Feature", "geometry": {"type": "Point", "coordinates": [-64.674095, 18.342337]}, "properties": {}}, {"type": "Feature", "geometry": {"type": "Point", "coordinates": [56.115757, 25.270991]}, "properties": {}}, {"type": "Feature", "geometry": {"type": "Point", "coordinates": [-81.468584, 30.779782]}, "properties": {}}, {"type": "Feature", "geometry": {"type": "Point", "coordinates": [-66.095629, 18.458982]}, "properties": {}}, {"type": "Feature", "geometry": {"type": "Point", "coordinates": [144.38893, -38.295588]}, "properties": {}}, {"type": "Feature", "geometry": {"type": "Point", "coordinates": [5.490615, 23.158734]}, "properties": {}}, {"type": "Feature", "geometry": {"type": "Point", "coordinates": [150.896773, -33.966742]}, "properties": {}}, {"type": "Feature", "geometry": {"type": "Point", "coordinates": [-4.061581, 38.071792]}, "properties": {}}, {"type": "Feature", "geometry": {"type": "Point", "coordinates": [-81.364722, 19.343812]}, "properties": {}}, {"type": "Feature", "geometry": {"type": "Point", "coordinates": [-3.823085, 37.798252]}, "properties": {}}, {"type": "Feature", "geometry": {"type": "Point", "coordinates": [-77.392662, 25.06987]}, "properties": {}}, {"type": "Feature", "geometry": {"type": "Point", "coordinates": [-4.825633, 38.322866]}, "properties": {}}, {"type": "Feature", "geometry": {"type": "Point", "coordinates": [-3.813389, 37.785585]}, "properties": {}}, {"type": "Feature", "geometry": {"type": "Point", "coordinates": [-5.586447, 31.577474]}, "properties": {}}, {"type": "Feature", "geometry": {"type": "Point", "coordinates": [-7.978915, 37.20246]}, "properties": {}}, {"type": "Feature", "geometry": {"type": "Point", "coordinates": [-63.020013, 18.0497]}, "properties": {}}, {"type": "Feature", "geometry": {"type": "Point", "coordinates": [56.0195, 25.287958]}, "properties": {}}, {"type": "Feature", "geometry": {"type": "Point", "coordinates": [87.680727, 23.676558]}, "properties": {}}, {"type": "Feature", "geometry": {"type": "Point", "coordinates": [87.674058, 23.679397]}, "properties": {}}, {"type": "Feature", "geometry": {"type": "Point", "coordinates": [-3.823348, 37.797961]}, "properties": {}}, {"type": "Feature", "geometry": {"type": "Point", "coordinates": [142.250245, -38.323125]}, "properties": {}}, {"type": "Feature", "geometry": {"type": "Point", "coordinates": [80.190742, 12.612121]}, "properties": {}}, {"type": "Feature", "geometry": {"type": "Point", "coordinates": [-5.88689, 37.622305]}, "properties": {}}, {"type": "Feature", "geometry": {"type": "Point", "coordinates": [-98.483023, 29.463584]}, "properties": {}}, {"type": "Feature", "geometry": {"type": "Point", "coordinates": [-117.676481, 33.872]}, "properties": {}}, {"type": "Feature", "geometry": {"type": "Point", "coordinates": [77.247027, 28.448539]}, "properties": {}}, {"type": "Feature", "geometry": {"type": "Point", "coordinates": [145.527466, -37.664999]}, "properties": {}}, {"type": "Feature", "geometry": {"type": "Point", "coordinates": [-122.491897, 40.5981]}, "properties": {}}, {"type": "Feature", "geometry": {"type": "Point", "coordinates": [-53.734463, -29.709714]}, "properties": {}}, {"type": "Feature", "geometry": {"type": "Point", "coordinates": [151.211375, -34.040178]}, "properties": {}}, {"type": "Feature", "geometry": {"type": "Point", "coordinates": [-48.532053, -22.515574]}, "properties": {}}, {"type": "Feature", "geometry": {"type": "Point", "coordinates": [-117.769542, 34.043342]}, "properties": {}}, {"type": "Feature", "geometry": {"type": "Point", "coordinates": [138.545009, -34.988931]}, "properties": {}}, {"type": "Feature", "geometry": {"type": "Point", "coordinates": [-62.208291, 16.722663]}, "properties": {}}, {"type": "Feature", "geometry": {"type": "Point", "coordinates": [-40.878496, -3.95868]}, "properties": {}}, {"type": "Feature", "geometry": {"type": "Point", "coordinates": [174.715593, -36.812503]}, "properties": {}}, {"type": "Feature", "geometry": {"type": "Point", "coordinates": [73.187457, 19.12837]}, "properties": {}}, {"type": "Feature", "geometry": {"type": "Point", "coordinates": [115.920415, -31.972522]}, "properties": {}}, {"type": "Feature", "geometry": {"type": "Point", "coordinates": [5.878579, 35.309923]}, "properties": {}}, {"type": "Feature", "geometry": {"type": "Point", "coordinates": [125.537658, 7.042658]}, "properties": {}}, {"type": "Feature", "geometry": {"type": "Point", "coordinates": [-75.644508, 35.983997]}, "properties": {}}, {"type": "Feature", "geometry": {"type": "Point", "coordinates": [56.201142, 25.4052]}, "properties": {}}, {"type": "Feature", "geometry": {"type": "Point", "coordinates": [-121.3312, 38.595825]}, "properties": {}}, {"type": "Feature", "geometry": {"type": "Point", "coordinates": [-77.316756, 18.467169]}, "properties": {}}, {"type": "Feature", "geometry": {"type": "Point", "coordinates": [-97.326032, 27.71003]}, "properties": {}}, {"type": "Feature", "geometry": {"type": "Point", "coordinates": [-76.74692, 18.006537]}, "properties": {}}, {"type": "Feature", "geometry": {"type": "Point", "coordinates": [115.82325, 22.960234]}, "properties": {}}, {"type": "Feature", "geometry": {"type": "Point", "coordinates": [-77.387078, 25.068136]}, "properties": {}}, {"type": "Feature", "geometry": {"type": "Point", "coordinates": [-6.847207, 30.866265]}, "properties": {}}, {"type": "Feature", "geometry": {"type": "Point", "coordinates": [151.010287, -33.973887]}, "properties": {}}, {"type": "Feature", "geometry": {"type": "Point", "coordinates": [105.911152, 13.954248]}, "properties": {}}, {"type": "Feature", "geometry": {"type": "Point", "coordinates": [-5.560443, 31.620919]}, "properties": {}}, {"type": "Feature", "geometry": {"type": "Point", "coordinates": [174.656937, -36.954516]}, "properties": {}}, {"type": "Feature", "geometry": {"type": "Point", "coordinates": [-59.560911, 13.25474]}, "properties": {}}, {"type": "Feature", "geometry": {"type": "Point", "coordinates": [-1.425118, 37.890214]}, "properties": {}}, {"type": "Feature", "geometry": {"type": "Point", "coordinates": [28.374275, 37.16525]}, "properties": {}}, {"type": "Feature", "geometry": {"type": "Point", "coordinates": [-1.425136, 37.890193]}, "properties": {}}, {"type": "Feature", "geometry": {"type": "Point", "coordinates": [34.538912, 36.785513]}, "properties": {}}, {"type": "Feature", "geometry": {"type": "Point", "coordinates": [-110.809484, 32.297597]}, "properties": {}}, {"type": "Feature", "geometry": {"type": "Point", "coordinates": [-7.797411, 37.129285]}, "properties": {}}, {"type": "Feature", "geometry": {"type": "Point", "coordinates": [144.962192, -35.529501]}, "properties": {}}]}