{"type": "FeatureCollection", "name": "Hypericum perforatum", "features": [{"type": "Feature", "geometry": {"type": "Point", "coordinates": [5.171693, 50.074732]}, "properties": {}}, {"type": "Feature", "geometry": {"type": "Point", "coordinates": [147.315498, -42.891763]}, "properties": {}}, {"type": "Feature", "geometry": {"type": "Point", "coordinates": [149.357667, -35.384013]}, "properties": {}}, {"type": "Feature", "geometry": {"type": "Point", "coordinates": [149.065684, -35.371982]}, "properties": {}}, {"type": "Feature", "geometry": {"type": "Point", "coordinates": [29.457062, 53.192097]}, "properties": {}}, {"type": "Feature", "geometry": {"type": "Point", "coordinates": [83.301586, 53.177814]}, "properties": {}}, {"type": "Feature", "geometry": {"type": "Point", "coordinates": [3.322961, 43.800167]}, "properties": {}}, {"type": "Feature", "geometry": {"type": "Point", "coordinates": [168.829397, -44.936678]}, "properties": {}}, {"type": "Feature", "geometry": {"type": "Point", "coordinates": [149.067006, -35.371277]}, "properties": {}}, {"type": "Feature", "geometry": {"type": "Point", "coordinates": [169.133728, -44.715222]}, "properties": {}}, {"type": "Feature", "geometry": {"type": "Point", "coordinates": [-0.66768, 52.922249]}, "properties": {}}, {"type": "Feature", "geometry": {"type": "Point", "coordinates": [138.696931, -34.964425]}, "properties": {}}, {"type": "Feature", "geometry": {"type": "Point", "coordinates": [-122.30761, 47.645826]}, "properties": {}}, {"type": "Feature", "geometry": {"type": "Point", "coordinates": [149.067323, -35.370067]}, "properties": {}}, {"type": "Feature", "geometry": {"type": "Point", "coordinates": [149.070525, -35.550062]}, "properties": {}}, {"type": "Feature", "geometry": {"type": "Point", "coordinates": [149.067626, -35.369123]}, "properties": {}}, {"type": "Feature", "geometry": {"type": "Point", "coordinates": [170.211186, -45.634935]}, "properties": {}}, {"type": "Feature", "geometry": {"type": "Point", "coordinates": [140.652234, -37.703913]}, "properties": {}}, {"type": "Feature", "geometry": {"type": "Point", "coordinates": [140.736175, -36.955988]}, "properties": {}}, {"type": "Feature", "geometry": {"type": "Point", "coordinates": [14.894245, 48.563493]}, "properties": {}}, {"type": "Feature", "geometry": {"type": "Point", "coordinates": [172.99512, -41.117838]}, "properties": {}}, {"type": "Feature", "geometry": {"type": "Point", "coordinates": [140.803253, -37.046733]}, "properties": {}}, {"type": "Feature", "geometry": {"type": "Point", "coordinates": [14.894255, 48.563487]}, "properties": {}}, {"type": "Feature", "geometry": {"type": "Point", "coordinates": [148.956369, -35.597525]}, "properties": {}}, {"type": "Feature", "geometry": {"type": "Point", "coordinates": [149.14882, -35.361058]}, "properties": {}}, {"type": "Feature", "geometry": {"type": "Point", "coordinates": [149.066992, -35.371933]}, "properties": {}}, {"type": "Feature", "geometry": {"type": "Point", "coordinates": [16.41704, 56.58285]}, "properties": {}}, {"type": "Feature", "geometry": {"type": "Point", "coordinates": [15.17878, 60.14412]}, "properties": {}}, {"type": "Feature", "geometry": {"type": "Point", "coordinates": [12.00359, 57.70547]}, "properties": {}}, {"type": "Feature", "geometry": {"type": "Point", "coordinates": [11.91416, 58.33871]}, "properties": {}}, {"type": "Feature", "geometry": {"type": "Point", "coordinates": [15.89128, 56.78048]}, "properties": {}}, {"type": "Feature", "geometry": {"type": "Point", "coordinates": [147.5, -34.83]}, "properties": {}}, {"type": "Feature", "geometry": {"type": "Point", "coordinates": [12.202699, 55.767836]}, "properties": {}}, {"type": "Feature", "geometry": {"type": "Point", "coordinates": [12.524438, 55.815259]}, "properties": {}}, {"type": "Feature", "geometry": {"type": "Point", "coordinates": [10.215974, 55.367442]}, "properties": {}}, {"type": "Feature", "geometry": {"type": "Point", "coordinates": [16.41198, 56.58649]}, "properties": {}}, {"type": "Feature", "geometry": {"type": "Point", "coordinates": [18.26995, 57.62258]}, "properties": {}}, {"type": "Feature", "geometry": {"type": "Point", "coordinates": [14.746832, 55.10687]}, "properties": {}}, {"type": "Feature", "geometry": {"type": "Point", "coordinates": [7.021501, 51.51371]}, "properties": {}}, {"type": "Feature", "geometry": {"type": "Point", "coordinates": [16.57315, 59.02899]}, "properties": {}}, {"type": "Feature", "geometry": {"type": "Point", "coordinates": [12.00664, 58.36025]}, "properties": {}}, {"type": "Feature", "geometry": {"type": "Point", "coordinates": [16.51489, 56.69706]}, "properties": {}}, {"type": "Feature", "geometry": {"type": "Point", "coordinates": [12.21114, 54.942505]}, "properties": {}}, {"type": "Feature", "geometry": {"type": "Point", "coordinates": [11.65639, 58.38143]}, "properties": {}}, {"type": "Feature", "geometry": {"type": "Point", "coordinates": [6.49305, 46.56484]}, "properties": {}}, {"type": "Feature", "geometry": {"type": "Point", "coordinates": [6.68992, 46.47635]}, "properties": {}}, {"type": "Feature", "geometry": {"type": "Point", "coordinates": [6.95155, 46.34284]}, "properties": {}}, {"type": "Feature", "geometry": {"type": "Point", "coordinates": [6.55826, 46.56536]}, "properties": {}}, {"type": "Feature", "geometry": {"type": "Point", "coordinates": [172.411038, -43.695754]}, "properties": {}}, {"type": "Feature", "geometry": {"type": "Point", "coordinates": [170.482781, -44.002976]}, "properties": {}}, {"type": "Feature", "geometry": {"type": "Point", "coordinates": [167.853134, -45.533259]}, "properties": {}}, {"type": "Feature", "geometry": {"type": "Point", "coordinates": [146.287655, -38.172392]}, "properties": {}}, {"type": "Feature", "geometry": {"type": "Point", "coordinates": [16.42687, 47.453968]}, "properties": {}}, {"type": "Feature", "geometry": {"type": "Point", "coordinates": [143.809491, -37.499174]}, "properties": {}}, {"type": "Feature", "geometry": {"type": "Point", "coordinates": [176.878219, -39.480238]}, "properties": {}}, {"type": "Feature", "geometry": {"type": "Point", "coordinates": [175.637484, -40.72329]}, "properties": {}}, {"type": "Feature", "geometry": {"type": "Point", "coordinates": [146.329919, -37.197134]}, "properties": {}}, {"type": "Feature", "geometry": {"type": "Point", "coordinates": [173.005469, -41.366214]}, "properties": {}}, {"type": "Feature", "geometry": {"type": "Point", "coordinates": [168.808674, -44.990001]}, "properties": {}}, {"type": "Feature", "geometry": {"type": "Point", "coordinates": [150.342619, -34.499092]}, "properties": {}}, {"type": "Feature", "geometry": {"type": "Point", "coordinates": [169.177353, -45.074447]}, "properties": {}}, {"type": "Feature", "geometry": {"type": "Point", "coordinates": [173.102271, -41.365032]}, "properties": {}}, {"type": "Feature", "geometry": {"type": "Point", "coordinates": [-2.731532, 53.354987]}, "properties": {}}, {"type": "Feature", "geometry": {"type": "Point", "coordinates": [146.706544, -36.363686]}, "properties": {}}, {"type": "Feature", "geometry": {"type": "Point", "coordinates": [173.115478, -41.274105]}, "properties": {}}, {"type": "Feature", "geometry": {"type": "Point", "coordinates": [172.646268, -41.770172]}, "properties": {}}, {"type": "Feature", "geometry": {"type": "Point", "coordinates": [13.243258, 52.489372]}, "properties": {}}, {"type": "Feature", "geometry": {"type": "Point", "coordinates": [148.645919, -35.73955]}, "properties": {}}, {"type": "Feature", "geometry": {"type": "Point", "coordinates": [167.854144, -45.531854]}, "properties": {}}, {"type": "Feature", "geometry": {"type": "Point", "coordinates": [-72.99588, -36.854487]}, "properties": {}}, {"type": "Feature", "geometry": {"type": "Point", "coordinates": [37.732939, 55.569639]}, "properties": {}}, {"type": "Feature", "geometry": {"type": "Point", "coordinates": [148.906464, -34.839406]}, "properties": {}}, {"type": "Feature", "geometry": {"type": "Point", "coordinates": [-71.479295, -41.972705]}, "properties": {}}, {"type": "Feature", "geometry": {"type": "Point", "coordinates": [173.410354, -42.100784]}, "properties": {}}, {"type": "Feature", "geometry": {"type": "Point", "coordinates": [176.877954, -39.482132]}, "properties": {}}, {"type": "Feature", "geometry": {"type": "Point", "coordinates": [175.637907, -40.722944]}, "properties": {}}, {"type": "Feature", "geometry": {"type": "Point", "coordinates": [5.300894, 43.755975]}, "properties": {}}, {"type": "Feature", "geometry": {"type": "Point", "coordinates": [148.616161, -35.349803]}, "properties": {}}, {"type": "Feature", "geometry": {"type": "Point", "coordinates": [-122.851432, 45.665758]}, "properties": {}}, {"type": "Feature", "geometry": {"type": "Point", "coordinates": [-122.613363, 49.349138]}, "properties": {}}, {"type": "Feature", "geometry": {"type": "Point", "coordinates": [169.278688, -44.936683]}, "properties": {}}, {"type": "Feature", "geometry": {"type": "Point", "coordinates": [83.301965, 53.177018]}, "properties": {}}, {"type": "Feature", "geometry": {"type": "Point", "coordinates": [41.699017, 50.122972]}, "properties": {}}, {"type": "Feature", "geometry": {"type": "Point", "coordinates": [-71.515563, -41.601437]}, "properties": {}}, {"type": "Feature", "geometry": {"type": "Point", "coordinates": [1.967738, 41.31258]}, "properties": {}}, {"type": "Feature", "geometry": {"type": "Point", "coordinates": [148.961663, -35.624328]}, "properties": {}}, {"type": "Feature", "geometry": {"type": "Point", "coordinates": [149.192269, -36.14455]}, "properties": {}}, {"type": "Feature", "geometry": {"type": "Point", "coordinates": [-0.039955, 51.50186]}, "properties": {}}, {"type": "Feature", "geometry": {"type": "Point", "coordinates": [149.062022, -35.418511]}, "properties": {}}, {"type": "Feature", "geometry": {"type": "Point", "coordinates": [173.118195, -41.343067]}, "properties": {}}, {"type": "Feature", "geometry": {"type": "Point", "coordinates": [170.483237, -44.003208]}, "properties": {}}, {"type": "Feature", "geometry": {"type": "Point", "coordinates": [171.274891, -44.182076]}, "properties": {}}, {"type": "Feature", "geometry": {"type": "Point", "coordinates": [148.137389, -36.539508]}, "properties": {}}, {"type": "Feature", "geometry": {"type": "Point", "coordinates": [-122.871216, 45.452483]}, "properties": {}}, {"type": "Feature", "geometry": {"type": "Point", "coordinates": [138.685322, -35.272389]}, "properties": {}}, {"type": "Feature", "geometry": {"type": "Point", "coordinates": [170.616604, -44.091534]}, "properties": {}}, {"type": "Feature", "geometry": {"type": "Point", "coordinates": [138.574087, -35.053091]}, "properties": {}}, {"type": "Feature", "geometry": {"type": "Point", "coordinates": [7.917591, 47.805725]}, "properties": {}}, {"type": "Feature", "geometry": {"type": "Point", "coordinates": [60.370779, 56.642981]}, "properties": {}}, {"type": "Feature", "geometry": {"type": "Point", "coordinates": [172.818145, -41.870113]}, "properties": {}}, {"type": "Feature", "geometry": {"type": "Point", "coordinates": [169.06437, -44.672763]}, "properties": {}}, {"type": "Feature", "geometry": {"type": "Point", "coordinates": [169.365334, -45.20475]}, "properties": {}}, {"type": "Feature", "geometry": {"type": "Point", "coordinates": [148.598392, -35.459058]}, "properties": {}}, {"type": "Feature", "geometry": {"type": "Point", "coordinates": [138.152861, -35.619912]}, "properties": {}}, {"type": "Feature", "geometry": {"type": "Point", "coordinates": [9.182398, 45.5773]}, "properties": {}}, {"type": "Feature", "geometry": {"type": "Point", "coordinates": [172.382517, -42.514741]}, "properties": {}}, {"type": "Feature", "geometry": {"type": "Point", "coordinates": [149.917344, -33.131595]}, "properties": {}}, {"type": "Feature", "geometry": {"type": "Point", "coordinates": [-72.026567, 41.498253]}, "properties": {}}, {"type": "Feature", "geometry": {"type": "Point", "coordinates": [-7.689309, 41.10454]}, "properties": {}}, {"type": "Feature", "geometry": {"type": "Point", "coordinates": [171.767458, -43.034871]}, "properties": {}}, {"type": "Feature", "geometry": {"type": "Point", "coordinates": [145.102397, -37.629677]}, "properties": {}}, {"type": "Feature", "geometry": {"type": "Point", "coordinates": [175.682802, -40.587423]}, "properties": {}}, {"type": "Feature", "geometry": {"type": "Point", "coordinates": [-123.514542, 45.613483]}, "properties": {}}, {"type": "Feature", "geometry": {"type": "Point", "coordinates": [16.101677, 46.987142]}, "properties": {}}, {"type": "Feature", "geometry": {"type": "Point", "coordinates": [147.568685, -35.37444]}, "properties": {}}, {"type": "Feature", "geometry": {"type": "Point", "coordinates": [-2.90152, 43.305019]}, "properties": {}}, {"type": "Feature", "geometry": {"type": "Point", "coordinates": [-123.286287, 44.561894]}, "properties": {}}, {"type": "Feature", "geometry": {"type": "Point", "coordinates": [170.481492, -43.935897]}, "properties": {}}, {"type": "Feature", "geometry": {"type": "Point", "coordinates": [-122.630835, 45.597926]}, "properties": {}}, {"type": "Feature", "geometry": {"type": "Point", "coordinates": [148.906152, -35.46575]}, "properties": {}}, {"type": "Feature", "geometry": {"type": "Point", "coordinates": [138.685644, -35.272419]}, "properties": {}}, {"type": "Feature", "geometry": {"type": "Point", "coordinates": [-122.871216, 45.452483]}, "properties": {}}, {"type": "Feature", "geometry": {"type": "Point", "coordinates": [140.876113, -37.965038]}, "properties": {}}, {"type": "Feature", "geometry": {"type": "Point", "coordinates": [170.482253, -44.003714]}, "properties": {}}, {"type": "Feature", "geometry": {"type": "Point", "coordinates": [-119.293463, 49.873008]}, "properties": {}}, {"type": "Feature", "geometry": {"type": "Point", "coordinates": [175.131791, -41.108685]}, "properties": {}}, {"type": "Feature", "geometry": {"type": "Point", "coordinates": [176.877907, -39.482463]}, "properties": {}}, {"type": "Feature", "geometry": {"type": "Point", "coordinates": [149.130795, -35.254043]}, "properties": {}}, {"type": "Feature", "geometry": {"type": "Point", "coordinates": [172.698458, -43.493937]}, "properties": {}}, {"type": "Feature", "geometry": {"type": "Point", "coordinates": [176.125869, -38.092725]}, "properties": {}}, {"type": "Feature", "geometry": {"type": "Point", "coordinates": [-122.871216, 45.452483]}, "properties": {}}, {"type": "Feature", "geometry": {"type": "Point", "coordinates": [148.722644, -35.698822]}, "properties": {}}, {"type": "Feature", "geometry": {"type": "Point", "coordinates": [148.248603, -35.375615]}, "properties": {}}, {"type": "Feature", "geometry": {"type": "Point", "coordinates": [-72.565588, -38.64795]}, "properties": {}}, {"type": "Feature", "geometry": {"type": "Point", "coordinates": [-72.995445, -37.792842]}, "properties": {}}, {"type": "Feature", "geometry": {"type": "Point", "coordinates": [149.204917, -35.378285]}, "properties": {}}, {"type": "Feature", "geometry": {"type": "Point", "coordinates": [147.239513, -37.030775]}, "properties": {}}, {"type": "Feature", "geometry": {"type": "Point", "coordinates": [-119.273369, 50.207628]}, "properties": {}}, {"type": "Feature", "geometry": {"type": "Point", "coordinates": [173.10111, -41.389226]}, "properties": {}}, {"type": "Feature", "geometry": {"type": "Point", "coordinates": [145.409364, -36.878364]}, "properties": {}}, {"type": "Feature", "geometry": {"type": "Point", "coordinates": [173.07353, -41.414938]}, "properties": {}}, {"type": "Feature", "geometry": {"type": "Point", "coordinates": [149.836368, -33.301179]}, "properties": {}}, {"type": "Feature", "geometry": {"type": "Point", "coordinates": [147.234767, -37.012067]}, "properties": {}}, {"type": "Feature", "geometry": {"type": "Point", "coordinates": [145.284103, -37.709247]}, "properties": {}}, {"type": "Feature", "geometry": {"type": "Point", "coordinates": [148.97, -33.83]}, "properties": {}}, {"type": "Feature", "geometry": {"type": "Point", "coordinates": [148.12, -34.01]}, "properties": {}}, {"type": "Feature", "geometry": {"type": "Point", "coordinates": [149.08, -33.32]}, "properties": {}}, {"type": "Feature", "geometry": {"type": "Point", "coordinates": [148.54, -33.77]}, "properties": {}}, {"type": "Feature", "geometry": {"type": "Point", "coordinates": [151.78, -30.55]}, "properties": {}}, {"type": "Feature", "geometry": {"type": "Point", "coordinates": [150.02, -34.69]}, "properties": {}}, {"type": "Feature", "geometry": {"type": "Point", "coordinates": [147.46, -34.82]}, "properties": {}}, {"type": "Feature", "geometry": {"type": "Point", "coordinates": [147.5, -34.83]}, "properties": {}}, {"type": "Feature", "geometry": {"type": "Point", "coordinates": [146.47, -34.68]}, "properties": {}}, {"type": "Feature", "geometry": {"type": "Point", "coordinates": [147.41, -34.86]}, "properties": {}}, {"type": "Feature", "geometry": {"type": "Point", "coordinates": [147.52, -34.82]}, "properties": {}}, {"type": "Feature", "geometry": {"type": "Point", "coordinates": [148.29, -34.84]}, "properties": {}}, {"type": "Feature", "geometry": {"type": "Point", "coordinates": [147.6, -34.85]}, "properties": {}}, {"type": "Feature", "geometry": {"type": "Point", "coordinates": [148.6, -33.94]}, "properties": {}}, {"type": "Feature", "geometry": {"type": "Point", "coordinates": [147.09, -33.76]}, "properties": {}}, {"type": "Feature", "geometry": {"type": "Point", "coordinates": [147.43, -34.83]}, "properties": {}}, {"type": "Feature", "geometry": {"type": "Point", "coordinates": [151.73, -29.73]}, "properties": {}}, {"type": "Feature", "geometry": {"type": "Point", "coordinates": [149.08, -33.32]}, "properties": {}}, {"type": "Feature", "geometry": {"type": "Point", "coordinates": [149.09, -33.32]}, "properties": {}}, {"type": "Feature", "geometry": {"type": "Point", "coordinates": [148.16, -35.09]}, "properties": {}}, {"type": "Feature", "geometry": {"type": "Point", "coordinates": [151.33, -30.63]}, "properties": {}}, {"type": "Feature", "geometry": {"type": "Point", "coordinates": [147.33, -34.74]}, "properties": {}}, {"type": "Feature", "geometry": {"type": "Point", "coordinates": [149.09, -33.32]}, "properties": {}}, {"type": "Feature", "geometry": {"type": "Point", "coordinates": [147.47, -34.82]}, "properties": {}}, {"type": "Feature", "geometry": {"type": "Point", "coordinates": [147.62, -34.84]}, "properties": {}}, {"type": "Feature", "geometry": {"type": "Point", "coordinates": [148.54, -35.11]}, "properties": {}}, {"type": "Feature", "geometry": {"type": "Point", "coordinates": [150.12, -34.64]}, "properties": {}}, {"type": "Feature", "geometry": {"type": "Point", "coordinates": [147.63, -34.84]}, "properties": {}}, {"type": "Feature", "geometry": {"type": "Point", "coordinates": [148.43, -35.0]}, "properties": {}}, {"type": "Feature", "geometry": {"type": "Point", "coordinates": [150.06, -34.65]}, "properties": {}}, {"type": "Feature", "geometry": {"type": "Point", "coordinates": [147.83, -35.07]}, "properties": {}}, {"type": "Feature", "geometry": {"type": "Point", "coordinates": [146.75, -33.95]}, "properties": {}}, {"type": "Feature", "geometry": {"type": "Point", "coordinates": [147.6, -34.87]}, "properties": {}}, {"type": "Feature", "geometry": {"type": "Point", "coordinates": [149.72, -34.72]}, "properties": {}}, {"type": "Feature", "geometry": {"type": "Point", "coordinates": [149.5, -34.8]}, "properties": {}}, {"type": "Feature", "geometry": {"type": "Point", "coordinates": [150.02, -34.67]}, "properties": {}}, {"type": "Feature", "geometry": {"type": "Point", "coordinates": [149.11, -33.3]}, "properties": {}}, {"type": "Feature", "geometry": {"type": "Point", "coordinates": [147.53, -34.82]}, "properties": {}}, {"type": "Feature", "geometry": {"type": "Point", "coordinates": [151.71, -29.75]}, "properties": {}}, {"type": "Feature", "geometry": {"type": "Point", "coordinates": [148.44, -35.13]}, "properties": {}}, {"type": "Feature", "geometry": {"type": "Point", "coordinates": [151.71, -29.75]}, "properties": {}}, {"type": "Feature", "geometry": {"type": "Point", "coordinates": [148.99, -33.84]}, "properties": {}}, {"type": "Feature", "geometry": {"type": "Point", "coordinates": [150.05, -34.67]}, "properties": {}}, {"type": "Feature", "geometry": {"type": "Point", "coordinates": [149.07, -33.37]}, "properties": {}}, {"type": "Feature", "geometry": {"type": "Point", "coordinates": [148.42, -35.1]}, "properties": {}}, {"type": "Feature", "geometry": {"type": "Point", "coordinates": [152.25, -30.49]}, "properties": {}}, {"type": "Feature", "geometry": {"type": "Point", "coordinates": [152.35, -30.4]}, "properties": {}}, {"type": "Feature", "geometry": {"type": "Point", "coordinates": [148.97, -33.81]}, "properties": {}}, {"type": "Feature", "geometry": {"type": "Point", "coordinates": [147.65, -34.84]}, "properties": {}}, {"type": "Feature", "geometry": {"type": "Point", "coordinates": [149.12, -33.37]}, "properties": {}}, {"type": "Feature", "geometry": {"type": "Point", "coordinates": [147.65, -34.85]}, "properties": {}}, {"type": "Feature", "geometry": {"type": "Point", "coordinates": [148.38, -35.09]}, "properties": {}}, {"type": "Feature", "geometry": {"type": "Point", "coordinates": [149.72, -34.72]}, "properties": {}}, {"type": "Feature", "geometry": {"type": "Point", "coordinates": [150.05, -34.67]}, "properties": {}}, {"type": "Feature", "geometry": {"type": "Point", "coordinates": [147.23, -34.75]}, "properties": {}}, {"type": "Feature", "geometry": {"type": "Point", "coordinates": [147.41, -34.86]}, "properties": {}}, {"type": "Feature", "geometry": {"type": "Point", "coordinates": [150.13, -34.71]}, "properties": {}}, {"type": "Feature", "geometry": {"type": "Point", "coordinates": [147.26, -34.7]}, "properties": {}}, {"type": "Feature", "geometry": {"type": "Point", "coordinates": [144.8, -35.4]}, "properties": {}}, {"type": "Feature", "geometry": {"type": "Point", "coordinates": [151.71, -29.75]}, "properties": {}}, {"type": "Feature", "geometry": {"type": "Point", "coordinates": [148.42, -35.16]}, "properties": {}}, {"type": "Feature", "geometry": {"type": "Point", "coordinates": [148.17, -35.1]}, "properties": {}}, {"type": "Feature", "geometry": {"type": "Point", "coordinates": [151.73, -29.73]}, "properties": {}}, {"type": "Feature", "geometry": {"type": "Point", "coordinates": [151.3, -30.69]}, "properties": {}}, {"type": "Feature", "geometry": {"type": "Point", "coordinates": [147.65, -34.85]}, "properties": {}}, {"type": "Feature", "geometry": {"type": "Point", "coordinates": [146.61, -33.84]}, "properties": {}}, {"type": "Feature", "geometry": {"type": "Point", "coordinates": [148.43, -35.15]}, "properties": {}}, {"type": "Feature", "geometry": {"type": "Point", "coordinates": [147.6, -34.88]}, "properties": {}}, {"type": "Feature", "geometry": {"type": "Point", "coordinates": [151.58, -30.56]}, "properties": {}}, {"type": "Feature", "geometry": {"type": "Point", "coordinates": [148.44, -35.14]}, "properties": {}}, {"type": "Feature", "geometry": {"type": "Point", "coordinates": [148.97, -33.83]}, "properties": {}}, {"type": "Feature", "geometry": {"type": "Point", "coordinates": [148.47, -35.02]}, "properties": {}}, {"type": "Feature", "geometry": {"type": "Point", "coordinates": [148.65, -33.87]}, "properties": {}}, {"type": "Feature", "geometry": {"type": "Point", "coordinates": [147.59, -34.85]}, "properties": {}}, {"type": "Feature", "geometry": {"type": "Point", "coordinates": [150.08, -34.7]}, "properties": {}}, {"type": "Feature", "geometry": {"type": "Point", "coordinates": [149.08, -33.33]}, "properties": {}}, {"type": "Feature", "geometry": {"type": "Point", "coordinates": [151.14, -29.78]}, "properties": {}}, {"type": "Feature", "geometry": {"type": "Point", "coordinates": [149.13, -33.37]}, "properties": {}}, {"type": "Feature", "geometry": {"type": "Point", "coordinates": [147.73, -34.93]}, "properties": {}}, {"type": "Feature", "geometry": {"type": "Point", "coordinates": [150.02, -34.67]}, "properties": {}}, {"type": "Feature", "geometry": {"type": "Point", "coordinates": [146.8, -34.55]}, "properties": {}}, {"type": "Feature", "geometry": {"type": "Point", "coordinates": [149.14, -33.35]}, "properties": {}}, {"type": "Feature", "geometry": {"type": "Point", "coordinates": [148.13, -34.03]}, "properties": {}}, {"type": "Feature", "geometry": {"type": "Point", "coordinates": [147.43, -34.88]}, "properties": {}}, {"type": "Feature", "geometry": {"type": "Point", "coordinates": [147.55, -34.83]}, "properties": {}}, {"type": "Feature", "geometry": {"type": "Point", "coordinates": [148.623567, -35.875283]}, "properties": {}}, {"type": "Feature", "geometry": {"type": "Point", "coordinates": [-70.743446, -34.982038]}, "properties": {}}, {"type": "Feature", "geometry": {"type": "Point", "coordinates": [143.920301, -37.378925]}, "properties": {}}, {"type": "Feature", "geometry": {"type": "Point", "coordinates": [144.087631, -37.166183]}, "properties": {}}, {"type": "Feature", "geometry": {"type": "Point", "coordinates": [147.477134, -36.965766]}, "properties": {}}, {"type": "Feature", "geometry": {"type": "Point", "coordinates": [-2.731532, 53.354987]}, "properties": {}}, {"type": "Feature", "geometry": {"type": "Point", "coordinates": [149.04, -32.12]}, "properties": {}}, {"type": "Feature", "geometry": {"type": "Point", "coordinates": [148.91, -32.8]}, "properties": {}}, {"type": "Feature", "geometry": {"type": "Point", "coordinates": [144.87, -35.75]}, "properties": {}}, {"type": "Feature", "geometry": {"type": "Point", "coordinates": [149.18, -32.11]}, "properties": {}}, {"type": "Feature", "geometry": {"type": "Point", "coordinates": [149.04, -32.1]}, "properties": {}}, {"type": "Feature", "geometry": {"type": "Point", "coordinates": [144.88, -35.79]}, "properties": {}}, {"type": "Feature", "geometry": {"type": "Point", "coordinates": [145.15, -35.74]}, "properties": {}}, {"type": "Feature", "geometry": {"type": "Point", "coordinates": [149.18, -32.11]}, "properties": {}}, {"type": "Feature", "geometry": {"type": "Point", "coordinates": [149.16, -32.12]}, "properties": {}}, {"type": "Feature", "geometry": {"type": "Point", "coordinates": [5.85, 51.65]}, "properties": {}}, {"type": "Feature", "geometry": {"type": "Point", "coordinates": [5.65, 50.75]}, "properties": {}}, {"type": "Feature", "geometry": {"type": "Point", "coordinates": [5.7, 52.05]}, "properties": {}}, {"type": "Feature", "geometry": {"type": "Point", "coordinates": [6.35, 52.25]}, "properties": {}}, {"type": "Feature", "geometry": {"type": "Point", "coordinates": [5.2, 51.95]}, "properties": {}}, {"type": "Feature", "geometry": {"type": "Point", "coordinates": [5.9, 51.6]}, "properties": {}}, {"type": "Feature", "geometry": {"type": "Point", "coordinates": [6.25, 52.5]}, "properties": {}}, {"type": "Feature", "geometry": {"type": "Point", "coordinates": [6.25, 52.5]}, "properties": {}}, {"type": "Feature", "geometry": {"type": "Point", "coordinates": [5.5, 52.0]}, "properties": {}}, {"type": "Feature", "geometry": {"type": "Point", "coordinates": [4.55, 52.3]}, "properties": {}}, {"type": "Feature", "geometry": {"type": "Point", "coordinates": [5.7, 52.0]}, "properties": {}}, {"type": "Feature", "geometry": {"type": "Point", "coordinates": [5.55, 52.0]}, "properties": {}}, {"type": "Feature", "geometry": {"type": "Point", "coordinates": [5.65, 52.0]}, "properties": {}}, {"type": "Feature", "geometry": {"type": "Point", "coordinates": [5.65, 52.0]}, "properties": {}}, {"type": "Feature", "geometry": {"type": "Point", "coordinates": [5.55, 52.0]}, "properties": {}}, {"type": "Feature", "geometry": {"type": "Point", "coordinates": [5.55, 52.0]}, "properties": {}}, {"type": "Feature", "geometry": {"type": "Point", "coordinates": [5.65, 52.0]}, "properties": {}}, {"type": "Feature", "geometry": {"type": "Point", "coordinates": [5.85, 51.75]}, "properties": {}}, {"type": "Feature", "geometry": {"type": "Point", "coordinates": [5.4, 51.5]}, "properties": {}}, {"type": "Feature", "geometry": {"type": "Point", "coordinates": [44.913859, 53.230473]}, "properties": {}}, {"type": "Feature", "geometry": {"type": "Point", "coordinates": [47.247317, 42.977204]}, "properties": {}}, {"type": "Feature", "geometry": {"type": "Point", "coordinates": [149.108428, -35.26016]}, "properties": {}}, {"type": "Feature", "geometry": {"type": "Point", "coordinates": [12.651516, 41.700287]}, "properties": {}}, {"type": "Feature", "geometry": {"type": "Point", "coordinates": [149.10927, -35.25972]}, "properties": {}}, {"type": "Feature", "geometry": {"type": "Point", "coordinates": [172.827958, -41.796833]}, "properties": {}}, {"type": "Feature", "geometry": {"type": "Point", "coordinates": [150.67, -31.51]}, "properties": {}}, {"type": "Feature", "geometry": {"type": "Point", "coordinates": [150.73, -31.64]}, "properties": {}}, {"type": "Feature", "geometry": {"type": "Point", "coordinates": [150.8, -31.44]}, "properties": {}}, {"type": "Feature", "geometry": {"type": "Point", "coordinates": [150.67, -31.52]}, "properties": {}}, {"type": "Feature", "geometry": {"type": "Point", "coordinates": [150.69, -31.54]}, "properties": {}}, {"type": "Feature", "geometry": {"type": "Point", "coordinates": [150.64, -31.49]}, "properties": {}}, {"type": "Feature", "geometry": {"type": "Point", "coordinates": [150.78, -31.73]}, "properties": {}}, {"type": "Feature", "geometry": {"type": "Point", "coordinates": [150.78, -31.73]}, "properties": {}}, {"type": "Feature", "geometry": {"type": "Point", "coordinates": [150.82, -31.55]}, "properties": {}}, {"type": "Feature", "geometry": {"type": "Point", "coordinates": [150.66, -31.5]}, "properties": {}}, {"type": "Feature", "geometry": {"type": "Point", "coordinates": [150.73, -31.64]}, "properties": {}}, {"type": "Feature", "geometry": {"type": "Point", "coordinates": [150.77, -31.74]}, "properties": {}}, {"type": "Feature", "geometry": {"type": "Point", "coordinates": [150.05, -31.64]}, "properties": {}}, {"type": "Feature", "geometry": {"type": "Point", "coordinates": [150.67, -31.49]}, "properties": {}}, {"type": "Feature", "geometry": {"type": "Point", "coordinates": [150.78, -31.73]}, "properties": {}}, {"type": "Feature", "geometry": {"type": "Point", "coordinates": [150.67, -31.5]}, "properties": {}}, {"type": "Feature", "geometry": {"type": "Point", "coordinates": [150.65, -31.35]}, "properties": {}}, {"type": "Feature", "geometry": {"type": "Point", "coordinates": [150.67, -31.5]}, "properties": {}}, {"type": "Feature", "geometry": {"type": "Point", "coordinates": [150.73, -31.64]}, "properties": {}}, {"type": "Feature", "geometry": {"type": "Point", "coordinates": [150.67, -31.51]}, "properties": {}}, {"type": "Feature", "geometry": {"type": "Point", "coordinates": [-71.871655, -37.264983]}, "properties": {}}, {"type": "Feature", "geometry": {"type": "Point", "coordinates": [150.1, -32.21]}, "properties": {}}, {"type": "Feature", "geometry": {"type": "Point", "coordinates": [149.47, -34.98]}, "properties": {}}, {"type": "Feature", "geometry": {"type": "Point", "coordinates": [150.09, -32.07]}, "properties": {}}, {"type": "Feature", "geometry": {"type": "Point", "coordinates": [149.53, -35.02]}, "properties": {}}, {"type": "Feature", "geometry": {"type": "Point", "coordinates": [149.45, -34.95]}, "properties": {}}, {"type": "Feature", "geometry": {"type": "Point", "coordinates": [150.07, -32.2]}, "properties": {}}, {"type": "Feature", "geometry": {"type": "Point", "coordinates": [149.48, -34.98]}, "properties": {}}, {"type": "Feature", "geometry": {"type": "Point", "coordinates": [150.07, -32.2]}, "properties": {}}, {"type": "Feature", "geometry": {"type": "Point", "coordinates": [150.06, -32.23]}, "properties": {}}, {"type": "Feature", "geometry": {"type": "Point", "coordinates": [149.51, -35.01]}, "properties": {}}]}