{"type": "FeatureCollection", "name": "Acer campestre", "features": [{"type": "Feature", "geometry": {"type": "Point", "coordinates": [8.227386, 50.416176]}, "properties": {}}, {"type": "Feature", "geometry": {"type": "Point", "coordinates": [11.289269, 50.70583]}, "properties": {}}, {"type": "Feature", "geometry": {"type": "Point", "coordinates": [8.227386, 50.416176]}, "properties": {}}, {"type": "Feature", "geometry": {"type": "Point", "coordinates": [11.010292, 50.804485]}, "properties": {}}, {"type": "Feature", "geometry": {"type": "Point", "coordinates": [8.499362, 49.452267]}, "properties": {}}, {"type": "Feature", "geometry": {"type": "Point", "coordinates": [-3.453393, 51.467714]}, "properties": {}}, {"type": "Feature", "geometry": {"type": "Point", "coordinates": [12.602683, 42.221925]}, "properties": {}}, {"type": "Feature", "geometry": {"type": "Point", "coordinates": [16.26016, 47.997791]}, "properties": {}}, {"type": "Feature", "geometry": {"type": "Point", "coordinates": [-3.453025, 51.467649]}, "properties": {}}, {"type": "Feature", "geometry": {"type": "Point", "coordinates": [8.227386, 50.416176]}, "properties": {}}, {"type": "Feature", "geometry": {"type": "Point", "coordinates": [12.0523, 57.69782]}, "properties": {}}, {"type": "Feature", "geometry": {"type": "Point", "coordinates": [18.31843, 57.64061]}, "properties": {}}, {"type": "Feature", "geometry": {"type": "Point", "coordinates": [11.869789, 54.761429]}, "properties": {}}, {"type": "Feature", "geometry": {"type": "Point", "coordinates": [8.371582, 49.698727]}, "properties": {}}, {"type": "Feature", "geometry": {"type": "Point", "coordinates": [6.696167, 51.544735]}, "properties": {}}, {"type": "Feature", "geometry": {"type": "Point", "coordinates": [7.018762, 51.512909]}, "properties": {}}, {"type": "Feature", "geometry": {"type": "Point", "coordinates": [8.67939, 49.459076]}, "properties": {}}, {"type": "Feature", "geometry": {"type": "Point", "coordinates": [12.00159, 57.70866]}, "properties": {}}, {"type": "Feature", "geometry": {"type": "Point", "coordinates": [12.053623, 56.02315]}, "properties": {}}, {"type": "Feature", "geometry": {"type": "Point", "coordinates": [11.922476, 54.83032]}, "properties": {}}, {"type": "Feature", "geometry": {"type": "Point", "coordinates": [7.8636, 46.70292]}, "properties": {}}, {"type": "Feature", "geometry": {"type": "Point", "coordinates": [16.972574, 49.895283]}, "properties": {}}, {"type": "Feature", "geometry": {"type": "Point", "coordinates": [6.060223, 43.646669]}, "properties": {}}, {"type": "Feature", "geometry": {"type": "Point", "coordinates": [-1.754604, 52.732868]}, "properties": {}}, {"type": "Feature", "geometry": {"type": "Point", "coordinates": [7.324427, 47.737673]}, "properties": {}}, {"type": "Feature", "geometry": {"type": "Point", "coordinates": [16.274364, 48.001463]}, "properties": {}}, {"type": "Feature", "geometry": {"type": "Point", "coordinates": [-1.338822, 52.544033]}, "properties": {}}, {"type": "Feature", "geometry": {"type": "Point", "coordinates": [-3.421682, 51.455765]}, "properties": {}}, {"type": "Feature", "geometry": {"type": "Point", "coordinates": [15.88233, 46.96782]}, "properties": {}}, {"type": "Feature", "geometry": {"type": "Point", "coordinates": [16.472243, 48.19604]}, "properties": {}}, {"type": "Feature", "geometry": {"type": "Point", "coordinates": [16.472407, 48.196025]}, "properties": {}}, {"type": "Feature", "geometry": {"type": "Point", "coordinates": [0.334364, 50.870191]}, "properties": {}}, {"type": "Feature", "geometry": {"type": "Point", "coordinates": [-0.222988, 50.920929]}, "properties": {}}, {"type": "Feature", "geometry": {"type": "Point", "coordinates": [-0.550906, 54.256456]}, "properties": {}}, {"type": "Feature", "geometry": {"type": "Point", "coordinates": [-0.752146, 50.951613]}, "properties": {}}, {"type": "Feature", "geometry": {"type": "Point", "coordinates": [0.211935, 50.843571]}, "properties": {}}, {"type": "Feature", "geometry": {"type": "Point", "coordinates": [-0.719576, 50.841548]}, "properties": {}}, {"type": "Feature", "geometry": {"type": "Point", "coordinates": [5.65, 51.95]}, "properties": {}}, {"type": "Feature", "geometry": {"type": "Point", "coordinates": [5.35, 51.55]}, "properties": {}}, {"type": "Feature", "geometry": {"type": "Point", "coordinates": [4.75, 51.5]}, "properties": {}}, {"type": "Feature", "geometry": {"type": "Point", "coordinates": [5.35, 52.1]}, "properties": {}}, {"type": "Feature", "geometry": {"type": "Point", "coordinates": [5.85, 52.0]}, "properties": {}}, {"type": "Feature", "geometry": {"type": "Point", "coordinates": [4.6, 52.35]}, "properties": {}}, {"type": "Feature", "geometry": {"type": "Point", "coordinates": [5.65, 51.95]}, "properties": {}}, {"type": "Feature", "geometry": {"type": "Point", "coordinates": [3.9, 51.65]}, "properties": {}}, {"type": "Feature", "geometry": {"type": "Point", "coordinates": [4.65, 51.85]}, "properties": {}}, {"type": "Feature", "geometry": {"type": "Point", "coordinates": [1.419351, 43.522439]}, "properties": {}}, {"type": "Feature", "geometry": {"type": "Point", "coordinates": [5.85, 52.0]}, "properties": {}}, {"type": "Feature", "geometry": {"type": "Point", "coordinates": [5.95, 50.85]}, "properties": {}}, {"type": "Feature", "geometry": {"type": "Point", "coordinates": [2.436162, 50.965725]}, "properties": {}}, {"type": "Feature", "geometry": {"type": "Point", "coordinates": [4.25, 51.85]}, "properties": {}}, {"type": "Feature", "geometry": {"type": "Point", "coordinates": [4.6, 51.8]}, "properties": {}}, {"type": "Feature", "geometry": {"type": "Point", "coordinates": [4.6, 51.8]}, "properties": {}}, {"type": "Feature", "geometry": {"type": "Point", "coordinates": [4.75, 51.5]}, "properties": {}}, {"type": "Feature", "geometry": {"type": "Point", "coordinates": [7.198431, 50.642437]}, "properties": {}}, {"type": "Feature", "geometry": {"type": "Point", "coordinates": [5.4, 51.55]}, "properties": {}}, {"type": "Feature", "geometry": {"type": "Point", "coordinates": [6.2, 52.65]}, "properties": {}}, {"type": "Feature", "geometry": {"type": "Point", "coordinates": [5.0, 52.05]}, "properties": {}}, {"type": "Feature", "geometry": {"type": "Point", "coordinates": [-1.754604, 52.732868]}, "properties": {}}, {"type": "Feature", "geometry": {"type": "Point", "coordinates": [-0.719084, 50.859529]}, "properties": {}}, {"type": "Feature", "geometry": {"type": "Point", "coordinates": [12.377008, 41.946824]}, "properties": {}}, {"type": "Feature", "geometry": {"type": "Point", "coordinates": [8.562876, 53.206703]}, "properties": {}}, {"type": "Feature", "geometry": {"type": "Point", "coordinates": [2.270821, 50.955593]}, "properties": {}}, {"type": "Feature", "geometry": {"type": "Point", "coordinates": [-1.304886, 53.229512]}, "properties": {}}, {"type": "Feature", "geometry": {"type": "Point", "coordinates": [-1.563275, 52.862183]}, "properties": {}}, {"type": "Feature", "geometry": {"type": "Point", "coordinates": [-1.319865, 53.229599]}, "properties": {}}, {"type": "Feature", "geometry": {"type": "Point", "coordinates": [-1.305322, 53.202548]}, "properties": {}}, {"type": "Feature", "geometry": {"type": "Point", "coordinates": [-1.51951, 52.790098]}, "properties": {}}, {"type": "Feature", "geometry": {"type": "Point", "coordinates": [-1.519609, 52.781109]}, "properties": {}}, {"type": "Feature", "geometry": {"type": "Point", "coordinates": [9.645876, 45.666998]}, "properties": {}}, {"type": "Feature", "geometry": {"type": "Point", "coordinates": [16.262495, 48.037579]}, "properties": {}}, {"type": "Feature", "geometry": {"type": "Point", "coordinates": [5.65, 53.25]}, "properties": {}}, {"type": "Feature", "geometry": {"type": "Point", "coordinates": [8.7051, 52.119876]}, "properties": {}}, {"type": "Feature", "geometry": {"type": "Point", "coordinates": [5.15, 52.2]}, "properties": {}}, {"type": "Feature", "geometry": {"type": "Point", "coordinates": [4.75, 51.5]}, "properties": {}}, {"type": "Feature", "geometry": {"type": "Point", "coordinates": [5.1, 51.85]}, "properties": {}}, {"type": "Feature", "geometry": {"type": "Point", "coordinates": [5.1, 52.05]}, "properties": {}}, {"type": "Feature", "geometry": {"type": "Point", "coordinates": [16.46172, 48.20405]}, "properties": {}}, {"type": "Feature", "geometry": {"type": "Point", "coordinates": [16.48237, 48.213748]}, "properties": {}}, {"type": "Feature", "geometry": {"type": "Point", "coordinates": [16.476438, 48.20586]}, "properties": {}}, {"type": "Feature", "geometry": {"type": "Point", "coordinates": [16.463179, 48.202217]}, "properties": {}}, {"type": "Feature", "geometry": {"type": "Point", "coordinates": [16.464578, 48.202867]}, "properties": {}}, {"type": "Feature", "geometry": {"type": "Point", "coordinates": [16.937298, 48.010567]}, "properties": {}}, {"type": "Feature", "geometry": {"type": "Point", "coordinates": [9.527447, 47.62409]}, "properties": {}}, {"type": "Feature", "geometry": {"type": "Point", "coordinates": [17.139362, 44.876584]}, "properties": {}}, {"type": "Feature", "geometry": {"type": "Point", "coordinates": [16.47971, 48.210798]}, "properties": {}}, {"type": "Feature", "geometry": {"type": "Point", "coordinates": [-0.889859, 51.45246]}, "properties": {}}, {"type": "Feature", "geometry": {"type": "Point", "coordinates": [16.956369, 48.153077]}, "properties": {}}, {"type": "Feature", "geometry": {"type": "Point", "coordinates": [16.45224, 48.218939]}, "properties": {}}, {"type": "Feature", "geometry": {"type": "Point", "coordinates": [16.453652, 48.220865]}, "properties": {}}, {"type": "Feature", "geometry": {"type": "Point", "coordinates": [5.6, 51.95]}, "properties": {}}, {"type": "Feature", "geometry": {"type": "Point", "coordinates": [5.95, 51.95]}, "properties": {}}, {"type": "Feature", "geometry": {"type": "Point", "coordinates": [4.6, 52.3]}, "properties": {}}, {"type": "Feature", "geometry": {"type": "Point", "coordinates": [5.9, 51.85]}, "properties": {}}, {"type": "Feature", "geometry": {"type": "Point", "coordinates": [4.65, 51.75]}, "properties": {}}, {"type": "Feature", "geometry": {"type": "Point", "coordinates": [3.6, 51.45]}, "properties": {}}, {"type": "Feature", "geometry": {"type": "Point", "coordinates": [4.75, 51.5]}, "properties": {}}, {"type": "Feature", "geometry": {"type": "Point", "coordinates": [16.419441, 48.31714]}, "properties": {}}, {"type": "Feature", "geometry": {"type": "Point", "coordinates": [11.454263, 48.418472]}, "properties": {}}, {"type": "Feature", "geometry": {"type": "Point", "coordinates": [16.857962, 47.989202]}, "properties": {}}, {"type": "Feature", "geometry": {"type": "Point", "coordinates": [16.402897, 48.315361]}, "properties": {}}, {"type": "Feature", "geometry": {"type": "Point", "coordinates": [16.40601, 48.31551]}, "properties": {}}, {"type": "Feature", "geometry": {"type": "Point", "coordinates": [-0.312546, 51.340208]}, "properties": {}}, {"type": "Feature", "geometry": {"type": "Point", "coordinates": [16.373132, 48.314962]}, "properties": {}}, {"type": "Feature", "geometry": {"type": "Point", "coordinates": [-0.77131, 50.87268]}, "properties": {}}, {"type": "Feature", "geometry": {"type": "Point", "coordinates": [-0.386668, 50.918809]}, "properties": {}}, {"type": "Feature", "geometry": {"type": "Point", "coordinates": [10.368347, 50.014854]}, "properties": {}}, {"type": "Feature", "geometry": {"type": "Point", "coordinates": [5.0, 51.55]}, "properties": {}}, {"type": "Feature", "geometry": {"type": "Point", "coordinates": [6.1, 52.35]}, "properties": {}}, {"type": "Feature", "geometry": {"type": "Point", "coordinates": [77.001411, 43.186765]}, "properties": {}}, {"type": "Feature", "geometry": {"type": "Point", "coordinates": [7.49384, 44.633827]}, "properties": {}}, {"type": "Feature", "geometry": {"type": "Point", "coordinates": [39.720375, 44.493167]}, "properties": {}}, {"type": "Feature", "geometry": {"type": "Point", "coordinates": [0.15148, 52.23061]}, "properties": {}}, {"type": "Feature", "geometry": {"type": "Point", "coordinates": [0.15203, 52.2299]}, "properties": {}}, {"type": "Feature", "geometry": {"type": "Point", "coordinates": [-1.593148, 52.84431]}, "properties": {}}, {"type": "Feature", "geometry": {"type": "Point", "coordinates": [-1.653464, 52.727637]}, "properties": {}}, {"type": "Feature", "geometry": {"type": "Point", "coordinates": [-1.638657, 52.727593]}, "properties": {}}, {"type": "Feature", "geometry": {"type": "Point", "coordinates": [-2.698351, 53.783593]}, "properties": {}}, {"type": "Feature", "geometry": {"type": "Point", "coordinates": [3.35, 51.3]}, "properties": {}}, {"type": "Feature", "geometry": {"type": "Point", "coordinates": [5.15, 51.55]}, "properties": {}}, {"type": "Feature", "geometry": {"type": "Point", "coordinates": [5.75, 50.9]}, "properties": {}}, {"type": "Feature", "geometry": {"type": "Point", "coordinates": [4.8, 51.5]}, "properties": {}}, {"type": "Feature", "geometry": {"type": "Point", "coordinates": [9.678591, 45.774673]}, "properties": {}}, {"type": "Feature", "geometry": {"type": "Point", "coordinates": [11.934671, 51.821186]}, "properties": {}}, {"type": "Feature", "geometry": {"type": "Point", "coordinates": [12.394488, 51.675598]}, "properties": {}}, {"type": "Feature", "geometry": {"type": "Point", "coordinates": [-0.569969, 51.444022]}, "properties": {}}, {"type": "Feature", "geometry": {"type": "Point", "coordinates": [2.994136, 50.616792]}, "properties": {}}, {"type": "Feature", "geometry": {"type": "Point", "coordinates": [-2.469959, 53.498743]}, "properties": {}}, {"type": "Feature", "geometry": {"type": "Point", "coordinates": [-0.378959, 51.387852]}, "properties": {}}, {"type": "Feature", "geometry": {"type": "Point", "coordinates": [30.246726, 48.987071]}, "properties": {}}, {"type": "Feature", "geometry": {"type": "Point", "coordinates": [3.16332, 45.72753]}, "properties": {}}, {"type": "Feature", "geometry": {"type": "Point", "coordinates": [-2.469997, 53.498674]}, "properties": {}}, {"type": "Feature", "geometry": {"type": "Point", "coordinates": [-1.551761, 47.236335]}, "properties": {}}, {"type": "Feature", "geometry": {"type": "Point", "coordinates": [17.245813, 45.506644]}, "properties": {}}, {"type": "Feature", "geometry": {"type": "Point", "coordinates": [2.421318, 48.839383]}, "properties": {}}, {"type": "Feature", "geometry": {"type": "Point", "coordinates": [12.84719, 56.69509]}, "properties": {}}, {"type": "Feature", "geometry": {"type": "Point", "coordinates": [16.35509, 56.66027]}, "properties": {}}, {"type": "Feature", "geometry": {"type": "Point", "coordinates": [8.459493, 49.445259]}, "properties": {}}, {"type": "Feature", "geometry": {"type": "Point", "coordinates": [7.056501, 51.450504]}, "properties": {}}, {"type": "Feature", "geometry": {"type": "Point", "coordinates": [17.62112, 59.83919]}, "properties": {}}, {"type": "Feature", "geometry": {"type": "Point", "coordinates": [5.1, 51.55]}, "properties": {}}, {"type": "Feature", "geometry": {"type": "Point", "coordinates": [2.412484, 51.043751]}, "properties": {}}, {"type": "Feature", "geometry": {"type": "Point", "coordinates": [5.7, 50.9]}, "properties": {}}, {"type": "Feature", "geometry": {"type": "Point", "coordinates": [4.95, 51.4]}, "properties": {}}, {"type": "Feature", "geometry": {"type": "Point", "coordinates": [4.35, 52.0]}, "properties": {}}, {"type": "Feature", "geometry": {"type": "Point", "coordinates": [2.413153, 51.044453]}, "properties": {}}, {"type": "Feature", "geometry": {"type": "Point", "coordinates": [2.41398, 51.04504]}, "properties": {}}, {"type": "Feature", "geometry": {"type": "Point", "coordinates": [2.414109, 51.045097]}, "properties": {}}, {"type": "Feature", "geometry": {"type": "Point", "coordinates": [4.4, 52.15]}, "properties": {}}, {"type": "Feature", "geometry": {"type": "Point", "coordinates": [2.412362, 51.043564]}, "properties": {}}, {"type": "Feature", "geometry": {"type": "Point", "coordinates": [2.414465, 51.045307]}, "properties": {}}, {"type": "Feature", "geometry": {"type": "Point", "coordinates": [2.414143, 51.04512]}, "properties": {}}, {"type": "Feature", "geometry": {"type": "Point", "coordinates": [2.413476, 51.044697]}, "properties": {}}, {"type": "Feature", "geometry": {"type": "Point", "coordinates": [5.25, 52.25]}, "properties": {}}, {"type": "Feature", "geometry": {"type": "Point", "coordinates": [5.5, 51.95]}, "properties": {}}, {"type": "Feature", "geometry": {"type": "Point", "coordinates": [2.412607, 51.043922]}, "properties": {}}, {"type": "Feature", "geometry": {"type": "Point", "coordinates": [4.5, 52.25]}, "properties": {}}, {"type": "Feature", "geometry": {"type": "Point", "coordinates": [2.41239, 51.043606]}, "properties": {}}, {"type": "Feature", "geometry": {"type": "Point", "coordinates": [6.05, 50.85]}, "properties": {}}, {"type": "Feature", "geometry": {"type": "Point", "coordinates": [5.15, 52.0]}, "properties": {}}, {"type": "Feature", "geometry": {"type": "Point", "coordinates": [4.6, 51.85]}, "properties": {}}, {"type": "Feature", "geometry": {"type": "Point", "coordinates": [4.8, 52.3]}, "properties": {}}, {"type": "Feature", "geometry": {"type": "Point", "coordinates": [2.412357, 51.043549]}, "properties": {}}, {"type": "Feature", "geometry": {"type": "Point", "coordinates": [4.55, 52.15]}, "properties": {}}, {"type": "Feature", "geometry": {"type": "Point", "coordinates": [2.412333, 51.043541]}, "properties": {}}, {"type": "Feature", "geometry": {"type": "Point", "coordinates": [4.2, 51.5]}, "properties": {}}, {"type": "Feature", "geometry": {"type": "Point", "coordinates": [6.3, 51.95]}, "properties": {}}, {"type": "Feature", "geometry": {"type": "Point", "coordinates": [2.413648, 51.044811]}, "properties": {}}, {"type": "Feature", "geometry": {"type": "Point", "coordinates": [4.55, 51.8]}, "properties": {}}, {"type": "Feature", "geometry": {"type": "Point", "coordinates": [5.15, 52.2]}, "properties": {}}, {"type": "Feature", "geometry": {"type": "Point", "coordinates": [6.5, 53.2]}, "properties": {}}, {"type": "Feature", "geometry": {"type": "Point", "coordinates": [4.35, 51.9]}, "properties": {}}, {"type": "Feature", "geometry": {"type": "Point", "coordinates": [2.413121, 51.044426]}, "properties": {}}, {"type": "Feature", "geometry": {"type": "Point", "coordinates": [5.6, 51.65]}, "properties": {}}, {"type": "Feature", "geometry": {"type": "Point", "coordinates": [5.4, 51.4]}, "properties": {}}, {"type": "Feature", "geometry": {"type": "Point", "coordinates": [4.85, 52.3]}, "properties": {}}, {"type": "Feature", "geometry": {"type": "Point", "coordinates": [4.05, 51.25]}, "properties": {}}, {"type": "Feature", "geometry": {"type": "Point", "coordinates": [5.8, 50.8]}, "properties": {}}, {"type": "Feature", "geometry": {"type": "Point", "coordinates": [2.414077, 51.045082]}, "properties": {}}, {"type": "Feature", "geometry": {"type": "Point", "coordinates": [5.65, 51.95]}, "properties": {}}, {"type": "Feature", "geometry": {"type": "Point", "coordinates": [2.413953, 51.045013]}, "properties": {}}, {"type": "Feature", "geometry": {"type": "Point", "coordinates": [2.413309, 51.044632]}, "properties": {}}, {"type": "Feature", "geometry": {"type": "Point", "coordinates": [4.8, 52.65]}, "properties": {}}, {"type": "Feature", "geometry": {"type": "Point", "coordinates": [2.413336, 51.044659]}, "properties": {}}, {"type": "Feature", "geometry": {"type": "Point", "coordinates": [5.95, 51.95]}, "properties": {}}, {"type": "Feature", "geometry": {"type": "Point", "coordinates": [2.413225, 51.044529]}, "properties": {}}, {"type": "Feature", "geometry": {"type": "Point", "coordinates": [4.7, 51.6]}, "properties": {}}, {"type": "Feature", "geometry": {"type": "Point", "coordinates": [2.412257, 51.043465]}, "properties": {}}, {"type": "Feature", "geometry": {"type": "Point", "coordinates": [5.8, 50.75]}, "properties": {}}, {"type": "Feature", "geometry": {"type": "Point", "coordinates": [4.65, 51.75]}, "properties": {}}, {"type": "Feature", "geometry": {"type": "Point", "coordinates": [2.412289, 51.043507]}, "properties": {}}, {"type": "Feature", "geometry": {"type": "Point", "coordinates": [6.5, 53.2]}, "properties": {}}, {"type": "Feature", "geometry": {"type": "Point", "coordinates": [2.412606, 51.043869]}, "properties": {}}, {"type": "Feature", "geometry": {"type": "Point", "coordinates": [4.05, 51.35]}, "properties": {}}, {"type": "Feature", "geometry": {"type": "Point", "coordinates": [4.7, 52.6]}, "properties": {}}, {"type": "Feature", "geometry": {"type": "Point", "coordinates": [2.414183, 51.045135]}, "properties": {}}, {"type": "Feature", "geometry": {"type": "Point", "coordinates": [3.7, 51.25]}, "properties": {}}, {"type": "Feature", "geometry": {"type": "Point", "coordinates": [5.7, 50.75]}, "properties": {}}, {"type": "Feature", "geometry": {"type": "Point", "coordinates": [5.85, 51.75]}, "properties": {}}, {"type": "Feature", "geometry": {"type": "Point", "coordinates": [2.413133, 51.044441]}, "properties": {}}, {"type": "Feature", "geometry": {"type": "Point", "coordinates": [6.909396, 51.439304]}, "properties": {}}, {"type": "Feature", "geometry": {"type": "Point", "coordinates": [2.414008, 51.045052]}, "properties": {}}, {"type": "Feature", "geometry": {"type": "Point", "coordinates": [5.3, 51.45]}, "properties": {}}, {"type": "Feature", "geometry": {"type": "Point", "coordinates": [2.413539, 51.044739]}, "properties": {}}, {"type": "Feature", "geometry": {"type": "Point", "coordinates": [2.413401, 51.044647]}, "properties": {}}, {"type": "Feature", "geometry": {"type": "Point", "coordinates": [6.15, 51.35]}, "properties": {}}, {"type": "Feature", "geometry": {"type": "Point", "coordinates": [6.3, 52.05]}, "properties": {}}, {"type": "Feature", "geometry": {"type": "Point", "coordinates": [4.85, 51.8]}, "properties": {}}, {"type": "Feature", "geometry": {"type": "Point", "coordinates": [3.65, 51.45]}, "properties": {}}, {"type": "Feature", "geometry": {"type": "Point", "coordinates": [6.3, 51.95]}, "properties": {}}, {"type": "Feature", "geometry": {"type": "Point", "coordinates": [6.3, 52.05]}, "properties": {}}, {"type": "Feature", "geometry": {"type": "Point", "coordinates": [7.1, 52.95]}, "properties": {}}, {"type": "Feature", "geometry": {"type": "Point", "coordinates": [4.6, 51.85]}, "properties": {}}, {"type": "Feature", "geometry": {"type": "Point", "coordinates": [4.05, 51.3]}, "properties": {}}, {"type": "Feature", "geometry": {"type": "Point", "coordinates": [2.413595, 51.044765]}, "properties": {}}, {"type": "Feature", "geometry": {"type": "Point", "coordinates": [4.8, 52.3]}, "properties": {}}, {"type": "Feature", "geometry": {"type": "Point", "coordinates": [2.411874, 51.042999]}, "properties": {}}, {"type": "Feature", "geometry": {"type": "Point", "coordinates": [6.0, 50.75]}, "properties": {}}, {"type": "Feature", "geometry": {"type": "Point", "coordinates": [4.95, 51.8]}, "properties": {}}, {"type": "Feature", "geometry": {"type": "Point", "coordinates": [4.35, 51.9]}, "properties": {}}, {"type": "Feature", "geometry": {"type": "Point", "coordinates": [4.75, 52.5]}, "properties": {}}, {"type": "Feature", "geometry": {"type": "Point", "coordinates": [2.414376, 51.045227]}, "properties": {}}, {"type": "Feature", "geometry": {"type": "Point", "coordinates": [5.15, 51.75]}, "properties": {}}, {"type": "Feature", "geometry": {"type": "Point", "coordinates": [2.413853, 51.044941]}, "properties": {}}, {"type": "Feature", "geometry": {"type": "Point", "coordinates": [5.6, 52.25]}, "properties": {}}, {"type": "Feature", "geometry": {"type": "Point", "coordinates": [2.413616, 51.044785]}, "properties": {}}, {"type": "Feature", "geometry": {"type": "Point", "coordinates": [6.75, 51.95]}, "properties": {}}, {"type": "Feature", "geometry": {"type": "Point", "coordinates": [2.413767, 51.044933]}, "properties": {}}, {"type": "Feature", "geometry": {"type": "Point", "coordinates": [3.85, 51.45]}, "properties": {}}, {"type": "Feature", "geometry": {"type": "Point", "coordinates": [5.15, 52.25]}, "properties": {}}, {"type": "Feature", "geometry": {"type": "Point", "coordinates": [3.75, 51.7]}, "properties": {}}, {"type": "Feature", "geometry": {"type": "Point", "coordinates": [2.414688, 51.045433]}, "properties": {}}, {"type": "Feature", "geometry": {"type": "Point", "coordinates": [2.412602, 51.043907]}, "properties": {}}, {"type": "Feature", "geometry": {"type": "Point", "coordinates": [6.35, 52.0]}, "properties": {}}, {"type": "Feature", "geometry": {"type": "Point", "coordinates": [2.40036, 51.03381]}, "properties": {}}, {"type": "Feature", "geometry": {"type": "Point", "coordinates": [2.413455, 51.044678]}, "properties": {}}, {"type": "Feature", "geometry": {"type": "Point", "coordinates": [2.399195, 51.033504]}, "properties": {}}, {"type": "Feature", "geometry": {"type": "Point", "coordinates": [4.95, 52.3]}, "properties": {}}, {"type": "Feature", "geometry": {"type": "Point", "coordinates": [4.0, 51.25]}, "properties": {}}, {"type": "Feature", "geometry": {"type": "Point", "coordinates": [5.5, 52.3]}, "properties": {}}, {"type": "Feature", "geometry": {"type": "Point", "coordinates": [5.8, 50.85]}, "properties": {}}, {"type": "Feature", "geometry": {"type": "Point", "coordinates": [5.15, 52.05]}, "properties": {}}, {"type": "Feature", "geometry": {"type": "Point", "coordinates": [2.400425, 51.033829]}, "properties": {}}, {"type": "Feature", "geometry": {"type": "Point", "coordinates": [4.45, 51.5]}, "properties": {}}, {"type": "Feature", "geometry": {"type": "Point", "coordinates": [2.412778, 51.044106]}, "properties": {}}, {"type": "Feature", "geometry": {"type": "Point", "coordinates": [6.3, 51.95]}, "properties": {}}, {"type": "Feature", "geometry": {"type": "Point", "coordinates": [2.414456, 51.045296]}, "properties": {}}, {"type": "Feature", "geometry": {"type": "Point", "coordinates": [2.399168, 51.033504]}, "properties": {}}, {"type": "Feature", "geometry": {"type": "Point", "coordinates": [4.8, 52.3]}, "properties": {}}, {"type": "Feature", "geometry": {"type": "Point", "coordinates": [6.15, 52.1]}, "properties": {}}, {"type": "Feature", "geometry": {"type": "Point", "coordinates": [2.411786, 51.043026]}, "properties": {}}, {"type": "Feature", "geometry": {"type": "Point", "coordinates": [4.7, 52.6]}, "properties": {}}, {"type": "Feature", "geometry": {"type": "Point", "coordinates": [4.2, 52.0]}, "properties": {}}, {"type": "Feature", "geometry": {"type": "Point", "coordinates": [5.95, 50.9]}, "properties": {}}, {"type": "Feature", "geometry": {"type": "Point", "coordinates": [2.413745, 51.044907]}, "properties": {}}, {"type": "Feature", "geometry": {"type": "Point", "coordinates": [5.65, 51.85]}, "properties": {}}, {"type": "Feature", "geometry": {"type": "Point", "coordinates": [2.414454, 51.045288]}, "properties": {}}, {"type": "Feature", "geometry": {"type": "Point", "coordinates": [4.1054, 51.00797]}, "properties": {}}, {"type": "Feature", "geometry": {"type": "Point", "coordinates": [8.459278, 49.319607]}, "properties": {}}, {"type": "Feature", "geometry": {"type": "Point", "coordinates": [7.669782, 51.970528]}, "properties": {}}, {"type": "Feature", "geometry": {"type": "Point", "coordinates": [8.621178, 49.326931]}, "properties": {}}, {"type": "Feature", "geometry": {"type": "Point", "coordinates": [7.035477, 51.487621]}, "properties": {}}, {"type": "Feature", "geometry": {"type": "Point", "coordinates": [8.428552, 49.829575]}, "properties": {}}, {"type": "Feature", "geometry": {"type": "Point", "coordinates": [7.61507, 48.068501]}, "properties": {}}, {"type": "Feature", "geometry": {"type": "Point", "coordinates": [-1.836303, 52.095161]}, "properties": {}}, {"type": "Feature", "geometry": {"type": "Point", "coordinates": [-0.126637, 48.743144]}, "properties": {}}, {"type": "Feature", "geometry": {"type": "Point", "coordinates": [-3.245805, 51.524595]}, "properties": {}}, {"type": "Feature", "geometry": {"type": "Point", "coordinates": [-1.584891, 51.77953]}, "properties": {}}, {"type": "Feature", "geometry": {"type": "Point", "coordinates": [-0.203461, 51.660134]}, "properties": {}}, {"type": "Feature", "geometry": {"type": "Point", "coordinates": [-2.203395, 51.430453]}, "properties": {}}, {"type": "Feature", "geometry": {"type": "Point", "coordinates": [-3.608149, 50.582162]}, "properties": {}}, {"type": "Feature", "geometry": {"type": "Point", "coordinates": [-3.203367, 51.497555]}, "properties": {}}, {"type": "Feature", "geometry": {"type": "Point", "coordinates": [-0.244362, 51.491973]}, "properties": {}}, {"type": "Feature", "geometry": {"type": "Point", "coordinates": [-1.835692, 52.098428]}, "properties": {}}, {"type": "Feature", "geometry": {"type": "Point", "coordinates": [18.191516, 46.106056]}, "properties": {}}, {"type": "Feature", "geometry": {"type": "Point", "coordinates": [-3.19733, 51.496622]}, "properties": {}}, {"type": "Feature", "geometry": {"type": "Point", "coordinates": [19.053247, 47.979603]}, "properties": {}}, {"type": "Feature", "geometry": {"type": "Point", "coordinates": [-1.642506, 48.130364]}, "properties": {}}, {"type": "Feature", "geometry": {"type": "Point", "coordinates": [3.51274, 43.65258]}, "properties": {}}, {"type": "Feature", "geometry": {"type": "Point", "coordinates": [-0.544866, 51.307056]}, "properties": {}}, {"type": "Feature", "geometry": {"type": "Point", "coordinates": [16.277201, 48.239885]}, "properties": {}}, {"type": "Feature", "geometry": {"type": "Point", "coordinates": [-0.293904, 46.323947]}, "properties": {}}, {"type": "Feature", "geometry": {"type": "Point", "coordinates": [-0.078522, 51.550585]}, "properties": {}}, {"type": "Feature", "geometry": {"type": "Point", "coordinates": [6.749088, 51.256552]}, "properties": {}}, {"type": "Feature", "geometry": {"type": "Point", "coordinates": [-0.51683, 47.53516]}, "properties": {}}, {"type": "Feature", "geometry": {"type": "Point", "coordinates": [-0.080325, 51.554708]}, "properties": {}}, {"type": "Feature", "geometry": {"type": "Point", "coordinates": [-1.3071, 51.753124]}, "properties": {}}, {"type": "Feature", "geometry": {"type": "Point", "coordinates": [-0.203618, 51.660252]}, "properties": {}}, {"type": "Feature", "geometry": {"type": "Point", "coordinates": [-0.292854, 51.386698]}, "properties": {}}, {"type": "Feature", "geometry": {"type": "Point", "coordinates": [3.377807, 48.774488]}, "properties": {}}, {"type": "Feature", "geometry": {"type": "Point", "coordinates": [16.428609, 48.215232]}, "properties": {}}, {"type": "Feature", "geometry": {"type": "Point", "coordinates": [-0.121457, 51.577455]}, "properties": {}}, {"type": "Feature", "geometry": {"type": "Point", "coordinates": [4.386465, 52.086225]}, "properties": {}}, {"type": "Feature", "geometry": {"type": "Point", "coordinates": [-0.014419, 51.491825]}, "properties": {}}, {"type": "Feature", "geometry": {"type": "Point", "coordinates": [19.047911, 47.982187]}, "properties": {}}, {"type": "Feature", "geometry": {"type": "Point", "coordinates": [2.240181, 48.520592]}, "properties": {}}, {"type": "Feature", "geometry": {"type": "Point", "coordinates": [3.203964, 48.911604]}, "properties": {}}, {"type": "Feature", "geometry": {"type": "Point", "coordinates": [-2.47216, 53.496883]}, "properties": {}}, {"type": "Feature", "geometry": {"type": "Point", "coordinates": [10.770671, 43.655638]}, "properties": {}}, {"type": "Feature", "geometry": {"type": "Point", "coordinates": [9.956398, 51.529875]}, "properties": {}}]}