{"type": "FeatureCollection", "name": "Boswellia", "features": [{"type": "Feature", "geometry": {"type": "Point", "coordinates": [53.788373, 16.850349]}, "properties": {}}, {"type": "Feature", "geometry": {"type": "Point", "coordinates": [73.823253, 18.516775]}, "properties": {}}, {"type": "Feature", "geometry": {"type": "Point", "coordinates": [53.64091, 16.947163]}, "properties": {}}, {"type": "Feature", "geometry": {"type": "Point", "coordinates": [53.695057, 16.835348]}, "properties": {}}, {"type": "Feature", "geometry": {"type": "Point", "coordinates": [73.817303, 18.529444]}, "properties": {}}, {"type": "Feature", "geometry": {"type": "Point", "coordinates": [75.725519, 24.97991]}, "properties": {}}, {"type": "Feature", "geometry": {"type": "Point", "coordinates": [76.928398, 20.422287]}, "properties": {}}, {"type": "Feature", "geometry": {"type": "Point", "coordinates": [75.689887, 25.001632]}, "properties": {}}, {"type": "Feature", "geometry": {"type": "Point", "coordinates": [73.017301, 26.304182]}, "properties": {}}, {"type": "Feature", "geometry": {"type": "Point", "coordinates": [75.694986, 25.021905]}, "properties": {}}, {"type": "Feature", "geometry": {"type": "Point", "coordinates": [70.579697, 21.224067]}, "properties": {}}, {"type": "Feature", "geometry": {"type": "Point", "coordinates": [75.595506, 24.931433]}, "properties": {}}, {"type": "Feature", "geometry": {"type": "Point", "coordinates": [54.231792, 12.599828]}, "properties": {}}, {"type": "Feature", "geometry": {"type": "Point", "coordinates": [73.788451, 18.553281]}, "properties": {}}, {"type": "Feature", "geometry": {"type": "Point", "coordinates": [78.201175, 17.313439]}, "properties": {}}, {"type": "Feature", "geometry": {"type": "Point", "coordinates": [78.205567, 17.314801]}, "properties": {}}, {"type": "Feature", "geometry": {"type": "Point", "coordinates": [74.517294, 26.526629]}, "properties": {}}, {"type": "Feature", "geometry": {"type": "Point", "coordinates": [75.685023, 24.980999]}, "properties": {}}, {"type": "Feature", "geometry": {"type": "Point", "coordinates": [78.201831, 17.313609]}, "properties": {}}, {"type": "Feature", "geometry": {"type": "Point", "coordinates": [78.200572, 17.312978]}, "properties": {}}, {"type": "Feature", "geometry": {"type": "Point", "coordinates": [77.11207, 28.482351]}, "properties": {}}, {"type": "Feature", "geometry": {"type": "Point", "coordinates": [73.814695, 18.526527]}, "properties": {}}, {"type": "Feature", "geometry": {"type": "Point", "coordinates": [75.719159, 25.048014]}, "properties": {}}, {"type": "Feature", "geometry": {"type": "Point", "coordinates": [75.682586, 24.982817]}, "properties": {}}, {"type": "Feature", "geometry": {"type": "Point", "coordinates": [54.041223, 17.098424]}, "properties": {}}, {"type": "Feature", "geometry": {"type": "Point", "coordinates": [53.98209, 17.090969]}, "properties": {}}, {"type": "Feature", "geometry": {"type": "Point", "coordinates": [54.097641, 12.588983]}, "properties": {}}, {"type": "Feature", "geometry": {"type": "Point", "coordinates": [54.087297, 12.599516]}, "properties": {}}, {"type": "Feature", "geometry": {"type": "Point", "coordinates": [54.186022, 12.447256]}, "properties": {}}, {"type": "Feature", "geometry": {"type": "Point", "coordinates": [54.023525, 12.440913]}, "properties": {}}, {"type": "Feature", "geometry": {"type": "Point", "coordinates": [54.398677, 12.424237]}, "properties": {}}, {"type": "Feature", "geometry": {"type": "Point", "coordinates": [54.191984, 12.51429]}, "properties": {}}, {"type": "Feature", "geometry": {"type": "Point", "coordinates": [54.318665, 12.509036]}, "properties": {}}, {"type": "Feature", "geometry": {"type": "Point", "coordinates": [54.257513, 12.569521]}, "properties": {}}, {"type": "Feature", "geometry": {"type": "Point", "coordinates": [53.482631, 12.796009]}, "properties": {}}, {"type": "Feature", "geometry": {"type": "Point", "coordinates": [59.122037, 23.055972]}, "properties": {}}, {"type": "Feature", "geometry": {"type": "Point", "coordinates": [70.761108, 21.010928]}, "properties": {}}, {"type": "Feature", "geometry": {"type": "Point", "coordinates": [70.773803, 21.020128]}, "properties": {}}, {"type": "Feature", "geometry": {"type": "Point", "coordinates": [54.338551, 12.462814]}, "properties": {}}, {"type": "Feature", "geometry": {"type": "Point", "coordinates": [54.239681, 12.513231]}, "properties": {}}, {"type": "Feature", "geometry": {"type": "Point", "coordinates": [54.117997, 12.409596]}, "properties": {}}, {"type": "Feature", "geometry": {"type": "Point", "coordinates": [53.48533, 12.787745]}, "properties": {}}, {"type": "Feature", "geometry": {"type": "Point", "coordinates": [53.570772, 12.636703]}, "properties": {}}, {"type": "Feature", "geometry": {"type": "Point", "coordinates": [73.017248, 26.304157]}, "properties": {}}, {"type": "Feature", "geometry": {"type": "Point", "coordinates": [53.56068, 12.638832]}, "properties": {}}, {"type": "Feature", "geometry": {"type": "Point", "coordinates": [53.996397, 12.647375]}, "properties": {}}, {"type": "Feature", "geometry": {"type": "Point", "coordinates": [53.574642, 12.637134]}, "properties": {}}, {"type": "Feature", "geometry": {"type": "Point", "coordinates": [53.885963, 12.7275]}, "properties": {}}, {"type": "Feature", "geometry": {"type": "Point", "coordinates": [54.072293, 12.774084]}, "properties": {}}, {"type": "Feature", "geometry": {"type": "Point", "coordinates": [53.571904, 12.652884]}, "properties": {}}, {"type": "Feature", "geometry": {"type": "Point", "coordinates": [75.36493, 24.78822]}, "properties": {}}, {"type": "Feature", "geometry": {"type": "Point", "coordinates": [75.947461, 18.309445]}, "properties": {}}, {"type": "Feature", "geometry": {"type": "Point", "coordinates": [54.101013, 12.507124]}, "properties": {}}, {"type": "Feature", "geometry": {"type": "Point", "coordinates": [54.044393, 12.556592]}, "properties": {}}, {"type": "Feature", "geometry": {"type": "Point", "coordinates": [75.567677, 24.89699]}, "properties": {}}, {"type": "Feature", "geometry": {"type": "Point", "coordinates": [75.530833, 24.92906]}, "properties": {}}, {"type": "Feature", "geometry": {"type": "Point", "coordinates": [75.567677, 24.89699]}, "properties": {}}, {"type": "Feature", "geometry": {"type": "Point", "coordinates": [75.567677, 24.89699]}, "properties": {}}, {"type": "Feature", "geometry": {"type": "Point", "coordinates": [54.32685, 12.47311]}, "properties": {}}, {"type": "Feature", "geometry": {"type": "Point", "coordinates": [54.32685, 12.47311]}, "properties": {}}, {"type": "Feature", "geometry": {"type": "Point", "coordinates": [75.451679, 24.86529]}, "properties": {}}, {"type": "Feature", "geometry": {"type": "Point", "coordinates": [75.372204, 24.788341]}, "properties": {}}, {"type": "Feature", "geometry": {"type": "Point", "coordinates": [75.567677, 24.89699]}, "properties": {}}, {"type": "Feature", "geometry": {"type": "Point", "coordinates": [75.567677, 24.89699]}, "properties": {}}, {"type": "Feature", "geometry": {"type": "Point", "coordinates": [75.567677, 24.89699]}, "properties": {}}, {"type": "Feature", "geometry": {"type": "Point", "coordinates": [75.567677, 24.89699]}, "properties": {}}, {"type": "Feature", "geometry": {"type": "Point", "coordinates": [75.947461, 18.309445]}, "properties": {}}, {"type": "Feature", "geometry": {"type": "Point", "coordinates": [75.97142, 20.538139]}, "properties": {}}, {"type": "Feature", "geometry": {"type": "Point", "coordinates": [77.845433, 17.316345]}, "properties": {}}, {"type": "Feature", "geometry": {"type": "Point", "coordinates": [80.064249, 23.179362]}, "properties": {}}, {"type": "Feature", "geometry": {"type": "Point", "coordinates": [77.111785, 28.485609]}, "properties": {}}, {"type": "Feature", "geometry": {"type": "Point", "coordinates": [54.134944, 17.009056]}, "properties": {}}, {"type": "Feature", "geometry": {"type": "Point", "coordinates": [71.125307, 22.242527]}, "properties": {}}, {"type": "Feature", "geometry": {"type": "Point", "coordinates": [54.285018, 12.576304]}, "properties": {}}, {"type": "Feature", "geometry": {"type": "Point", "coordinates": [54.190555, 12.534877]}, "properties": {}}, {"type": "Feature", "geometry": {"type": "Point", "coordinates": [54.15623, 12.467916]}, "properties": {}}, {"type": "Feature", "geometry": {"type": "Point", "coordinates": [54.328228, 12.524557]}, "properties": {}}, {"type": "Feature", "geometry": {"type": "Point", "coordinates": [54.174401, 12.500672]}, "properties": {}}, {"type": "Feature", "geometry": {"type": "Point", "coordinates": [53.574222, 12.728991]}, "properties": {}}, {"type": "Feature", "geometry": {"type": "Point", "coordinates": [54.045695, 12.714187]}, "properties": {}}, {"type": "Feature", "geometry": {"type": "Point", "coordinates": [54.041323, 17.360161]}, "properties": {}}, {"type": "Feature", "geometry": {"type": "Point", "coordinates": [54.381147, 12.443631]}, "properties": {}}, {"type": "Feature", "geometry": {"type": "Point", "coordinates": [54.264315, 12.49262]}, "properties": {}}, {"type": "Feature", "geometry": {"type": "Point", "coordinates": [75.178167, 27.498617]}, "properties": {}}, {"type": "Feature", "geometry": {"type": "Point", "coordinates": [53.823028, 12.768889]}, "properties": {}}, {"type": "Feature", "geometry": {"type": "Point", "coordinates": [73.806398, 18.526304]}, "properties": {}}, {"type": "Feature", "geometry": {"type": "Point", "coordinates": [77.112103, 28.482479]}, "properties": {}}, {"type": "Feature", "geometry": {"type": "Point", "coordinates": [77.112134, 28.482448]}, "properties": {}}, {"type": "Feature", "geometry": {"type": "Point", "coordinates": [77.112224, 28.4826]}, "properties": {}}, {"type": "Feature", "geometry": {"type": "Point", "coordinates": [77.112149, 28.482431]}, "properties": {}}, {"type": "Feature", "geometry": {"type": "Point", "coordinates": [77.112097, 28.482449]}, "properties": {}}, {"type": "Feature", "geometry": {"type": "Point", "coordinates": [77.112267, 28.483]}, "properties": {}}, {"type": "Feature", "geometry": {"type": "Point", "coordinates": [77.112233, 28.482546]}, "properties": {}}, {"type": "Feature", "geometry": {"type": "Point", "coordinates": [77.112297, 28.483027]}, "properties": {}}, {"type": "Feature", "geometry": {"type": "Point", "coordinates": [77.112056, 28.482394]}, "properties": {}}, {"type": "Feature", "geometry": {"type": "Point", "coordinates": [78.725905, 15.362508]}, "properties": {}}, {"type": "Feature", "geometry": {"type": "Point", "coordinates": [75.180676, 20.365409]}, "properties": {}}, {"type": "Feature", "geometry": {"type": "Point", "coordinates": [78.725808, 15.362058]}, "properties": {}}, {"type": "Feature", "geometry": {"type": "Point", "coordinates": [75.180676, 20.365409]}, "properties": {}}, {"type": "Feature", "geometry": {"type": "Point", "coordinates": [75.180676, 20.365409]}, "properties": {}}, {"type": "Feature", "geometry": {"type": "Point", "coordinates": [76.54112, 21.270833]}, "properties": {}}, {"type": "Feature", "geometry": {"type": "Point", "coordinates": [75.533723, 24.901524]}, "properties": {}}, {"type": "Feature", "geometry": {"type": "Point", "coordinates": [76.596875, 21.270735]}, "properties": {}}, {"type": "Feature", "geometry": {"type": "Point", "coordinates": [76.474198, 21.290649]}, "properties": {}}, {"type": "Feature", "geometry": {"type": "Point", "coordinates": [75.516347, 24.916614]}, "properties": {}}, {"type": "Feature", "geometry": {"type": "Point", "coordinates": [75.533723, 24.901524]}, "properties": {}}, {"type": "Feature", "geometry": {"type": "Point", "coordinates": [75.516347, 24.916614]}, "properties": {}}, {"type": "Feature", "geometry": {"type": "Point", "coordinates": [76.57402, 21.257751]}, "properties": {}}, {"type": "Feature", "geometry": {"type": "Point", "coordinates": [79.388367, 18.936136]}, "properties": {}}, {"type": "Feature", "geometry": {"type": "Point", "coordinates": [75.700207, 25.035295]}, "properties": {}}, {"type": "Feature", "geometry": {"type": "Point", "coordinates": [78.939865, 19.530772]}, "properties": {}}, {"type": "Feature", "geometry": {"type": "Point", "coordinates": [75.59198, 11.60156]}, "properties": {}}, {"type": "Feature", "geometry": {"type": "Point", "coordinates": [77.54739, 9.43757]}, "properties": {}}, {"type": "Feature", "geometry": {"type": "Point", "coordinates": [77.54722, 9.43709]}, "properties": {}}, {"type": "Feature", "geometry": {"type": "Point", "coordinates": [76.6786, 9.22499]}, "properties": {}}, {"type": "Feature", "geometry": {"type": "Point", "coordinates": [70.45865, 21.50999]}, "properties": {}}, {"type": "Feature", "geometry": {"type": "Point", "coordinates": [80.77856, 21.20948]}, "properties": {}}, {"type": "Feature", "geometry": {"type": "Point", "coordinates": [76.37594, 10.77667]}, "properties": {}}, {"type": "Feature", "geometry": {"type": "Point", "coordinates": [77.54739, 9.43757]}, "properties": {}}, {"type": "Feature", "geometry": {"type": "Point", "coordinates": [77.54731, 9.43725]}, "properties": {}}, {"type": "Feature", "geometry": {"type": "Point", "coordinates": [76.95748, 10.97667]}, "properties": {}}, {"type": "Feature", "geometry": {"type": "Point", "coordinates": [77.54722, 9.43709]}, "properties": {}}, {"type": "Feature", "geometry": {"type": "Point", "coordinates": [75.59198, 11.60156]}, "properties": {}}, {"type": "Feature", "geometry": {"type": "Point", "coordinates": [76.0885, 11.636]}, "properties": {}}, {"type": "Feature", "geometry": {"type": "Point", "coordinates": [4.729492, 10.466458]}, "properties": {}}, {"type": "Feature", "geometry": {"type": "Point", "coordinates": [76.42323, 9.37774]}, "properties": {}}, {"type": "Feature", "geometry": {"type": "Point", "coordinates": [76.42323, 9.37774]}, "properties": {}}, {"type": "Feature", "geometry": {"type": "Point", "coordinates": [76.42323, 9.37774]}, "properties": {}}, {"type": "Feature", "geometry": {"type": "Point", "coordinates": [75.790743, 25.114816]}, "properties": {}}, {"type": "Feature", "geometry": {"type": "Point", "coordinates": [53.626078, 16.898609]}, "properties": {}}, {"type": "Feature", "geometry": {"type": "Point", "coordinates": [53.663476, 16.892316]}, "properties": {}}, {"type": "Feature", "geometry": {"type": "Point", "coordinates": [53.74635, 16.956309]}, "properties": {}}, {"type": "Feature", "geometry": {"type": "Point", "coordinates": [75.726467, 25.117864]}, "properties": {}}, {"type": "Feature", "geometry": {"type": "Point", "coordinates": [55.232538, 17.798627]}, "properties": {}}, {"type": "Feature", "geometry": {"type": "Point", "coordinates": [75.790379, 25.114781]}, "properties": {}}, {"type": "Feature", "geometry": {"type": "Point", "coordinates": [75.790379, 25.114781]}, "properties": {}}, {"type": "Feature", "geometry": {"type": "Point", "coordinates": [54.114701, 12.414322]}, "properties": {}}, {"type": "Feature", "geometry": {"type": "Point", "coordinates": [53.897378, 17.320335]}, "properties": {}}, {"type": "Feature", "geometry": {"type": "Point", "coordinates": [54.126298, 12.596513]}, "properties": {}}, {"type": "Feature", "geometry": {"type": "Point", "coordinates": [54.120163, 12.574974]}, "properties": {}}, {"type": "Feature", "geometry": {"type": "Point", "coordinates": [54.282819, 12.495713]}, "properties": {}}, {"type": "Feature", "geometry": {"type": "Point", "coordinates": [53.973209, 17.309141]}, "properties": {}}, {"type": "Feature", "geometry": {"type": "Point", "coordinates": [53.909753, 17.295224]}, "properties": {}}, {"type": "Feature", "geometry": {"type": "Point", "coordinates": [53.831557, 16.8165]}, "properties": {}}, {"type": "Feature", "geometry": {"type": "Point", "coordinates": [54.138863, 17.009281]}, "properties": {}}, {"type": "Feature", "geometry": {"type": "Point", "coordinates": [53.25127, 16.753183]}, "properties": {}}, {"type": "Feature", "geometry": {"type": "Point", "coordinates": [53.398373, 16.645896]}, "properties": {}}, {"type": "Feature", "geometry": {"type": "Point", "coordinates": [53.84293, 16.880877]}, "properties": {}}, {"type": "Feature", "geometry": {"type": "Point", "coordinates": [76.711591, 24.623003]}, "properties": {}}, {"type": "Feature", "geometry": {"type": "Point", "coordinates": [53.613985, 16.901219]}, "properties": {}}, {"type": "Feature", "geometry": {"type": "Point", "coordinates": [54.252686, 12.41351]}, "properties": {}}, {"type": "Feature", "geometry": {"type": "Point", "coordinates": [54.239763, 12.535112]}, "properties": {}}, {"type": "Feature", "geometry": {"type": "Point", "coordinates": [76.761613, 24.542474]}, "properties": {}}, {"type": "Feature", "geometry": {"type": "Point", "coordinates": [54.300517, 12.485687]}, "properties": {}}, {"type": "Feature", "geometry": {"type": "Point", "coordinates": [54.163056, 12.501524]}, "properties": {}}, {"type": "Feature", "geometry": {"type": "Point", "coordinates": [54.026823, 12.589912]}, "properties": {}}, {"type": "Feature", "geometry": {"type": "Point", "coordinates": [53.594535, 12.628968]}, "properties": {}}, {"type": "Feature", "geometry": {"type": "Point", "coordinates": [54.096448, 12.404863]}, "properties": {}}, {"type": "Feature", "geometry": {"type": "Point", "coordinates": [54.066621, 12.529705]}, "properties": {}}, {"type": "Feature", "geometry": {"type": "Point", "coordinates": [54.168706, 17.350259]}, "properties": {}}, {"type": "Feature", "geometry": {"type": "Point", "coordinates": [53.828277, 12.748806]}, "properties": {}}, {"type": "Feature", "geometry": {"type": "Point", "coordinates": [54.343771, 12.569181]}, "properties": {}}, {"type": "Feature", "geometry": {"type": "Point", "coordinates": [54.222066, 12.420881]}, "properties": {}}, {"type": "Feature", "geometry": {"type": "Point", "coordinates": [55.098159, 17.116375]}, "properties": {}}, {"type": "Feature", "geometry": {"type": "Point", "coordinates": [54.158394, 12.50658]}, "properties": {}}, {"type": "Feature", "geometry": {"type": "Point", "coordinates": [54.19608, 12.587108]}, "properties": {}}, {"type": "Feature", "geometry": {"type": "Point", "coordinates": [54.208995, 12.591397]}, "properties": {}}, {"type": "Feature", "geometry": {"type": "Point", "coordinates": [54.223878, 12.458767]}, "properties": {}}, {"type": "Feature", "geometry": {"type": "Point", "coordinates": [54.303669, 12.797043]}, "properties": {}}, {"type": "Feature", "geometry": {"type": "Point", "coordinates": [76.409369, 27.316411]}, "properties": {}}, {"type": "Feature", "geometry": {"type": "Point", "coordinates": [76.409407, 27.317665]}, "properties": {}}, {"type": "Feature", "geometry": {"type": "Point", "coordinates": [9.926056, 10.391573]}, "properties": {}}, {"type": "Feature", "geometry": {"type": "Point", "coordinates": [54.006876, 12.499336]}, "properties": {}}, {"type": "Feature", "geometry": {"type": "Point", "coordinates": [54.173545, 12.412996]}, "properties": {}}, {"type": "Feature", "geometry": {"type": "Point", "coordinates": [54.368351, 12.436448]}, "properties": {}}, {"type": "Feature", "geometry": {"type": "Point", "coordinates": [54.086862, 12.529785]}, "properties": {}}, {"type": "Feature", "geometry": {"type": "Point", "coordinates": [54.162225, 12.557388]}, "properties": {}}, {"type": "Feature", "geometry": {"type": "Point", "coordinates": [54.091792, 12.564202]}, "properties": {}}, {"type": "Feature", "geometry": {"type": "Point", "coordinates": [71.028358, 21.20578]}, "properties": {}}, {"type": "Feature", "geometry": {"type": "Point", "coordinates": [53.719259, 12.559863]}, "properties": {}}, {"type": "Feature", "geometry": {"type": "Point", "coordinates": [53.463133, 12.681836]}, "properties": {}}, {"type": "Feature", "geometry": {"type": "Point", "coordinates": [53.400999, 12.625842]}, "properties": {}}, {"type": "Feature", "geometry": {"type": "Point", "coordinates": [58.660741, 23.549135]}, "properties": {}}, {"type": "Feature", "geometry": {"type": "Point", "coordinates": [75.58973, 11.59534]}, "properties": {}}, {"type": "Feature", "geometry": {"type": "Point", "coordinates": [53.319733, 17.232775]}, "properties": {}}, {"type": "Feature", "geometry": {"type": "Point", "coordinates": [73.01673, 26.304825]}, "properties": {}}, {"type": "Feature", "geometry": {"type": "Point", "coordinates": [78.190732, 12.749457]}, "properties": {}}, {"type": "Feature", "geometry": {"type": "Point", "coordinates": [72.780389, 24.576743]}, "properties": {}}, {"type": "Feature", "geometry": {"type": "Point", "coordinates": [76.5738, 9.12986]}, "properties": {}}, {"type": "Feature", "geometry": {"type": "Point", "coordinates": [75.572299, 24.931664]}, "properties": {}}, {"type": "Feature", "geometry": {"type": "Point", "coordinates": [75.58139, 24.919088]}, "properties": {}}, {"type": "Feature", "geometry": {"type": "Point", "coordinates": [75.469495, 24.919225]}, "properties": {}}, {"type": "Feature", "geometry": {"type": "Point", "coordinates": [75.538043, 24.887289]}, "properties": {}}, {"type": "Feature", "geometry": {"type": "Point", "coordinates": [75.725382, 25.118067]}, "properties": {}}, {"type": "Feature", "geometry": {"type": "Point", "coordinates": [75.720466, 25.120094]}, "properties": {}}, {"type": "Feature", "geometry": {"type": "Point", "coordinates": [75.724972, 25.118203]}, "properties": {}}, {"type": "Feature", "geometry": {"type": "Point", "coordinates": [75.718893, 25.119345]}, "properties": {}}, {"type": "Feature", "geometry": {"type": "Point", "coordinates": [75.719888, 25.118347]}, "properties": {}}, {"type": "Feature", "geometry": {"type": "Point", "coordinates": [75.720033, 25.118453]}, "properties": {}}, {"type": "Feature", "geometry": {"type": "Point", "coordinates": [75.689409, 25.011669]}, "properties": {}}, {"type": "Feature", "geometry": {"type": "Point", "coordinates": [75.795553, 27.221293]}, "properties": {}}, {"type": "Feature", "geometry": {"type": "Point", "coordinates": [76.60205, 9.16191]}, "properties": {}}, {"type": "Feature", "geometry": {"type": "Point", "coordinates": [75.59262, 11.59846]}, "properties": {}}, {"type": "Feature", "geometry": {"type": "Point", "coordinates": [75.59245, 11.5977]}, "properties": {}}, {"type": "Feature", "geometry": {"type": "Point", "coordinates": [76.60421, 9.56182]}, "properties": {}}, {"type": "Feature", "geometry": {"type": "Point", "coordinates": [76.52215, 9.59157]}, "properties": {}}, {"type": "Feature", "geometry": {"type": "Point", "coordinates": [75.03054, 12.48222]}, "properties": {}}, {"type": "Feature", "geometry": {"type": "Point", "coordinates": [75.59262, 11.59846]}, "properties": {}}, {"type": "Feature", "geometry": {"type": "Point", "coordinates": [75.175127, 27.496119]}, "properties": {}}, {"type": "Feature", "geometry": {"type": "Point", "coordinates": [77.17679, 25.195011]}, "properties": {}}, {"type": "Feature", "geometry": {"type": "Point", "coordinates": [53.736643, 16.990169]}, "properties": {}}, {"type": "Feature", "geometry": {"type": "Point", "coordinates": [75.724489, 25.123015]}, "properties": {}}, {"type": "Feature", "geometry": {"type": "Point", "coordinates": [78.203794, 17.31214]}, "properties": {}}, {"type": "Feature", "geometry": {"type": "Point", "coordinates": [78.2062, 17.315303]}, "properties": {}}, {"type": "Feature", "geometry": {"type": "Point", "coordinates": [73.81477, 18.523838]}, "properties": {}}, {"type": "Feature", "geometry": {"type": "Point", "coordinates": [76.41216, 10.72684]}, "properties": {}}, {"type": "Feature", "geometry": {"type": "Point", "coordinates": [75.725314, 25.117898]}, "properties": {}}, {"type": "Feature", "geometry": {"type": "Point", "coordinates": [78.203794, 17.31214]}, "properties": {}}, {"type": "Feature", "geometry": {"type": "Point", "coordinates": [54.08686, 12.740322]}, "properties": {}}, {"type": "Feature", "geometry": {"type": "Point", "coordinates": [22.731665, 10.251438]}, "properties": {}}, {"type": "Feature", "geometry": {"type": "Point", "coordinates": [76.55231, 9.51171]}, "properties": {}}, {"type": "Feature", "geometry": {"type": "Point", "coordinates": [75.59262, 11.59846]}, "properties": {}}, {"type": "Feature", "geometry": {"type": "Point", "coordinates": [75.59114, 11.61386]}, "properties": {}}, {"type": "Feature", "geometry": {"type": "Point", "coordinates": [75.5909, 11.59816]}, "properties": {}}, {"type": "Feature", "geometry": {"type": "Point", "coordinates": [75.906016, 25.608705]}, "properties": {}}, {"type": "Feature", "geometry": {"type": "Point", "coordinates": [75.877978, 25.682847]}, "properties": {}}, {"type": "Feature", "geometry": {"type": "Point", "coordinates": [76.112606, 25.720833]}, "properties": {}}, {"type": "Feature", "geometry": {"type": "Point", "coordinates": [53.382325, 12.568712]}, "properties": {}}, {"type": "Feature", "geometry": {"type": "Point", "coordinates": [53.967753, 12.658493]}, "properties": {}}, {"type": "Feature", "geometry": {"type": "Point", "coordinates": [54.149253, 12.422188]}, "properties": {}}, {"type": "Feature", "geometry": {"type": "Point", "coordinates": [53.975841, 12.647182]}, "properties": {}}, {"type": "Feature", "geometry": {"type": "Point", "coordinates": [54.259365, 12.484356]}, "properties": {}}, {"type": "Feature", "geometry": {"type": "Point", "coordinates": [53.851122, 12.789097]}, "properties": {}}, {"type": "Feature", "geometry": {"type": "Point", "coordinates": [54.271675, 12.539725]}, "properties": {}}, {"type": "Feature", "geometry": {"type": "Point", "coordinates": [53.904683, 12.662017]}, "properties": {}}, {"type": "Feature", "geometry": {"type": "Point", "coordinates": [54.371665, 12.457541]}, "properties": {}}, {"type": "Feature", "geometry": {"type": "Point", "coordinates": [54.160475, 12.406887]}, "properties": {}}, {"type": "Feature", "geometry": {"type": "Point", "coordinates": [54.06028, 17.215613]}, "properties": {}}, {"type": "Feature", "geometry": {"type": "Point", "coordinates": [76.12443, 11.12884]}, "properties": {}}, {"type": "Feature", "geometry": {"type": "Point", "coordinates": [53.741171, 16.804835]}, "properties": {}}, {"type": "Feature", "geometry": {"type": "Point", "coordinates": [53.790225, 16.804199]}, "properties": {}}, {"type": "Feature", "geometry": {"type": "Point", "coordinates": [75.6822, 24.995728]}, "properties": {}}, {"type": "Feature", "geometry": {"type": "Point", "coordinates": [53.842646, 12.516673]}, "properties": {}}, {"type": "Feature", "geometry": {"type": "Point", "coordinates": [54.20767, 12.421598]}, "properties": {}}, {"type": "Feature", "geometry": {"type": "Point", "coordinates": [54.387857, 12.529209]}, "properties": {}}, {"type": "Feature", "geometry": {"type": "Point", "coordinates": [54.393767, 12.455548]}, "properties": {}}, {"type": "Feature", "geometry": {"type": "Point", "coordinates": [73.842984, 18.14582]}, "properties": {}}, {"type": "Feature", "geometry": {"type": "Point", "coordinates": [54.362183, 12.499852]}, "properties": {}}, {"type": "Feature", "geometry": {"type": "Point", "coordinates": [54.220575, 12.583312]}, "properties": {}}, {"type": "Feature", "geometry": {"type": "Point", "coordinates": [54.133975, 12.595205]}, "properties": {}}, {"type": "Feature", "geometry": {"type": "Point", "coordinates": [76.51913, 10.6246]}, "properties": {}}, {"type": "Feature", "geometry": {"type": "Point", "coordinates": [54.041897, 12.49191]}, "properties": {}}, {"type": "Feature", "geometry": {"type": "Point", "coordinates": [54.380155, 12.429522]}, "properties": {}}, {"type": "Feature", "geometry": {"type": "Point", "coordinates": [54.163435, 12.503903]}, "properties": {}}, {"type": "Feature", "geometry": {"type": "Point", "coordinates": [54.337192, 12.4764]}, "properties": {}}, {"type": "Feature", "geometry": {"type": "Point", "coordinates": [54.323002, 12.521418]}, "properties": {}}, {"type": "Feature", "geometry": {"type": "Point", "coordinates": [54.292304, 12.403831]}, "properties": {}}, {"type": "Feature", "geometry": {"type": "Point", "coordinates": [54.374761, 12.51116]}, "properties": {}}, {"type": "Feature", "geometry": {"type": "Point", "coordinates": [54.256341, 12.451259]}, "properties": {}}, {"type": "Feature", "geometry": {"type": "Point", "coordinates": [54.232829, 12.40605]}, "properties": {}}, {"type": "Feature", "geometry": {"type": "Point", "coordinates": [53.874094, 12.472553]}, "properties": {}}, {"type": "Feature", "geometry": {"type": "Point", "coordinates": [54.190795, 12.414875]}, "properties": {}}, {"type": "Feature", "geometry": {"type": "Point", "coordinates": [54.066206, 12.410378]}, "properties": {}}, {"type": "Feature", "geometry": {"type": "Point", "coordinates": [54.012267, 12.43909]}, "properties": {}}, {"type": "Feature", "geometry": {"type": "Point", "coordinates": [54.202291, 12.576382]}, "properties": {}}, {"type": "Feature", "geometry": {"type": "Point", "coordinates": [54.312763, 12.416284]}, "properties": {}}, {"type": "Feature", "geometry": {"type": "Point", "coordinates": [54.138176, 12.577253]}, "properties": {}}, {"type": "Feature", "geometry": {"type": "Point", "coordinates": [54.2137, 12.492177]}, "properties": {}}, {"type": "Feature", "geometry": {"type": "Point", "coordinates": [54.340934, 12.516086]}, "properties": {}}, {"type": "Feature", "geometry": {"type": "Point", "coordinates": [54.000142, 12.413414]}, "properties": {}}, {"type": "Feature", "geometry": {"type": "Point", "coordinates": [54.199404, 12.537898]}, "properties": {}}, {"type": "Feature", "geometry": {"type": "Point", "coordinates": [54.114456, 12.446423]}, "properties": {}}, {"type": "Feature", "geometry": {"type": "Point", "coordinates": [54.072357, 12.490982]}, "properties": {}}, {"type": "Feature", "geometry": {"type": "Point", "coordinates": [54.042554, 12.51827]}, "properties": {}}, {"type": "Feature", "geometry": {"type": "Point", "coordinates": [54.137883, 12.504357]}, "properties": {}}, {"type": "Feature", "geometry": {"type": "Point", "coordinates": [54.3902, 12.69913]}, "properties": {}}, {"type": "Feature", "geometry": {"type": "Point", "coordinates": [73.815385, 18.52549]}, "properties": {}}, {"type": "Feature", "geometry": {"type": "Point", "coordinates": [10.006581, 10.393512]}, "properties": {}}, {"type": "Feature", "geometry": {"type": "Point", "coordinates": [78.39836, 17.43686]}, "properties": {}}, {"type": "Feature", "geometry": {"type": "Point", "coordinates": [77.11158, 28.48178]}, "properties": {}}, {"type": "Feature", "geometry": {"type": "Point", "coordinates": [76.390773, 28.180622]}, "properties": {}}, {"type": "Feature", "geometry": {"type": "Point", "coordinates": [75.103955, 20.361195]}, "properties": {}}, {"type": "Feature", "geometry": {"type": "Point", "coordinates": [76.456227, 25.98709]}, "properties": {}}, {"type": "Feature", "geometry": {"type": "Point", "coordinates": [73.815224, 18.520922]}, "properties": {}}, {"type": "Feature", "geometry": {"type": "Point", "coordinates": [77.11158, 28.48178]}, "properties": {}}, {"type": "Feature", "geometry": {"type": "Point", "coordinates": [78.205081, 17.315018]}, "properties": {}}, {"type": "Feature", "geometry": {"type": "Point", "coordinates": [76.63561, 10.7328]}, "properties": {}}, {"type": "Feature", "geometry": {"type": "Point", "coordinates": [76.80927, 10.95745]}, "properties": {}}, {"type": "Feature", "geometry": {"type": "Point", "coordinates": [73.819395, 18.522558]}, "properties": {}}, {"type": "Feature", "geometry": {"type": "Point", "coordinates": [54.180855, 12.533662]}, "properties": {}}, {"type": "Feature", "geometry": {"type": "Point", "coordinates": [54.048382, 12.519533]}, "properties": {}}, {"type": "Feature", "geometry": {"type": "Point", "coordinates": [54.37271, 12.542393]}, "properties": {}}, {"type": "Feature", "geometry": {"type": "Point", "coordinates": [54.15979, 12.455249]}, "properties": {}}, {"type": "Feature", "geometry": {"type": "Point", "coordinates": [54.342872, 12.41678]}, "properties": {}}, {"type": "Feature", "geometry": {"type": "Point", "coordinates": [54.331254, 12.561819]}, "properties": {}}, {"type": "Feature", "geometry": {"type": "Point", "coordinates": [54.30056, 12.541685]}, "properties": {}}, {"type": "Feature", "geometry": {"type": "Point", "coordinates": [53.528876, 12.730862]}, "properties": {}}, {"type": "Feature", "geometry": {"type": "Point", "coordinates": [75.729674, 25.117314]}, "properties": {}}, {"type": "Feature", "geometry": {"type": "Point", "coordinates": [54.012508, 18.354845]}, "properties": {}}, {"type": "Feature", "geometry": {"type": "Point", "coordinates": [54.09304, 12.740439]}, "properties": {}}]}