{"type": "FeatureCollection", "name": "Ruta graveolens", "features": [{"type": "Feature", "geometry": {"type": "Point", "coordinates": [-3.465694, 50.581917]}, "properties": {}}, {"type": "Feature", "geometry": {"type": "Point", "coordinates": [-76.429743, 7.243243]}, "properties": {}}, {"type": "Feature", "geometry": {"type": "Point", "coordinates": [35.828791, 36.141945]}, "properties": {}}, {"type": "Feature", "geometry": {"type": "Point", "coordinates": [-97.642805, 30.289247]}, "properties": {}}, {"type": "Feature", "geometry": {"type": "Point", "coordinates": [113.555862, 22.139842]}, "properties": {}}, {"type": "Feature", "geometry": {"type": "Point", "coordinates": [9.368333, 45.832617]}, "properties": {}}, {"type": "Feature", "geometry": {"type": "Point", "coordinates": [3.2102, 51.18637]}, "properties": {}}, {"type": "Feature", "geometry": {"type": "Point", "coordinates": [3.20972, 51.18622]}, "properties": {}}, {"type": "Feature", "geometry": {"type": "Point", "coordinates": [4.43471, 51.17173]}, "properties": {}}, {"type": "Feature", "geometry": {"type": "Point", "coordinates": [-84.417282, 33.500843]}, "properties": {}}, {"type": "Feature", "geometry": {"type": "Point", "coordinates": [121.446113, 31.210947]}, "properties": {}}, {"type": "Feature", "geometry": {"type": "Point", "coordinates": [-72.63999, -38.731932]}, "properties": {}}, {"type": "Feature", "geometry": {"type": "Point", "coordinates": [9.379561, 45.828567]}, "properties": {}}, {"type": "Feature", "geometry": {"type": "Point", "coordinates": [-79.609513, -0.045675]}, "properties": {}}, {"type": "Feature", "geometry": {"type": "Point", "coordinates": [5.12462, 50.84105]}, "properties": {}}, {"type": "Feature", "geometry": {"type": "Point", "coordinates": [3.80394, 50.92903]}, "properties": {}}, {"type": "Feature", "geometry": {"type": "Point", "coordinates": [-78.615013, 0.24259]}, "properties": {}}, {"type": "Feature", "geometry": {"type": "Point", "coordinates": [-57.667512, -34.094451]}, "properties": {}}, {"type": "Feature", "geometry": {"type": "Point", "coordinates": [25.963724, 38.44371]}, "properties": {}}, {"type": "Feature", "geometry": {"type": "Point", "coordinates": [5.85, 51.8]}, "properties": {}}, {"type": "Feature", "geometry": {"type": "Point", "coordinates": [15.510283, 44.289367]}, "properties": {}}, {"type": "Feature", "geometry": {"type": "Point", "coordinates": [-60.372599, -5.124997]}, "properties": {}}, {"type": "Feature", "geometry": {"type": "Point", "coordinates": [113.55593, 22.139836]}, "properties": {}}, {"type": "Feature", "geometry": {"type": "Point", "coordinates": [8.953548, 45.890002]}, "properties": {}}, {"type": "Feature", "geometry": {"type": "Point", "coordinates": [3.72789, 51.04204]}, "properties": {}}, {"type": "Feature", "geometry": {"type": "Point", "coordinates": [-82.406709, 29.611975]}, "properties": {}}, {"type": "Feature", "geometry": {"type": "Point", "coordinates": [4.13811, 50.99892]}, "properties": {}}, {"type": "Feature", "geometry": {"type": "Point", "coordinates": [-35.40955, -6.813837]}, "properties": {}}, {"type": "Feature", "geometry": {"type": "Point", "coordinates": [4.77843, 51.18465]}, "properties": {}}, {"type": "Feature", "geometry": {"type": "Point", "coordinates": [3.71859, 51.04555]}, "properties": {}}, {"type": "Feature", "geometry": {"type": "Point", "coordinates": [4.73634, 51.17595]}, "properties": {}}, {"type": "Feature", "geometry": {"type": "Point", "coordinates": [3.06748, 51.08591]}, "properties": {}}, {"type": "Feature", "geometry": {"type": "Point", "coordinates": [4.39633, 51.21531]}, "properties": {}}, {"type": "Feature", "geometry": {"type": "Point", "coordinates": [-1.049387, 39.068112]}, "properties": {}}, {"type": "Feature", "geometry": {"type": "Point", "coordinates": [-78.667304, -0.842772]}, "properties": {}}, {"type": "Feature", "geometry": {"type": "Point", "coordinates": [12.785472, 46.828022]}, "properties": {}}, {"type": "Feature", "geometry": {"type": "Point", "coordinates": [4.55999, 50.98243]}, "properties": {}}, {"type": "Feature", "geometry": {"type": "Point", "coordinates": [4.78855, 50.98809]}, "properties": {}}, {"type": "Feature", "geometry": {"type": "Point", "coordinates": [4.58445, 51.29925]}, "properties": {}}, {"type": "Feature", "geometry": {"type": "Point", "coordinates": [9.078538, 48.922249]}, "properties": {}}, {"type": "Feature", "geometry": {"type": "Point", "coordinates": [-74.049294, 4.648371]}, "properties": {}}, {"type": "Feature", "geometry": {"type": "Point", "coordinates": [4.85, 52.35]}, "properties": {}}, {"type": "Feature", "geometry": {"type": "Point", "coordinates": [4.01565, 50.94634]}, "properties": {}}, {"type": "Feature", "geometry": {"type": "Point", "coordinates": [3.23779, 51.21487]}, "properties": {}}, {"type": "Feature", "geometry": {"type": "Point", "coordinates": [4.41385, 50.889]}, "properties": {}}, {"type": "Feature", "geometry": {"type": "Point", "coordinates": [4.7, 52.0]}, "properties": {}}, {"type": "Feature", "geometry": {"type": "Point", "coordinates": [-79.314951, -3.275075]}, "properties": {}}, {"type": "Feature", "geometry": {"type": "Point", "coordinates": [7.6047, 47.5581]}, "properties": {}}, {"type": "Feature", "geometry": {"type": "Point", "coordinates": [9.02044, 46.01794]}, "properties": {}}, {"type": "Feature", "geometry": {"type": "Point", "coordinates": [-40.702778, -13.402222]}, "properties": {}}, {"type": "Feature", "geometry": {"type": "Point", "coordinates": [13.638794, 37.388428]}, "properties": {}}, {"type": "Feature", "geometry": {"type": "Point", "coordinates": [7.595815, 47.577522]}, "properties": {}}, {"type": "Feature", "geometry": {"type": "Point", "coordinates": [5.110642, 44.009598]}, "properties": {}}, {"type": "Feature", "geometry": {"type": "Point", "coordinates": [153.418479, -28.616897]}, "properties": {}}, {"type": "Feature", "geometry": {"type": "Point", "coordinates": [-79.046197, -2.936342]}, "properties": {}}, {"type": "Feature", "geometry": {"type": "Point", "coordinates": [-78.658879, -1.665023]}, "properties": {}}, {"type": "Feature", "geometry": {"type": "Point", "coordinates": [5.95, 51.95]}, "properties": {}}, {"type": "Feature", "geometry": {"type": "Point", "coordinates": [9.02044, 46.01794]}, "properties": {}}, {"type": "Feature", "geometry": {"type": "Point", "coordinates": [-119.01124, 35.325591]}, "properties": {}}, {"type": "Feature", "geometry": {"type": "Point", "coordinates": [-0.373524, 39.492762]}, "properties": {}}, {"type": "Feature", "geometry": {"type": "Point", "coordinates": [2.441827, 48.839599]}, "properties": {}}, {"type": "Feature", "geometry": {"type": "Point", "coordinates": [-17.939816, 27.787188]}, "properties": {}}, {"type": "Feature", "geometry": {"type": "Point", "coordinates": [-74.094494, 4.701478]}, "properties": {}}, {"type": "Feature", "geometry": {"type": "Point", "coordinates": [7.01755, 46.20816]}, "properties": {}}, {"type": "Feature", "geometry": {"type": "Point", "coordinates": [-57.549572, -38.094551]}, "properties": {}}, {"type": "Feature", "geometry": {"type": "Point", "coordinates": [16.796633, 42.771437]}, "properties": {}}, {"type": "Feature", "geometry": {"type": "Point", "coordinates": [16.569351, 43.178118]}, "properties": {}}, {"type": "Feature", "geometry": {"type": "Point", "coordinates": [-78.232172, 0.304493]}, "properties": {}}, {"type": "Feature", "geometry": {"type": "Point", "coordinates": [-118.115698, 33.78123]}, "properties": {}}, {"type": "Feature", "geometry": {"type": "Point", "coordinates": [4.95, 52.35]}, "properties": {}}, {"type": "Feature", "geometry": {"type": "Point", "coordinates": [5.630032, 43.488966]}, "properties": {}}, {"type": "Feature", "geometry": {"type": "Point", "coordinates": [18.207001, 46.095958]}, "properties": {}}, {"type": "Feature", "geometry": {"type": "Point", "coordinates": [-38.801667, -12.07]}, "properties": {}}, {"type": "Feature", "geometry": {"type": "Point", "coordinates": [-116.154588, 33.549218]}, "properties": {}}, {"type": "Feature", "geometry": {"type": "Point", "coordinates": [-118.115698, 33.78123]}, "properties": {}}, {"type": "Feature", "geometry": {"type": "Point", "coordinates": [4.6, 52.45]}, "properties": {}}, {"type": "Feature", "geometry": {"type": "Point", "coordinates": [5.216633, 46.203945]}, "properties": {}}, {"type": "Feature", "geometry": {"type": "Point", "coordinates": [-2.358673, 47.290927]}, "properties": {}}, {"type": "Feature", "geometry": {"type": "Point", "coordinates": [6.05, 52.5]}, "properties": {}}, {"type": "Feature", "geometry": {"type": "Point", "coordinates": [10.358245, 45.522685]}, "properties": {}}, {"type": "Feature", "geometry": {"type": "Point", "coordinates": [-1.314484, 43.655225]}, "properties": {}}, {"type": "Feature", "geometry": {"type": "Point", "coordinates": [-0.340182, 53.74761]}, "properties": {}}, {"type": "Feature", "geometry": {"type": "Point", "coordinates": [9.680672, 39.830555]}, "properties": {}}, {"type": "Feature", "geometry": {"type": "Point", "coordinates": [-101.926664, 34.97685]}, "properties": {}}, {"type": "Feature", "geometry": {"type": "Point", "coordinates": [113.567959, 22.118376]}, "properties": {}}, {"type": "Feature", "geometry": {"type": "Point", "coordinates": [-101.926537, 34.977154]}, "properties": {}}, {"type": "Feature", "geometry": {"type": "Point", "coordinates": [113.55086, 22.118693]}, "properties": {}}, {"type": "Feature", "geometry": {"type": "Point", "coordinates": [-98.725845, 29.67387]}, "properties": {}}, {"type": "Feature", "geometry": {"type": "Point", "coordinates": [-0.340369, 53.747693]}, "properties": {}}, {"type": "Feature", "geometry": {"type": "Point", "coordinates": [-0.340072, 53.747694]}, "properties": {}}, {"type": "Feature", "geometry": {"type": "Point", "coordinates": [-98.163343, 26.301737]}, "properties": {}}, {"type": "Feature", "geometry": {"type": "Point", "coordinates": [-98.515975, 29.516678]}, "properties": {}}, {"type": "Feature", "geometry": {"type": "Point", "coordinates": [6.1, 52.0]}, "properties": {}}, {"type": "Feature", "geometry": {"type": "Point", "coordinates": [113.544322, 22.210722]}, "properties": {}}, {"type": "Feature", "geometry": {"type": "Point", "coordinates": [-98.516188, 29.516542]}, "properties": {}}, {"type": "Feature", "geometry": {"type": "Point", "coordinates": [-118.059511, 33.980973]}, "properties": {}}, {"type": "Feature", "geometry": {"type": "Point", "coordinates": [-89.611723, -0.901703]}, "properties": {}}, {"type": "Feature", "geometry": {"type": "Point", "coordinates": [11.524475, 45.410233]}, "properties": {}}, {"type": "Feature", "geometry": {"type": "Point", "coordinates": [7.47109, 46.29891]}, "properties": {}}, {"type": "Feature", "geometry": {"type": "Point", "coordinates": [9.02044, 46.01794]}, "properties": {}}, {"type": "Feature", "geometry": {"type": "Point", "coordinates": [7.08292, 46.11843]}, "properties": {}}, {"type": "Feature", "geometry": {"type": "Point", "coordinates": [9.21407, 46.01505]}, "properties": {}}, {"type": "Feature", "geometry": {"type": "Point", "coordinates": [9.21407, 46.01505]}, "properties": {}}, {"type": "Feature", "geometry": {"type": "Point", "coordinates": [9.21407, 46.01505]}, "properties": {}}, {"type": "Feature", "geometry": {"type": "Point", "coordinates": [18.129167, 42.638056]}, "properties": {}}, {"type": "Feature", "geometry": {"type": "Point", "coordinates": [-1.815609, 52.674905]}, "properties": {}}, {"type": "Feature", "geometry": {"type": "Point", "coordinates": [-1.815609, 52.674905]}, "properties": {}}, {"type": "Feature", "geometry": {"type": "Point", "coordinates": [-0.337149, 53.748975]}, "properties": {}}, {"type": "Feature", "geometry": {"type": "Point", "coordinates": [3.72797, 51.04193]}, "properties": {}}, {"type": "Feature", "geometry": {"type": "Point", "coordinates": [4.39047, 51.19138]}, "properties": {}}, {"type": "Feature", "geometry": {"type": "Point", "coordinates": [3.73866, 51.04387]}, "properties": {}}, {"type": "Feature", "geometry": {"type": "Point", "coordinates": [9.077711, 48.923515]}, "properties": {}}, {"type": "Feature", "geometry": {"type": "Point", "coordinates": [10.028, 45.686001]}, "properties": {}}, {"type": "Feature", "geometry": {"type": "Point", "coordinates": [6.1, 52.0]}, "properties": {}}, {"type": "Feature", "geometry": {"type": "Point", "coordinates": [15.480337, 44.316017]}, "properties": {}}, {"type": "Feature", "geometry": {"type": "Point", "coordinates": [13.91101, 44.779701]}, "properties": {}}, {"type": "Feature", "geometry": {"type": "Point", "coordinates": [9.269469, 49.13858]}, "properties": {}}, {"type": "Feature", "geometry": {"type": "Point", "coordinates": [5.65, 51.95]}, "properties": {}}, {"type": "Feature", "geometry": {"type": "Point", "coordinates": [4.36154, 50.86756]}, "properties": {}}, {"type": "Feature", "geometry": {"type": "Point", "coordinates": [4.36159, 50.86749]}, "properties": {}}, {"type": "Feature", "geometry": {"type": "Point", "coordinates": [8.675166, 45.949517]}, "properties": {}}, {"type": "Feature", "geometry": {"type": "Point", "coordinates": [-73.886934, 40.683805]}, "properties": {}}, {"type": "Feature", "geometry": {"type": "Point", "coordinates": [9.088115, 48.913078]}, "properties": {}}, {"type": "Feature", "geometry": {"type": "Point", "coordinates": [9.078505, 48.923893]}, "properties": {}}, {"type": "Feature", "geometry": {"type": "Point", "coordinates": [13.892516, 44.812992]}, "properties": {}}, {"type": "Feature", "geometry": {"type": "Point", "coordinates": [4.51215, 51.07223]}, "properties": {}}, {"type": "Feature", "geometry": {"type": "Point", "coordinates": [3.73868, 51.04384]}, "properties": {}}, {"type": "Feature", "geometry": {"type": "Point", "coordinates": [7.099453, 51.480983]}, "properties": {}}, {"type": "Feature", "geometry": {"type": "Point", "coordinates": [-71.536879, -16.362558]}, "properties": {}}, {"type": "Feature", "geometry": {"type": "Point", "coordinates": [6.3, 52.1]}, "properties": {}}, {"type": "Feature", "geometry": {"type": "Point", "coordinates": [3.72785, 51.04199]}, "properties": {}}, {"type": "Feature", "geometry": {"type": "Point", "coordinates": [-118.287827, 34.016891]}, "properties": {}}, {"type": "Feature", "geometry": {"type": "Point", "coordinates": [10.014646, 45.68251]}, "properties": {}}, {"type": "Feature", "geometry": {"type": "Point", "coordinates": [5.11771, 50.53071]}, "properties": {}}, {"type": "Feature", "geometry": {"type": "Point", "coordinates": [5.65, 51.95]}, "properties": {}}, {"type": "Feature", "geometry": {"type": "Point", "coordinates": [7.20807, 47.10826]}, "properties": {}}, {"type": "Feature", "geometry": {"type": "Point", "coordinates": [9.57005, 46.86377]}, "properties": {}}, {"type": "Feature", "geometry": {"type": "Point", "coordinates": [6.11177, 46.15616]}, "properties": {}}, {"type": "Feature", "geometry": {"type": "Point", "coordinates": [9.57005, 46.86377]}, "properties": {}}, {"type": "Feature", "geometry": {"type": "Point", "coordinates": [9.02044, 46.01794]}, "properties": {}}, {"type": "Feature", "geometry": {"type": "Point", "coordinates": [4.316267, 50.801737]}, "properties": {}}, {"type": "Feature", "geometry": {"type": "Point", "coordinates": [14.713016, 45.166627]}, "properties": {}}, {"type": "Feature", "geometry": {"type": "Point", "coordinates": [7.7382, 48.124931]}, "properties": {}}, {"type": "Feature", "geometry": {"type": "Point", "coordinates": [-3.869233, 52.607708]}, "properties": {}}, {"type": "Feature", "geometry": {"type": "Point", "coordinates": [1.99767, 48.780512]}, "properties": {}}, {"type": "Feature", "geometry": {"type": "Point", "coordinates": [10.981845, 43.730547]}, "properties": {}}, {"type": "Feature", "geometry": {"type": "Point", "coordinates": [5.975139, 50.795839]}, "properties": {}}, {"type": "Feature", "geometry": {"type": "Point", "coordinates": [4.7, 52.0]}, "properties": {}}, {"type": "Feature", "geometry": {"type": "Point", "coordinates": [-84.368229, 33.730833]}, "properties": {}}, {"type": "Feature", "geometry": {"type": "Point", "coordinates": [-2.062872, 48.454419]}, "properties": {}}, {"type": "Feature", "geometry": {"type": "Point", "coordinates": [11.58484, 57.92285]}, "properties": {}}, {"type": "Feature", "geometry": {"type": "Point", "coordinates": [9.035266, 48.54028]}, "properties": {}}, {"type": "Feature", "geometry": {"type": "Point", "coordinates": [9.723029, 49.976425]}, "properties": {}}, {"type": "Feature", "geometry": {"type": "Point", "coordinates": [3.77705, 50.80012]}, "properties": {}}, {"type": "Feature", "geometry": {"type": "Point", "coordinates": [14.65887, 58.29663]}, "properties": {}}, {"type": "Feature", "geometry": {"type": "Point", "coordinates": [5.1, 52.05]}, "properties": {}}, {"type": "Feature", "geometry": {"type": "Point", "coordinates": [4.65, 52.5]}, "properties": {}}, {"type": "Feature", "geometry": {"type": "Point", "coordinates": [3.45, 51.45]}, "properties": {}}, {"type": "Feature", "geometry": {"type": "Point", "coordinates": [-79.315139, 43.827099]}, "properties": {}}, {"type": "Feature", "geometry": {"type": "Point", "coordinates": [8.054092, 49.964887]}, "properties": {}}, {"type": "Feature", "geometry": {"type": "Point", "coordinates": [3.16724, 51.11354]}, "properties": {}}, {"type": "Feature", "geometry": {"type": "Point", "coordinates": [5.65, 50.8]}, "properties": {}}, {"type": "Feature", "geometry": {"type": "Point", "coordinates": [13.706545, 52.473602]}, "properties": {}}, {"type": "Feature", "geometry": {"type": "Point", "coordinates": [-51.922733, -28.721861]}, "properties": {}}, {"type": "Feature", "geometry": {"type": "Point", "coordinates": [7.20807, 47.10826]}, "properties": {}}, {"type": "Feature", "geometry": {"type": "Point", "coordinates": [7.6047, 47.5581]}, "properties": {}}, {"type": "Feature", "geometry": {"type": "Point", "coordinates": [9.02044, 46.01794]}, "properties": {}}, {"type": "Feature", "geometry": {"type": "Point", "coordinates": [-0.37091, 49.188959]}, "properties": {}}, {"type": "Feature", "geometry": {"type": "Point", "coordinates": [-1.863634, 52.450227]}, "properties": {}}, {"type": "Feature", "geometry": {"type": "Point", "coordinates": [2.261562, 48.850368]}, "properties": {}}, {"type": "Feature", "geometry": {"type": "Point", "coordinates": [2.479185, 48.396976]}, "properties": {}}, {"type": "Feature", "geometry": {"type": "Point", "coordinates": [-2.209547, 53.162395]}, "properties": {}}, {"type": "Feature", "geometry": {"type": "Point", "coordinates": [5.05, 52.05]}, "properties": {}}, {"type": "Feature", "geometry": {"type": "Point", "coordinates": [16.40971, 56.26296]}, "properties": {}}, {"type": "Feature", "geometry": {"type": "Point", "coordinates": [6.222617, 43.84895]}, "properties": {}}, {"type": "Feature", "geometry": {"type": "Point", "coordinates": [6.05, 52.5]}, "properties": {}}, {"type": "Feature", "geometry": {"type": "Point", "coordinates": [-85.636236, 42.21658]}, "properties": {}}, {"type": "Feature", "geometry": {"type": "Point", "coordinates": [-53.838436, -29.070504]}, "properties": {}}, {"type": "Feature", "geometry": {"type": "Point", "coordinates": [4.5, 51.9]}, "properties": {}}, {"type": "Feature", "geometry": {"type": "Point", "coordinates": [-2.215256, 51.744963]}, "properties": {}}, {"type": "Feature", "geometry": {"type": "Point", "coordinates": [5.1, 52.05]}, "properties": {}}, {"type": "Feature", "geometry": {"type": "Point", "coordinates": [-77.46708, 37.55609]}, "properties": {}}, {"type": "Feature", "geometry": {"type": "Point", "coordinates": [9.02044, 46.01794]}, "properties": {}}, {"type": "Feature", "geometry": {"type": "Point", "coordinates": [9.02044, 46.01794]}, "properties": {}}, {"type": "Feature", "geometry": {"type": "Point", "coordinates": [9.02044, 46.01794]}, "properties": {}}, {"type": "Feature", "geometry": {"type": "Point", "coordinates": [9.02044, 46.01794]}, "properties": {}}, {"type": "Feature", "geometry": {"type": "Point", "coordinates": [9.02044, 46.01794]}, "properties": {}}, {"type": "Feature", "geometry": {"type": "Point", "coordinates": [9.02044, 46.01794]}, "properties": {}}, {"type": "Feature", "geometry": {"type": "Point", "coordinates": [12.25711, 57.68143]}, "properties": {}}, {"type": "Feature", "geometry": {"type": "Point", "coordinates": [-2.579706, 51.455912]}, "properties": {}}, {"type": "Feature", "geometry": {"type": "Point", "coordinates": [27.609012, 53.914034]}, "properties": {}}, {"type": "Feature", "geometry": {"type": "Point", "coordinates": [5.437157, 51.884933]}, "properties": {}}, {"type": "Feature", "geometry": {"type": "Point", "coordinates": [5.437416, 51.885265]}, "properties": {}}, {"type": "Feature", "geometry": {"type": "Point", "coordinates": [5.65, 50.8]}, "properties": {}}, {"type": "Feature", "geometry": {"type": "Point", "coordinates": [4.3, 51.75]}, "properties": {}}, {"type": "Feature", "geometry": {"type": "Point", "coordinates": [4.85, 51.65]}, "properties": {}}, {"type": "Feature", "geometry": {"type": "Point", "coordinates": [2.90817, 51.2231]}, "properties": {}}, {"type": "Feature", "geometry": {"type": "Point", "coordinates": [7.03027, 51.431095]}, "properties": {}}, {"type": "Feature", "geometry": {"type": "Point", "coordinates": [7.03027, 51.431095]}, "properties": {}}, {"type": "Feature", "geometry": {"type": "Point", "coordinates": [7.03027, 51.431095]}, "properties": {}}, {"type": "Feature", "geometry": {"type": "Point", "coordinates": [7.03027, 51.431095]}, "properties": {}}, {"type": "Feature", "geometry": {"type": "Point", "coordinates": [7.03027, 51.431095]}, "properties": {}}, {"type": "Feature", "geometry": {"type": "Point", "coordinates": [2.474242, 48.399514]}, "properties": {}}, {"type": "Feature", "geometry": {"type": "Point", "coordinates": [7.918946, 49.970213]}, "properties": {}}, {"type": "Feature", "geometry": {"type": "Point", "coordinates": [14.6587, 58.29652]}, "properties": {}}, {"type": "Feature", "geometry": {"type": "Point", "coordinates": [-71.558208, -16.315976]}, "properties": {}}, {"type": "Feature", "geometry": {"type": "Point", "coordinates": [-70.713845, 43.045063]}, "properties": {}}, {"type": "Feature", "geometry": {"type": "Point", "coordinates": [-48.437222, -22.908639]}, "properties": {}}, {"type": "Feature", "geometry": {"type": "Point", "coordinates": [10.687344, 59.906097]}, "properties": {}}, {"type": "Feature", "geometry": {"type": "Point", "coordinates": [7.592144, 51.361042]}, "properties": {}}, {"type": "Feature", "geometry": {"type": "Point", "coordinates": [7.6047, 47.5581]}, "properties": {}}, {"type": "Feature", "geometry": {"type": "Point", "coordinates": [7.01755, 46.20816]}, "properties": {}}, {"type": "Feature", "geometry": {"type": "Point", "coordinates": [-79.478766, 43.743693]}, "properties": {}}, {"type": "Feature", "geometry": {"type": "Point", "coordinates": [4.613133, 52.405163]}, "properties": {}}, {"type": "Feature", "geometry": {"type": "Point", "coordinates": [5.15, 52.05]}, "properties": {}}, {"type": "Feature", "geometry": {"type": "Point", "coordinates": [7.03027, 51.431095]}, "properties": {}}, {"type": "Feature", "geometry": {"type": "Point", "coordinates": [7.03027, 51.431095]}, "properties": {}}, {"type": "Feature", "geometry": {"type": "Point", "coordinates": [7.03027, 51.431095]}, "properties": {}}, {"type": "Feature", "geometry": {"type": "Point", "coordinates": [7.03027, 51.431095]}, "properties": {}}, {"type": "Feature", "geometry": {"type": "Point", "coordinates": [14.523099, 46.049569]}, "properties": {}}, {"type": "Feature", "geometry": {"type": "Point", "coordinates": [-118.438141, 34.179649]}, "properties": {}}, {"type": "Feature", "geometry": {"type": "Point", "coordinates": [4.85, 52.35]}, "properties": {}}, {"type": "Feature", "geometry": {"type": "Point", "coordinates": [5.1, 52.05]}, "properties": {}}, {"type": "Feature", "geometry": {"type": "Point", "coordinates": [-72.659403, 7.358043]}, "properties": {}}, {"type": "Feature", "geometry": {"type": "Point", "coordinates": [4.5, 51.9]}, "properties": {}}, {"type": "Feature", "geometry": {"type": "Point", "coordinates": [7.03027, 51.431095]}, "properties": {}}, {"type": "Feature", "geometry": {"type": "Point", "coordinates": [7.03027, 51.431095]}, "properties": {}}, {"type": "Feature", "geometry": {"type": "Point", "coordinates": [7.03027, 51.431095]}, "properties": {}}, {"type": "Feature", "geometry": {"type": "Point", "coordinates": [9.394647, 45.912992]}, "properties": {}}, {"type": "Feature", "geometry": {"type": "Point", "coordinates": [16.324216, 48.201877]}, "properties": {}}, {"type": "Feature", "geometry": {"type": "Point", "coordinates": [9.02044, 46.01794]}, "properties": {}}, {"type": "Feature", "geometry": {"type": "Point", "coordinates": [13.634825, 45.988359]}, "properties": {}}, {"type": "Feature", "geometry": {"type": "Point", "coordinates": [-40.496389, -10.826389]}, "properties": {}}, {"type": "Feature", "geometry": {"type": "Point", "coordinates": [-64.461219, -31.312605]}, "properties": {}}, {"type": "Feature", "geometry": {"type": "Point", "coordinates": [-78.816293, -3.019456]}, "properties": {}}, {"type": "Feature", "geometry": {"type": "Point", "coordinates": [5.15, 52.1]}, "properties": {}}, {"type": "Feature", "geometry": {"type": "Point", "coordinates": [5.15, 52.1]}, "properties": {}}, {"type": "Feature", "geometry": {"type": "Point", "coordinates": [-71.552456, -33.015589]}, "properties": {}}, {"type": "Feature", "geometry": {"type": "Point", "coordinates": [7.03027, 51.431095]}, "properties": {}}, {"type": "Feature", "geometry": {"type": "Point", "coordinates": [7.03027, 51.431095]}, "properties": {}}, {"type": "Feature", "geometry": {"type": "Point", "coordinates": [-64.280092, -42.570238]}, "properties": {}}, {"type": "Feature", "geometry": {"type": "Point", "coordinates": [-79.882054, -2.270264]}, "properties": {}}, {"type": "Feature", "geometry": {"type": "Point", "coordinates": [7.03027, 51.431095]}, "properties": {}}, {"type": "Feature", "geometry": {"type": "Point", "coordinates": [4.30496, 50.85255]}, "properties": {}}, {"type": "Feature", "geometry": {"type": "Point", "coordinates": [7.03027, 51.431095]}, "properties": {}}, {"type": "Feature", "geometry": {"type": "Point", "coordinates": [12.785505, 46.828005]}, "properties": {}}, {"type": "Feature", "geometry": {"type": "Point", "coordinates": [57.369989, 23.193388]}, "properties": {}}, {"type": "Feature", "geometry": {"type": "Point", "coordinates": [27.594403, 53.932833]}, "properties": {}}, {"type": "Feature", "geometry": {"type": "Point", "coordinates": [-76.203688, 42.150765]}, "properties": {}}, {"type": "Feature", "geometry": {"type": "Point", "coordinates": [9.02044, 46.01794]}, "properties": {}}, {"type": "Feature", "geometry": {"type": "Point", "coordinates": [5.423788, 51.896885]}, "properties": {}}, {"type": "Feature", "geometry": {"type": "Point", "coordinates": [-78.220626, 0.329202]}, "properties": {}}, {"type": "Feature", "geometry": {"type": "Point", "coordinates": [7.03027, 51.431095]}, "properties": {}}, {"type": "Feature", "geometry": {"type": "Point", "coordinates": [-71.22658, -14.265692]}, "properties": {}}, {"type": "Feature", "geometry": {"type": "Point", "coordinates": [7.03027, 51.431095]}, "properties": {}}, {"type": "Feature", "geometry": {"type": "Point", "coordinates": [15.436905, 47.0732]}, "properties": {}}, {"type": "Feature", "geometry": {"type": "Point", "coordinates": [7.03027, 51.431095]}, "properties": {}}, {"type": "Feature", "geometry": {"type": "Point", "coordinates": [27.612809, 53.915858]}, "properties": {}}, {"type": "Feature", "geometry": {"type": "Point", "coordinates": [-89.608253, -0.898405]}, "properties": {}}, {"type": "Feature", "geometry": {"type": "Point", "coordinates": [7.03027, 51.431095]}, "properties": {}}, {"type": "Feature", "geometry": {"type": "Point", "coordinates": [10.626338, 45.65115]}, "properties": {}}, {"type": "Feature", "geometry": {"type": "Point", "coordinates": [7.030218, 51.431141]}, "properties": {}}, {"type": "Feature", "geometry": {"type": "Point", "coordinates": [-72.623943, -38.72553]}, "properties": {}}, {"type": "Feature", "geometry": {"type": "Point", "coordinates": [-46.708019, -23.408431]}, "properties": {}}, {"type": "Feature", "geometry": {"type": "Point", "coordinates": [14.19801, 40.868073]}, "properties": {}}, {"type": "Feature", "geometry": {"type": "Point", "coordinates": [4.6, 52.35]}, "properties": {}}, {"type": "Feature", "geometry": {"type": "Point", "coordinates": [11.486805, 43.825353]}, "properties": {}}, {"type": "Feature", "geometry": {"type": "Point", "coordinates": [16.580957, 48.30695]}, "properties": {}}, {"type": "Feature", "geometry": {"type": "Point", "coordinates": [9.39231, 45.871414]}, "properties": {}}, {"type": "Feature", "geometry": {"type": "Point", "coordinates": [23.767436, 37.909935]}, "properties": {}}, {"type": "Feature", "geometry": {"type": "Point", "coordinates": [23.767406, 37.909951]}, "properties": {}}, {"type": "Feature", "geometry": {"type": "Point", "coordinates": [5.05, 52.05]}, "properties": {}}, {"type": "Feature", "geometry": {"type": "Point", "coordinates": [-38.928056, -12.233333]}, "properties": {}}, {"type": "Feature", "geometry": {"type": "Point", "coordinates": [-2.427885, 43.099812]}, "properties": {}}, {"type": "Feature", "geometry": {"type": "Point", "coordinates": [-0.3125, 44.7675]}, "properties": {}}, {"type": "Feature", "geometry": {"type": "Point", "coordinates": [9.57005, 46.86377]}, "properties": {}}, {"type": "Feature", "geometry": {"type": "Point", "coordinates": [6.892806, 51.506516]}, "properties": {}}, {"type": "Feature", "geometry": {"type": "Point", "coordinates": [6.892824, 51.506515]}, "properties": {}}, {"type": "Feature", "geometry": {"type": "Point", "coordinates": [4.18932, 50.86548]}, "properties": {}}, {"type": "Feature", "geometry": {"type": "Point", "coordinates": [9.311338, 45.825235]}, "properties": {}}, {"type": "Feature", "geometry": {"type": "Point", "coordinates": [-120.813238, 38.156551]}, "properties": {}}, {"type": "Feature", "geometry": {"type": "Point", "coordinates": [7.627377, 48.059935]}, "properties": {}}, {"type": "Feature", "geometry": {"type": "Point", "coordinates": [4.25, 51.9]}, "properties": {}}, {"type": "Feature", "geometry": {"type": "Point", "coordinates": [5.65, 50.8]}, "properties": {}}, {"type": "Feature", "geometry": {"type": "Point", "coordinates": [9.518989, 45.924069]}, "properties": {}}, {"type": "Feature", "geometry": {"type": "Point", "coordinates": [-99.154569, 29.62454]}, "properties": {}}, {"type": "Feature", "geometry": {"type": "Point", "coordinates": [-5.150195, 43.371017]}, "properties": {}}, {"type": "Feature", "geometry": {"type": "Point", "coordinates": [26.244364, 35.100037]}, "properties": {}}, {"type": "Feature", "geometry": {"type": "Point", "coordinates": [6.038176, 50.03259]}, "properties": {}}, {"type": "Feature", "geometry": {"type": "Point", "coordinates": [10.748442, 44.992397]}, "properties": {}}, {"type": "Feature", "geometry": {"type": "Point", "coordinates": [-3.186021, 51.47457]}, "properties": {}}, {"type": "Feature", "geometry": {"type": "Point", "coordinates": [-119.05574, 35.347391]}, "properties": {}}, {"type": "Feature", "geometry": {"type": "Point", "coordinates": [11.488226, 43.861113]}, "properties": {}}, {"type": "Feature", "geometry": {"type": "Point", "coordinates": [11.454175, 43.851888]}, "properties": {}}, {"type": "Feature", "geometry": {"type": "Point", "coordinates": [11.454175, 43.851888]}, "properties": {}}, {"type": "Feature", "geometry": {"type": "Point", "coordinates": [11.456113, 43.852932]}, "properties": {}}, {"type": "Feature", "geometry": {"type": "Point", "coordinates": [12.95269, 56.5981]}, "properties": {}}, {"type": "Feature", "geometry": {"type": "Point", "coordinates": [-121.82103, 37.390965]}, "properties": {}}, {"type": "Feature", "geometry": {"type": "Point", "coordinates": [4.253467, 39.993382]}, "properties": {}}, {"type": "Feature", "geometry": {"type": "Point", "coordinates": [-98.65886, 29.495365]}, "properties": {}}]}