{"type": "FeatureCollection", "name": "Melissa officinalis", "features": [{"type": "Feature", "geometry": {"type": "Point", "coordinates": [4.70762, 50.88078]}, "properties": {}}, {"type": "Feature", "geometry": {"type": "Point", "coordinates": [-8.265937, 40.282067]}, "properties": {}}, {"type": "Feature", "geometry": {"type": "Point", "coordinates": [3.81897, 50.8349]}, "properties": {}}, {"type": "Feature", "geometry": {"type": "Point", "coordinates": [12.485999, 55.680051]}, "properties": {}}, {"type": "Feature", "geometry": {"type": "Point", "coordinates": [5.50225, 51.12971]}, "properties": {}}, {"type": "Feature", "geometry": {"type": "Point", "coordinates": [3.12114, 50.96348]}, "properties": {}}, {"type": "Feature", "geometry": {"type": "Point", "coordinates": [4.47255, 51.21836]}, "properties": {}}, {"type": "Feature", "geometry": {"type": "Point", "coordinates": [4.42993, 51.17632]}, "properties": {}}, {"type": "Feature", "geometry": {"type": "Point", "coordinates": [149.129184, -35.256289]}, "properties": {}}, {"type": "Feature", "geometry": {"type": "Point", "coordinates": [1.307362, 47.581987]}, "properties": {}}, {"type": "Feature", "geometry": {"type": "Point", "coordinates": [-123.098296, 43.999961]}, "properties": {}}, {"type": "Feature", "geometry": {"type": "Point", "coordinates": [-122.837706, 38.052978]}, "properties": {}}, {"type": "Feature", "geometry": {"type": "Point", "coordinates": [-122.268618, 45.470429]}, "properties": {}}, {"type": "Feature", "geometry": {"type": "Point", "coordinates": [16.271845, 48.004364]}, "properties": {}}, {"type": "Feature", "geometry": {"type": "Point", "coordinates": [-122.229553, 37.381962]}, "properties": {}}, {"type": "Feature", "geometry": {"type": "Point", "coordinates": [-123.032642, 44.019362]}, "properties": {}}, {"type": "Feature", "geometry": {"type": "Point", "coordinates": [2.53142, 41.813034]}, "properties": {}}, {"type": "Feature", "geometry": {"type": "Point", "coordinates": [-121.198347, 39.290869]}, "properties": {}}, {"type": "Feature", "geometry": {"type": "Point", "coordinates": [-122.50992, 45.488813]}, "properties": {}}, {"type": "Feature", "geometry": {"type": "Point", "coordinates": [-122.276467, 47.55607]}, "properties": {}}, {"type": "Feature", "geometry": {"type": "Point", "coordinates": [-2.894637, 53.355145]}, "properties": {}}, {"type": "Feature", "geometry": {"type": "Point", "coordinates": [173.036309, -41.403666]}, "properties": {}}, {"type": "Feature", "geometry": {"type": "Point", "coordinates": [144.2, -37.1]}, "properties": {}}, {"type": "Feature", "geometry": {"type": "Point", "coordinates": [-122.779754, 39.077159]}, "properties": {}}, {"type": "Feature", "geometry": {"type": "Point", "coordinates": [-123.373499, 48.464596]}, "properties": {}}, {"type": "Feature", "geometry": {"type": "Point", "coordinates": [-1.168775, 52.713994]}, "properties": {}}, {"type": "Feature", "geometry": {"type": "Point", "coordinates": [10.958789, 52.157601]}, "properties": {}}, {"type": "Feature", "geometry": {"type": "Point", "coordinates": [4.6, 52.35]}, "properties": {}}, {"type": "Feature", "geometry": {"type": "Point", "coordinates": [35.028272, 32.710413]}, "properties": {}}, {"type": "Feature", "geometry": {"type": "Point", "coordinates": [35.615882, 33.177853]}, "properties": {}}, {"type": "Feature", "geometry": {"type": "Point", "coordinates": [35.615768, 33.1788]}, "properties": {}}, {"type": "Feature", "geometry": {"type": "Point", "coordinates": [34.762894, 31.585704]}, "properties": {}}, {"type": "Feature", "geometry": {"type": "Point", "coordinates": [35.148574, 32.49981]}, "properties": {}}, {"type": "Feature", "geometry": {"type": "Point", "coordinates": [35.145297, 32.498546]}, "properties": {}}, {"type": "Feature", "geometry": {"type": "Point", "coordinates": [35.615997, 33.177393]}, "properties": {}}, {"type": "Feature", "geometry": {"type": "Point", "coordinates": [-43.590833, -22.811389]}, "properties": {}}, {"type": "Feature", "geometry": {"type": "Point", "coordinates": [-0.608833, 50.983268]}, "properties": {}}, {"type": "Feature", "geometry": {"type": "Point", "coordinates": [145.678306, -37.747528]}, "properties": {}}, {"type": "Feature", "geometry": {"type": "Point", "coordinates": [-122.263479, 37.849376]}, "properties": {}}, {"type": "Feature", "geometry": {"type": "Point", "coordinates": [138.6763, -35.304997]}, "properties": {}}, {"type": "Feature", "geometry": {"type": "Point", "coordinates": [172.458979, -43.649149]}, "properties": {}}, {"type": "Feature", "geometry": {"type": "Point", "coordinates": [-122.531137, 38.442642]}, "properties": {}}, {"type": "Feature", "geometry": {"type": "Point", "coordinates": [-1.8666, 53.714554]}, "properties": {}}, {"type": "Feature", "geometry": {"type": "Point", "coordinates": [138.70959, -34.93022]}, "properties": {}}, {"type": "Feature", "geometry": {"type": "Point", "coordinates": [4.70453, 50.85389]}, "properties": {}}, {"type": "Feature", "geometry": {"type": "Point", "coordinates": [4.04145, 50.90139]}, "properties": {}}, {"type": "Feature", "geometry": {"type": "Point", "coordinates": [4.36954, 50.93309]}, "properties": {}}, {"type": "Feature", "geometry": {"type": "Point", "coordinates": [4.71146, 50.8638]}, "properties": {}}, {"type": "Feature", "geometry": {"type": "Point", "coordinates": [3.620436, 50.780296]}, "properties": {}}, {"type": "Feature", "geometry": {"type": "Point", "coordinates": [176.265693, -38.153386]}, "properties": {}}, {"type": "Feature", "geometry": {"type": "Point", "coordinates": [35.6531, 32.73521]}, "properties": {}}, {"type": "Feature", "geometry": {"type": "Point", "coordinates": [-123.007378, 45.019464]}, "properties": {}}, {"type": "Feature", "geometry": {"type": "Point", "coordinates": [-123.007469, 45.019425]}, "properties": {}}, {"type": "Feature", "geometry": {"type": "Point", "coordinates": [4.75, 51.55]}, "properties": {}}, {"type": "Feature", "geometry": {"type": "Point", "coordinates": [5.9, 52.65]}, "properties": {}}, {"type": "Feature", "geometry": {"type": "Point", "coordinates": [5.2, 52.35]}, "properties": {}}, {"type": "Feature", "geometry": {"type": "Point", "coordinates": [6.95, 52.95]}, "properties": {}}, {"type": "Feature", "geometry": {"type": "Point", "coordinates": [3.9, 51.7]}, "properties": {}}, {"type": "Feature", "geometry": {"type": "Point", "coordinates": [-122.675475, 45.439593]}, "properties": {}}, {"type": "Feature", "geometry": {"type": "Point", "coordinates": [16.48237, 48.213748]}, "properties": {}}, {"type": "Feature", "geometry": {"type": "Point", "coordinates": [34.749992, 31.896115]}, "properties": {}}, {"type": "Feature", "geometry": {"type": "Point", "coordinates": [34.756537, 31.908854]}, "properties": {}}, {"type": "Feature", "geometry": {"type": "Point", "coordinates": [35.178608, 33.03267]}, "properties": {}}, {"type": "Feature", "geometry": {"type": "Point", "coordinates": [35.081907, 32.63486]}, "properties": {}}, {"type": "Feature", "geometry": {"type": "Point", "coordinates": [35.188076, 33.06258]}, "properties": {}}, {"type": "Feature", "geometry": {"type": "Point", "coordinates": [35.177376, 33.072767]}, "properties": {}}, {"type": "Feature", "geometry": {"type": "Point", "coordinates": [11.903935, 54.72097]}, "properties": {}}, {"type": "Feature", "geometry": {"type": "Point", "coordinates": [4.47282, 51.21822]}, "properties": {}}, {"type": "Feature", "geometry": {"type": "Point", "coordinates": [3.50303, 51.13532]}, "properties": {}}, {"type": "Feature", "geometry": {"type": "Point", "coordinates": [4.43385, 51.21336]}, "properties": {}}, {"type": "Feature", "geometry": {"type": "Point", "coordinates": [4.39346, 50.81692]}, "properties": {}}, {"type": "Feature", "geometry": {"type": "Point", "coordinates": [3.62044, 50.7803]}, "properties": {}}, {"type": "Feature", "geometry": {"type": "Point", "coordinates": [4.37601, 50.82488]}, "properties": {}}, {"type": "Feature", "geometry": {"type": "Point", "coordinates": [4.36949, 50.93312]}, "properties": {}}, {"type": "Feature", "geometry": {"type": "Point", "coordinates": [4.41019, 50.81534]}, "properties": {}}, {"type": "Feature", "geometry": {"type": "Point", "coordinates": [4.46613, 50.83512]}, "properties": {}}, {"type": "Feature", "geometry": {"type": "Point", "coordinates": [35.130192, 32.480215]}, "properties": {}}, {"type": "Feature", "geometry": {"type": "Point", "coordinates": [35.270438, 33.08662]}, "properties": {}}, {"type": "Feature", "geometry": {"type": "Point", "coordinates": [35.34335, 33.061088]}, "properties": {}}, {"type": "Feature", "geometry": {"type": "Point", "coordinates": [4.46634, 51.0237]}, "properties": {}}, {"type": "Feature", "geometry": {"type": "Point", "coordinates": [4.2933, 50.82959]}, "properties": {}}, {"type": "Feature", "geometry": {"type": "Point", "coordinates": [5.24681, 51.0715]}, "properties": {}}, {"type": "Feature", "geometry": {"type": "Point", "coordinates": [4.41083, 50.81234]}, "properties": {}}, {"type": "Feature", "geometry": {"type": "Point", "coordinates": [3.62056, 50.78042]}, "properties": {}}, {"type": "Feature", "geometry": {"type": "Point", "coordinates": [4.77921, 50.98569]}, "properties": {}}, {"type": "Feature", "geometry": {"type": "Point", "coordinates": [4.64436, 50.89802]}, "properties": {}}, {"type": "Feature", "geometry": {"type": "Point", "coordinates": [-2.400429, 43.030487]}, "properties": {}}, {"type": "Feature", "geometry": {"type": "Point", "coordinates": [169.468125, -46.560608]}, "properties": {}}, {"type": "Feature", "geometry": {"type": "Point", "coordinates": [175.655811, -41.077797]}, "properties": {}}, {"type": "Feature", "geometry": {"type": "Point", "coordinates": [4.6, 51.9]}, "properties": {}}, {"type": "Feature", "geometry": {"type": "Point", "coordinates": [6.0, 52.6]}, "properties": {}}, {"type": "Feature", "geometry": {"type": "Point", "coordinates": [4.5, 52.15]}, "properties": {}}, {"type": "Feature", "geometry": {"type": "Point", "coordinates": [-122.645596, 45.463668]}, "properties": {}}, {"type": "Feature", "geometry": {"type": "Point", "coordinates": [173.042814, -41.408213]}, "properties": {}}, {"type": "Feature", "geometry": {"type": "Point", "coordinates": [-123.182022, 49.1478]}, "properties": {}}, {"type": "Feature", "geometry": {"type": "Point", "coordinates": [175.846361, -40.447922]}, "properties": {}}, {"type": "Feature", "geometry": {"type": "Point", "coordinates": [-123.311192, 48.464284]}, "properties": {}}, {"type": "Feature", "geometry": {"type": "Point", "coordinates": [-0.55851, 51.303907]}, "properties": {}}, {"type": "Feature", "geometry": {"type": "Point", "coordinates": [-123.311207, 48.46422]}, "properties": {}}, {"type": "Feature", "geometry": {"type": "Point", "coordinates": [-0.776043, 50.854744]}, "properties": {}}, {"type": "Feature", "geometry": {"type": "Point", "coordinates": [-0.772802, 50.869998]}, "properties": {}}, {"type": "Feature", "geometry": {"type": "Point", "coordinates": [-122.302258, 47.645153]}, "properties": {}}, {"type": "Feature", "geometry": {"type": "Point", "coordinates": [13.18451, 55.72284]}, "properties": {}}, {"type": "Feature", "geometry": {"type": "Point", "coordinates": [7.30564, 51.470634]}, "properties": {}}, {"type": "Feature", "geometry": {"type": "Point", "coordinates": [-122.784639, 45.436675]}, "properties": {}}, {"type": "Feature", "geometry": {"type": "Point", "coordinates": [-123.370113, 48.465631]}, "properties": {}}, {"type": "Feature", "geometry": {"type": "Point", "coordinates": [-2.925679, 53.385406]}, "properties": {}}, {"type": "Feature", "geometry": {"type": "Point", "coordinates": [-2.925679, 53.385406]}, "properties": {}}, {"type": "Feature", "geometry": {"type": "Point", "coordinates": [174.799, -41.295]}, "properties": {}}, {"type": "Feature", "geometry": {"type": "Point", "coordinates": [4.61352, 51.22295]}, "properties": {}}, {"type": "Feature", "geometry": {"type": "Point", "coordinates": [4.61329, 51.2233]}, "properties": {}}, {"type": "Feature", "geometry": {"type": "Point", "coordinates": [5.95, 52.15]}, "properties": {}}, {"type": "Feature", "geometry": {"type": "Point", "coordinates": [4.45, 52.15]}, "properties": {}}, {"type": "Feature", "geometry": {"type": "Point", "coordinates": [5.9, 51.6]}, "properties": {}}, {"type": "Feature", "geometry": {"type": "Point", "coordinates": [5.8, 50.8]}, "properties": {}}, {"type": "Feature", "geometry": {"type": "Point", "coordinates": [9.779315, 45.725804]}, "properties": {}}, {"type": "Feature", "geometry": {"type": "Point", "coordinates": [4.816212, 45.936532]}, "properties": {}}, {"type": "Feature", "geometry": {"type": "Point", "coordinates": [7.07276, 51.098186]}, "properties": {}}, {"type": "Feature", "geometry": {"type": "Point", "coordinates": [4.30748, 51.01416]}, "properties": {}}, {"type": "Feature", "geometry": {"type": "Point", "coordinates": [4.44505, 50.83883]}, "properties": {}}, {"type": "Feature", "geometry": {"type": "Point", "coordinates": [4.42318, 50.89335]}, "properties": {}}, {"type": "Feature", "geometry": {"type": "Point", "coordinates": [4.31624, 50.80204]}, "properties": {}}, {"type": "Feature", "geometry": {"type": "Point", "coordinates": [4.23742, 50.73885]}, "properties": {}}, {"type": "Feature", "geometry": {"type": "Point", "coordinates": [4.48929, 51.04713]}, "properties": {}}, {"type": "Feature", "geometry": {"type": "Point", "coordinates": [4.33149, 50.79344]}, "properties": {}}, {"type": "Feature", "geometry": {"type": "Point", "coordinates": [3.00684, 51.18575]}, "properties": {}}, {"type": "Feature", "geometry": {"type": "Point", "coordinates": [4.46967, 51.12479]}, "properties": {}}, {"type": "Feature", "geometry": {"type": "Point", "coordinates": [3.78576, 51.01738]}, "properties": {}}, {"type": "Feature", "geometry": {"type": "Point", "coordinates": [4.7684, 50.89021]}, "properties": {}}, {"type": "Feature", "geometry": {"type": "Point", "coordinates": [4.39728, 50.80209]}, "properties": {}}, {"type": "Feature", "geometry": {"type": "Point", "coordinates": [3.85022, 51.14346]}, "properties": {}}, {"type": "Feature", "geometry": {"type": "Point", "coordinates": [4.73857, 50.89092]}, "properties": {}}, {"type": "Feature", "geometry": {"type": "Point", "coordinates": [4.2681, 50.88695]}, "properties": {}}, {"type": "Feature", "geometry": {"type": "Point", "coordinates": [4.72705, 50.89484]}, "properties": {}}, {"type": "Feature", "geometry": {"type": "Point", "coordinates": [4.38154, 50.86426]}, "properties": {}}, {"type": "Feature", "geometry": {"type": "Point", "coordinates": [3.29182, 50.85664]}, "properties": {}}, {"type": "Feature", "geometry": {"type": "Point", "coordinates": [4.11778, 51.2137]}, "properties": {}}, {"type": "Feature", "geometry": {"type": "Point", "coordinates": [4.17519, 51.11029]}, "properties": {}}, {"type": "Feature", "geometry": {"type": "Point", "coordinates": [5.25435, 50.91412]}, "properties": {}}, {"type": "Feature", "geometry": {"type": "Point", "coordinates": [4.3389, 50.84064]}, "properties": {}}, {"type": "Feature", "geometry": {"type": "Point", "coordinates": [3.25961, 50.88483]}, "properties": {}}, {"type": "Feature", "geometry": {"type": "Point", "coordinates": [4.73273, 50.87709]}, "properties": {}}, {"type": "Feature", "geometry": {"type": "Point", "coordinates": [2.90495, 50.88704]}, "properties": {}}, {"type": "Feature", "geometry": {"type": "Point", "coordinates": [4.54468, 51.22694]}, "properties": {}}, {"type": "Feature", "geometry": {"type": "Point", "coordinates": [-1.141725, 53.955394]}, "properties": {}}, {"type": "Feature", "geometry": {"type": "Point", "coordinates": [2.38198, 48.82999]}, "properties": {}}, {"type": "Feature", "geometry": {"type": "Point", "coordinates": [-1.103268, 53.955719]}, "properties": {}}, {"type": "Feature", "geometry": {"type": "Point", "coordinates": [-2.008992, 55.763837]}, "properties": {}}, {"type": "Feature", "geometry": {"type": "Point", "coordinates": [-122.672249, 38.343143]}, "properties": {}}, {"type": "Feature", "geometry": {"type": "Point", "coordinates": [173.291091, -41.265957]}, "properties": {}}, {"type": "Feature", "geometry": {"type": "Point", "coordinates": [9.749288, 45.737655]}, "properties": {}}, {"type": "Feature", "geometry": {"type": "Point", "coordinates": [20.728508, 38.335006]}, "properties": {}}, {"type": "Feature", "geometry": {"type": "Point", "coordinates": [-122.701758, 44.398539]}, "properties": {}}, {"type": "Feature", "geometry": {"type": "Point", "coordinates": [174.812789, -41.209921]}, "properties": {}}, {"type": "Feature", "geometry": {"type": "Point", "coordinates": [-122.494168, 45.482514]}, "properties": {}}, {"type": "Feature", "geometry": {"type": "Point", "coordinates": [-122.302383, 47.620505]}, "properties": {}}, {"type": "Feature", "geometry": {"type": "Point", "coordinates": [113.555657, 22.139702]}, "properties": {}}, {"type": "Feature", "geometry": {"type": "Point", "coordinates": [-123.002763, 38.542848]}, "properties": {}}, {"type": "Feature", "geometry": {"type": "Point", "coordinates": [5.451724, 43.469884]}, "properties": {}}, {"type": "Feature", "geometry": {"type": "Point", "coordinates": [-122.613145, 45.573125]}, "properties": {}}, {"type": "Feature", "geometry": {"type": "Point", "coordinates": [-3.511607, 50.721]}, "properties": {}}, {"type": "Feature", "geometry": {"type": "Point", "coordinates": [-123.548033, 48.478092]}, "properties": {}}, {"type": "Feature", "geometry": {"type": "Point", "coordinates": [-122.494163, 45.48253]}, "properties": {}}, {"type": "Feature", "geometry": {"type": "Point", "coordinates": [173.291115, -41.266171]}, "properties": {}}, {"type": "Feature", "geometry": {"type": "Point", "coordinates": [113.555795, 22.139845]}, "properties": {}}, {"type": "Feature", "geometry": {"type": "Point", "coordinates": [6.941795, 47.000974]}, "properties": {}}, {"type": "Feature", "geometry": {"type": "Point", "coordinates": [-122.072398, 45.585527]}, "properties": {}}, {"type": "Feature", "geometry": {"type": "Point", "coordinates": [-122.915003, 45.711299]}, "properties": {}}, {"type": "Feature", "geometry": {"type": "Point", "coordinates": [3.10303, 50.80736]}, "properties": {}}, {"type": "Feature", "geometry": {"type": "Point", "coordinates": [4.33607, 50.82965]}, "properties": {}}, {"type": "Feature", "geometry": {"type": "Point", "coordinates": [4.36558, 50.79994]}, "properties": {}}, {"type": "Feature", "geometry": {"type": "Point", "coordinates": [4.39625, 50.82219]}, "properties": {}}, {"type": "Feature", "geometry": {"type": "Point", "coordinates": [4.72782, 50.88329]}, "properties": {}}, {"type": "Feature", "geometry": {"type": "Point", "coordinates": [4.98829, 51.24322]}, "properties": {}}, {"type": "Feature", "geometry": {"type": "Point", "coordinates": [4.45843, 51.22861]}, "properties": {}}, {"type": "Feature", "geometry": {"type": "Point", "coordinates": [3.74865, 51.05809]}, "properties": {}}, {"type": "Feature", "geometry": {"type": "Point", "coordinates": [4.32948, 50.84107]}, "properties": {}}, {"type": "Feature", "geometry": {"type": "Point", "coordinates": [3.73287, 51.02831]}, "properties": {}}, {"type": "Feature", "geometry": {"type": "Point", "coordinates": [4.42691, 51.19567]}, "properties": {}}, {"type": "Feature", "geometry": {"type": "Point", "coordinates": [3.20083, 51.19725]}, "properties": {}}, {"type": "Feature", "geometry": {"type": "Point", "coordinates": [5.11441, 50.82947]}, "properties": {}}, {"type": "Feature", "geometry": {"type": "Point", "coordinates": [4.72702, 51.2975]}, "properties": {}}, {"type": "Feature", "geometry": {"type": "Point", "coordinates": [4.45957, 50.83869]}, "properties": {}}, {"type": "Feature", "geometry": {"type": "Point", "coordinates": [5.17278, 50.98774]}, "properties": {}}, {"type": "Feature", "geometry": {"type": "Point", "coordinates": [3.74764, 51.05563]}, "properties": {}}, {"type": "Feature", "geometry": {"type": "Point", "coordinates": [4.41019, 50.87535]}, "properties": {}}, {"type": "Feature", "geometry": {"type": "Point", "coordinates": [4.42608, 50.80481]}, "properties": {}}, {"type": "Feature", "geometry": {"type": "Point", "coordinates": [4.9616, 50.93541]}, "properties": {}}, {"type": "Feature", "geometry": {"type": "Point", "coordinates": [3.73326, 51.07419]}, "properties": {}}, {"type": "Feature", "geometry": {"type": "Point", "coordinates": [3.74121, 51.04731]}, "properties": {}}, {"type": "Feature", "geometry": {"type": "Point", "coordinates": [3.20532, 50.84138]}, "properties": {}}, {"type": "Feature", "geometry": {"type": "Point", "coordinates": [4.28013, 51.14518]}, "properties": {}}, {"type": "Feature", "geometry": {"type": "Point", "coordinates": [3.77352, 51.04764]}, "properties": {}}, {"type": "Feature", "geometry": {"type": "Point", "coordinates": [3.73382, 51.05724]}, "properties": {}}, {"type": "Feature", "geometry": {"type": "Point", "coordinates": [4.31659, 50.80035]}, "properties": {}}, {"type": "Feature", "geometry": {"type": "Point", "coordinates": [4.72679, 50.88516]}, "properties": {}}, {"type": "Feature", "geometry": {"type": "Point", "coordinates": [4.50828, 50.99987]}, "properties": {}}, {"type": "Feature", "geometry": {"type": "Point", "coordinates": [4.95818, 50.96583]}, "properties": {}}, {"type": "Feature", "geometry": {"type": "Point", "coordinates": [4.11098, 51.17177]}, "properties": {}}, {"type": "Feature", "geometry": {"type": "Point", "coordinates": [6.1, 51.3]}, "properties": {}}, {"type": "Feature", "geometry": {"type": "Point", "coordinates": [5.15, 51.65]}, "properties": {}}, {"type": "Feature", "geometry": {"type": "Point", "coordinates": [4.45, 51.9]}, "properties": {}}, {"type": "Feature", "geometry": {"type": "Point", "coordinates": [6.1, 52.5]}, "properties": {}}, {"type": "Feature", "geometry": {"type": "Point", "coordinates": [5.6, 52.2]}, "properties": {}}, {"type": "Feature", "geometry": {"type": "Point", "coordinates": [6.0, 52.0]}, "properties": {}}, {"type": "Feature", "geometry": {"type": "Point", "coordinates": [5.7, 50.8]}, "properties": {}}, {"type": "Feature", "geometry": {"type": "Point", "coordinates": [5.65, 51.95]}, "properties": {}}, {"type": "Feature", "geometry": {"type": "Point", "coordinates": [5.05, 52.65]}, "properties": {}}, {"type": "Feature", "geometry": {"type": "Point", "coordinates": [6.1, 51.3]}, "properties": {}}, {"type": "Feature", "geometry": {"type": "Point", "coordinates": [6.1, 53.1]}, "properties": {}}, {"type": "Feature", "geometry": {"type": "Point", "coordinates": [4.8, 51.6]}, "properties": {}}, {"type": "Feature", "geometry": {"type": "Point", "coordinates": [4.2, 51.95]}, "properties": {}}, {"type": "Feature", "geometry": {"type": "Point", "coordinates": [4.85, 52.25]}, "properties": {}}, {"type": "Feature", "geometry": {"type": "Point", "coordinates": [6.0, 52.0]}, "properties": {}}, {"type": "Feature", "geometry": {"type": "Point", "coordinates": [4.2, 51.95]}, "properties": {}}, {"type": "Feature", "geometry": {"type": "Point", "coordinates": [5.85, 51.8]}, "properties": {}}, {"type": "Feature", "geometry": {"type": "Point", "coordinates": [5.8, 50.9]}, "properties": {}}, {"type": "Feature", "geometry": {"type": "Point", "coordinates": [5.65, 50.8]}, "properties": {}}, {"type": "Feature", "geometry": {"type": "Point", "coordinates": [5.1, 52.05]}, "properties": {}}, {"type": "Feature", "geometry": {"type": "Point", "coordinates": [4.45, 51.9]}, "properties": {}}, {"type": "Feature", "geometry": {"type": "Point", "coordinates": [5.75, 50.8]}, "properties": {}}, {"type": "Feature", "geometry": {"type": "Point", "coordinates": [5.85, 51.1]}, "properties": {}}, {"type": "Feature", "geometry": {"type": "Point", "coordinates": [5.1, 51.75]}, "properties": {}}, {"type": "Feature", "geometry": {"type": "Point", "coordinates": [5.65, 51.95]}, "properties": {}}, {"type": "Feature", "geometry": {"type": "Point", "coordinates": [5.65, 50.8]}, "properties": {}}, {"type": "Feature", "geometry": {"type": "Point", "coordinates": [3.85, 51.5]}, "properties": {}}, {"type": "Feature", "geometry": {"type": "Point", "coordinates": [4.26103, 50.83385]}, "properties": {}}, {"type": "Feature", "geometry": {"type": "Point", "coordinates": [4.45674, 50.82561]}, "properties": {}}, {"type": "Feature", "geometry": {"type": "Point", "coordinates": [3.71393, 51.04982]}, "properties": {}}, {"type": "Feature", "geometry": {"type": "Point", "coordinates": [4.6343, 51.13628]}, "properties": {}}, {"type": "Feature", "geometry": {"type": "Point", "coordinates": [4.51866, 51.27968]}, "properties": {}}, {"type": "Feature", "geometry": {"type": "Point", "coordinates": [3.73535, 51.05075]}, "properties": {}}, {"type": "Feature", "geometry": {"type": "Point", "coordinates": [4.32725, 50.82539]}, "properties": {}}, {"type": "Feature", "geometry": {"type": "Point", "coordinates": [5.01056, 51.32708]}, "properties": {}}, {"type": "Feature", "geometry": {"type": "Point", "coordinates": [4.20556, 50.89836]}, "properties": {}}, {"type": "Feature", "geometry": {"type": "Point", "coordinates": [4.79122, 51.31584]}, "properties": {}}, {"type": "Feature", "geometry": {"type": "Point", "coordinates": [5.63031, 51.05776]}, "properties": {}}, {"type": "Feature", "geometry": {"type": "Point", "coordinates": [4.37771, 50.85567]}, "properties": {}}, {"type": "Feature", "geometry": {"type": "Point", "coordinates": [4.41425, 50.84691]}, "properties": {}}, {"type": "Feature", "geometry": {"type": "Point", "coordinates": [4.38151, 50.8643]}, "properties": {}}, {"type": "Feature", "geometry": {"type": "Point", "coordinates": [5.01094, 51.32706]}, "properties": {}}, {"type": "Feature", "geometry": {"type": "Point", "coordinates": [4.5287, 51.42609]}, "properties": {}}, {"type": "Feature", "geometry": {"type": "Point", "coordinates": [4.80218, 50.8662]}, "properties": {}}, {"type": "Feature", "geometry": {"type": "Point", "coordinates": [4.45912, 50.8289]}, "properties": {}}, {"type": "Feature", "geometry": {"type": "Point", "coordinates": [4.50159, 50.88767]}, "properties": {}}, {"type": "Feature", "geometry": {"type": "Point", "coordinates": [3.96445, 50.95808]}, "properties": {}}, {"type": "Feature", "geometry": {"type": "Point", "coordinates": [3.17289, 51.13145]}, "properties": {}}, {"type": "Feature", "geometry": {"type": "Point", "coordinates": [3.29335, 50.83776]}, "properties": {}}, {"type": "Feature", "geometry": {"type": "Point", "coordinates": [4.35496, 50.85958]}, "properties": {}}, {"type": "Feature", "geometry": {"type": "Point", "coordinates": [144.922355, -38.375018]}, "properties": {}}, {"type": "Feature", "geometry": {"type": "Point", "coordinates": [-122.858558, 45.507355]}, "properties": {}}, {"type": "Feature", "geometry": {"type": "Point", "coordinates": [-122.482338, 48.753028]}, "properties": {}}, {"type": "Feature", "geometry": {"type": "Point", "coordinates": [-123.275696, 44.55558]}, "properties": {}}, {"type": "Feature", "geometry": {"type": "Point", "coordinates": [-122.272151, 37.852238]}, "properties": {}}, {"type": "Feature", "geometry": {"type": "Point", "coordinates": [8.672261, 49.684739]}, "properties": {}}, {"type": "Feature", "geometry": {"type": "Point", "coordinates": [-122.963937, 45.559832]}, "properties": {}}, {"type": "Feature", "geometry": {"type": "Point", "coordinates": [1.499407, 48.475442]}, "properties": {}}, {"type": "Feature", "geometry": {"type": "Point", "coordinates": [-89.539959, -0.887936]}, "properties": {}}, {"type": "Feature", "geometry": {"type": "Point", "coordinates": [-1.619817, 53.849751]}, "properties": {}}, {"type": "Feature", "geometry": {"type": "Point", "coordinates": [-2.045899, 50.731397]}, "properties": {}}, {"type": "Feature", "geometry": {"type": "Point", "coordinates": [1.700745, 52.413698]}, "properties": {}}, {"type": "Feature", "geometry": {"type": "Point", "coordinates": [-2.880239, 53.225004]}, "properties": {}}, {"type": "Feature", "geometry": {"type": "Point", "coordinates": [2.777255, 41.713699]}, "properties": {}}, {"type": "Feature", "geometry": {"type": "Point", "coordinates": [1.45661, 43.530567]}, "properties": {}}, {"type": "Feature", "geometry": {"type": "Point", "coordinates": [2.933161, 43.558702]}, "properties": {}}, {"type": "Feature", "geometry": {"type": "Point", "coordinates": [7.767055, 48.584432]}, "properties": {}}, {"type": "Feature", "geometry": {"type": "Point", "coordinates": [-123.030222, 44.934996]}, "properties": {}}, {"type": "Feature", "geometry": {"type": "Point", "coordinates": [-0.800451, 51.532823]}, "properties": {}}, {"type": "Feature", "geometry": {"type": "Point", "coordinates": [8.677288, 49.416689]}, "properties": {}}, {"type": "Feature", "geometry": {"type": "Point", "coordinates": [2.338328, 48.892193]}, "properties": {}}, {"type": "Feature", "geometry": {"type": "Point", "coordinates": [1.347615, 43.796668]}, "properties": {}}, {"type": "Feature", "geometry": {"type": "Point", "coordinates": [3.35328, 43.687916]}, "properties": {}}, {"type": "Feature", "geometry": {"type": "Point", "coordinates": [19.858463, 47.844155]}, "properties": {}}, {"type": "Feature", "geometry": {"type": "Point", "coordinates": [81.868355, 25.443972]}, "properties": {}}, {"type": "Feature", "geometry": {"type": "Point", "coordinates": [4.38758, 50.861855]}, "properties": {}}, {"type": "Feature", "geometry": {"type": "Point", "coordinates": [2.178362, 48.497889]}, "properties": {}}, {"type": "Feature", "geometry": {"type": "Point", "coordinates": [-1.697516, 52.381355]}, "properties": {}}, {"type": "Feature", "geometry": {"type": "Point", "coordinates": [11.664706, 44.349584]}, "properties": {}}, {"type": "Feature", "geometry": {"type": "Point", "coordinates": [2.381004, 48.827695]}, "properties": {}}, {"type": "Feature", "geometry": {"type": "Point", "coordinates": [3.1237, 45.992317]}, "properties": {}}, {"type": "Feature", "geometry": {"type": "Point", "coordinates": [-122.29631, 47.947083]}, "properties": {}}, {"type": "Feature", "geometry": {"type": "Point", "coordinates": [11.665979, 44.350708]}, "properties": {}}, {"type": "Feature", "geometry": {"type": "Point", "coordinates": [-122.113694, 48.172023]}, "properties": {}}, {"type": "Feature", "geometry": {"type": "Point", "coordinates": [8.386078, 50.513782]}, "properties": {}}, {"type": "Feature", "geometry": {"type": "Point", "coordinates": [4.75, 51.55]}, "properties": {}}, {"type": "Feature", "geometry": {"type": "Point", "coordinates": [4.45, 52.15]}, "properties": {}}, {"type": "Feature", "geometry": {"type": "Point", "coordinates": [5.65, 51.95]}, "properties": {}}, {"type": "Feature", "geometry": {"type": "Point", "coordinates": [4.8, 52.3]}, "properties": {}}, {"type": "Feature", "geometry": {"type": "Point", "coordinates": [4.85, 52.3]}, "properties": {}}, {"type": "Feature", "geometry": {"type": "Point", "coordinates": [6.1, 51.3]}, "properties": {}}, {"type": "Feature", "geometry": {"type": "Point", "coordinates": [4.55, 51.9]}, "properties": {}}, {"type": "Feature", "geometry": {"type": "Point", "coordinates": [4.2, 51.85]}, "properties": {}}, {"type": "Feature", "geometry": {"type": "Point", "coordinates": [3.69942, 51.06878]}, "properties": {}}, {"type": "Feature", "geometry": {"type": "Point", "coordinates": [3.70863, 51.05074]}, "properties": {}}, {"type": "Feature", "geometry": {"type": "Point", "coordinates": [3.68525, 51.05781]}, "properties": {}}, {"type": "Feature", "geometry": {"type": "Point", "coordinates": [3.68533, 51.05783]}, "properties": {}}, {"type": "Feature", "geometry": {"type": "Point", "coordinates": [5.09338, 50.87531]}, "properties": {}}, {"type": "Feature", "geometry": {"type": "Point", "coordinates": [4.33062, 50.98619]}, "properties": {}}, {"type": "Feature", "geometry": {"type": "Point", "coordinates": [3.41534, 50.96428]}, "properties": {}}, {"type": "Feature", "geometry": {"type": "Point", "coordinates": [4.42721, 51.19561]}, "properties": {}}]}