{"type": "FeatureCollection", "name": "Apium graveolens", "features": [{"type": "Feature", "geometry": {"type": "Point", "coordinates": [-78.492494, -0.341582]}, "properties": {}}, {"type": "Feature", "geometry": {"type": "Point", "coordinates": [173.229393, -41.320572]}, "properties": {}}, {"type": "Feature", "geometry": {"type": "Point", "coordinates": [-117.104393, 32.788887]}, "properties": {}}, {"type": "Feature", "geometry": {"type": "Point", "coordinates": [-117.709787, 33.532597]}, "properties": {}}, {"type": "Feature", "geometry": {"type": "Point", "coordinates": [138.605408, -35.549375]}, "properties": {}}, {"type": "Feature", "geometry": {"type": "Point", "coordinates": [-117.223232, 32.948762]}, "properties": {}}, {"type": "Feature", "geometry": {"type": "Point", "coordinates": [138.60437, -35.5494]}, "properties": {}}, {"type": "Feature", "geometry": {"type": "Point", "coordinates": [4.6, 52.35]}, "properties": {}}, {"type": "Feature", "geometry": {"type": "Point", "coordinates": [4.05, 51.9]}, "properties": {}}, {"type": "Feature", "geometry": {"type": "Point", "coordinates": [4.05, 51.9]}, "properties": {}}, {"type": "Feature", "geometry": {"type": "Point", "coordinates": [4.0, 51.8]}, "properties": {}}, {"type": "Feature", "geometry": {"type": "Point", "coordinates": [34.926094, 32.452156]}, "properties": {}}, {"type": "Feature", "geometry": {"type": "Point", "coordinates": [34.928456, 32.451989]}, "properties": {}}, {"type": "Feature", "geometry": {"type": "Point", "coordinates": [6.15, 52.0]}, "properties": {}}, {"type": "Feature", "geometry": {"type": "Point", "coordinates": [4.0, 51.8]}, "properties": {}}, {"type": "Feature", "geometry": {"type": "Point", "coordinates": [-117.264215, 33.198501]}, "properties": {}}, {"type": "Feature", "geometry": {"type": "Point", "coordinates": [170.965531, -42.712914]}, "properties": {}}, {"type": "Feature", "geometry": {"type": "Point", "coordinates": [144.772213, -37.664201]}, "properties": {}}, {"type": "Feature", "geometry": {"type": "Point", "coordinates": [-117.887285, 33.619677]}, "properties": {}}, {"type": "Feature", "geometry": {"type": "Point", "coordinates": [-117.185777, 32.923504]}, "properties": {}}, {"type": "Feature", "geometry": {"type": "Point", "coordinates": [-117.605972, 33.429736]}, "properties": {}}, {"type": "Feature", "geometry": {"type": "Point", "coordinates": [-117.233846, 32.839447]}, "properties": {}}, {"type": "Feature", "geometry": {"type": "Point", "coordinates": [4.0, 51.8]}, "properties": {}}, {"type": "Feature", "geometry": {"type": "Point", "coordinates": [5.8, 50.85]}, "properties": {}}, {"type": "Feature", "geometry": {"type": "Point", "coordinates": [4.6, 51.85]}, "properties": {}}, {"type": "Feature", "geometry": {"type": "Point", "coordinates": [6.1, 52.45]}, "properties": {}}, {"type": "Feature", "geometry": {"type": "Point", "coordinates": [-122.011275, 38.240605]}, "properties": {}}, {"type": "Feature", "geometry": {"type": "Point", "coordinates": [-117.06063, 32.817753]}, "properties": {}}, {"type": "Feature", "geometry": {"type": "Point", "coordinates": [-100.863434, 20.134923]}, "properties": {}}, {"type": "Feature", "geometry": {"type": "Point", "coordinates": [-117.892563, 33.644225]}, "properties": {}}, {"type": "Feature", "geometry": {"type": "Point", "coordinates": [-117.892469, 33.644856]}, "properties": {}}, {"type": "Feature", "geometry": {"type": "Point", "coordinates": [-117.746972, 33.50333]}, "properties": {}}, {"type": "Feature", "geometry": {"type": "Point", "coordinates": [4.3, 52.05]}, "properties": {}}, {"type": "Feature", "geometry": {"type": "Point", "coordinates": [-117.076234, 32.781956]}, "properties": {}}, {"type": "Feature", "geometry": {"type": "Point", "coordinates": [-117.182144, 32.797197]}, "properties": {}}, {"type": "Feature", "geometry": {"type": "Point", "coordinates": [-118.971014, 34.154464]}, "properties": {}}, {"type": "Feature", "geometry": {"type": "Point", "coordinates": [4.15, 51.6]}, "properties": {}}, {"type": "Feature", "geometry": {"type": "Point", "coordinates": [4.0, 51.8]}, "properties": {}}, {"type": "Feature", "geometry": {"type": "Point", "coordinates": [-122.146675, 38.02076]}, "properties": {}}, {"type": "Feature", "geometry": {"type": "Point", "coordinates": [113.554887, 22.139953]}, "properties": {}}, {"type": "Feature", "geometry": {"type": "Point", "coordinates": [113.554876, 22.13993]}, "properties": {}}, {"type": "Feature", "geometry": {"type": "Point", "coordinates": [4.4, 52.05]}, "properties": {}}, {"type": "Feature", "geometry": {"type": "Point", "coordinates": [4.6, 51.85]}, "properties": {}}, {"type": "Feature", "geometry": {"type": "Point", "coordinates": [4.05, 51.9]}, "properties": {}}, {"type": "Feature", "geometry": {"type": "Point", "coordinates": [3.7, 51.3]}, "properties": {}}, {"type": "Feature", "geometry": {"type": "Point", "coordinates": [-27.95684, 39.056548]}, "properties": {}}, {"type": "Feature", "geometry": {"type": "Point", "coordinates": [8.982243, 50.414222]}, "properties": {}}, {"type": "Feature", "geometry": {"type": "Point", "coordinates": [-117.756554, 33.524985]}, "properties": {}}, {"type": "Feature", "geometry": {"type": "Point", "coordinates": [-117.239255, 33.239397]}, "properties": {}}, {"type": "Feature", "geometry": {"type": "Point", "coordinates": [4.65, 52.45]}, "properties": {}}, {"type": "Feature", "geometry": {"type": "Point", "coordinates": [-117.023993, 32.671201]}, "properties": {}}, {"type": "Feature", "geometry": {"type": "Point", "coordinates": [5.0, 52.3]}, "properties": {}}, {"type": "Feature", "geometry": {"type": "Point", "coordinates": [4.65, 52.45]}, "properties": {}}, {"type": "Feature", "geometry": {"type": "Point", "coordinates": [4.65, 52.45]}, "properties": {}}, {"type": "Feature", "geometry": {"type": "Point", "coordinates": [4.65, 52.45]}, "properties": {}}, {"type": "Feature", "geometry": {"type": "Point", "coordinates": [5.5, 51.4]}, "properties": {}}, {"type": "Feature", "geometry": {"type": "Point", "coordinates": [-117.884601, 33.632511]}, "properties": {}}, {"type": "Feature", "geometry": {"type": "Point", "coordinates": [-117.884601, 33.632511]}, "properties": {}}, {"type": "Feature", "geometry": {"type": "Point", "coordinates": [35.395795, 32.662357]}, "properties": {}}, {"type": "Feature", "geometry": {"type": "Point", "coordinates": [35.491501, 32.404975]}, "properties": {}}, {"type": "Feature", "geometry": {"type": "Point", "coordinates": [3.7, 51.3]}, "properties": {}}, {"type": "Feature", "geometry": {"type": "Point", "coordinates": [4.45, 51.9]}, "properties": {}}, {"type": "Feature", "geometry": {"type": "Point", "coordinates": [35.446072, 32.497291]}, "properties": {}}, {"type": "Feature", "geometry": {"type": "Point", "coordinates": [35.445976, 32.497291]}, "properties": {}}, {"type": "Feature", "geometry": {"type": "Point", "coordinates": [35.522182, 32.466833]}, "properties": {}}, {"type": "Feature", "geometry": {"type": "Point", "coordinates": [35.523099, 32.467398]}, "properties": {}}, {"type": "Feature", "geometry": {"type": "Point", "coordinates": [35.446104, 32.497147]}, "properties": {}}, {"type": "Feature", "geometry": {"type": "Point", "coordinates": [35.521906, 32.466806]}, "properties": {}}, {"type": "Feature", "geometry": {"type": "Point", "coordinates": [3.7, 51.3]}, "properties": {}}, {"type": "Feature", "geometry": {"type": "Point", "coordinates": [5.35, 52.15]}, "properties": {}}, {"type": "Feature", "geometry": {"type": "Point", "coordinates": [-117.021925, 32.673142]}, "properties": {}}, {"type": "Feature", "geometry": {"type": "Point", "coordinates": [-117.762908, 33.869417]}, "properties": {}}, {"type": "Feature", "geometry": {"type": "Point", "coordinates": [-117.054325, 32.824353]}, "properties": {}}, {"type": "Feature", "geometry": {"type": "Point", "coordinates": [-117.239264, 33.239478]}, "properties": {}}, {"type": "Feature", "geometry": {"type": "Point", "coordinates": [-79.039057, -2.890977]}, "properties": {}}, {"type": "Feature", "geometry": {"type": "Point", "coordinates": [-117.054747, 32.823967]}, "properties": {}}, {"type": "Feature", "geometry": {"type": "Point", "coordinates": [-117.052272, 32.818922]}, "properties": {}}, {"type": "Feature", "geometry": {"type": "Point", "coordinates": [-117.211017, 32.844189]}, "properties": {}}, {"type": "Feature", "geometry": {"type": "Point", "coordinates": [174.802381, -41.320688]}, "properties": {}}, {"type": "Feature", "geometry": {"type": "Point", "coordinates": [-117.052314, 32.81907]}, "properties": {}}, {"type": "Feature", "geometry": {"type": "Point", "coordinates": [-118.003425, 33.703555]}, "properties": {}}, {"type": "Feature", "geometry": {"type": "Point", "coordinates": [8.983854, 50.414094]}, "properties": {}}, {"type": "Feature", "geometry": {"type": "Point", "coordinates": [-117.054397, 32.824308]}, "properties": {}}, {"type": "Feature", "geometry": {"type": "Point", "coordinates": [-99.090513, 19.295387]}, "properties": {}}, {"type": "Feature", "geometry": {"type": "Point", "coordinates": [-2.970608, 53.504564]}, "properties": {}}, {"type": "Feature", "geometry": {"type": "Point", "coordinates": [-117.062034, 32.821229]}, "properties": {}}, {"type": "Feature", "geometry": {"type": "Point", "coordinates": [-117.180692, 32.797966]}, "properties": {}}, {"type": "Feature", "geometry": {"type": "Point", "coordinates": [-117.037841, 32.841829]}, "properties": {}}, {"type": "Feature", "geometry": {"type": "Point", "coordinates": [-99.106535, 19.269568]}, "properties": {}}, {"type": "Feature", "geometry": {"type": "Point", "coordinates": [-117.077605, 32.745033]}, "properties": {}}, {"type": "Feature", "geometry": {"type": "Point", "coordinates": [-99.111031, 19.276916]}, "properties": {}}, {"type": "Feature", "geometry": {"type": "Point", "coordinates": [-117.062108, 32.820475]}, "properties": {}}, {"type": "Feature", "geometry": {"type": "Point", "coordinates": [-116.994992, 32.864864]}, "properties": {}}, {"type": "Feature", "geometry": {"type": "Point", "coordinates": [-99.108489, 19.274454]}, "properties": {}}, {"type": "Feature", "geometry": {"type": "Point", "coordinates": [-117.015267, 32.823016]}, "properties": {}}, {"type": "Feature", "geometry": {"type": "Point", "coordinates": [-119.186005, 34.956363]}, "properties": {}}, {"type": "Feature", "geometry": {"type": "Point", "coordinates": [-117.274051, 33.175565]}, "properties": {}}, {"type": "Feature", "geometry": {"type": "Point", "coordinates": [-28.253385, 38.393247]}, "properties": {}}, {"type": "Feature", "geometry": {"type": "Point", "coordinates": [-117.177651, 32.799834]}, "properties": {}}, {"type": "Feature", "geometry": {"type": "Point", "coordinates": [-117.075103, 32.78557]}, "properties": {}}, {"type": "Feature", "geometry": {"type": "Point", "coordinates": [4.9, 52.35]}, "properties": {}}, {"type": "Feature", "geometry": {"type": "Point", "coordinates": [4.65, 51.95]}, "properties": {}}, {"type": "Feature", "geometry": {"type": "Point", "coordinates": [-116.912792, 33.349208]}, "properties": {}}, {"type": "Feature", "geometry": {"type": "Point", "coordinates": [-117.035836, 32.699488]}, "properties": {}}, {"type": "Feature", "geometry": {"type": "Point", "coordinates": [-117.023422, 32.643362]}, "properties": {}}, {"type": "Feature", "geometry": {"type": "Point", "coordinates": [-117.023564, 32.644648]}, "properties": {}}, {"type": "Feature", "geometry": {"type": "Point", "coordinates": [-117.023408, 32.643341]}, "properties": {}}, {"type": "Feature", "geometry": {"type": "Point", "coordinates": [-117.211549, 32.860121]}, "properties": {}}, {"type": "Feature", "geometry": {"type": "Point", "coordinates": [-117.023383, 32.643413]}, "properties": {}}, {"type": "Feature", "geometry": {"type": "Point", "coordinates": [-117.119473, 32.532818]}, "properties": {}}, {"type": "Feature", "geometry": {"type": "Point", "coordinates": [-117.016623, 32.644129]}, "properties": {}}, {"type": "Feature", "geometry": {"type": "Point", "coordinates": [-117.110138, 32.780365]}, "properties": {}}, {"type": "Feature", "geometry": {"type": "Point", "coordinates": [-116.97572, 32.674409]}, "properties": {}}, {"type": "Feature", "geometry": {"type": "Point", "coordinates": [-116.976069, 32.674256]}, "properties": {}}, {"type": "Feature", "geometry": {"type": "Point", "coordinates": [-116.822861, 32.678433]}, "properties": {}}, {"type": "Feature", "geometry": {"type": "Point", "coordinates": [-117.016623, 32.644129]}, "properties": {}}, {"type": "Feature", "geometry": {"type": "Point", "coordinates": [4.85, 52.35]}, "properties": {}}, {"type": "Feature", "geometry": {"type": "Point", "coordinates": [5.8, 50.95]}, "properties": {}}, {"type": "Feature", "geometry": {"type": "Point", "coordinates": [4.1, 51.8]}, "properties": {}}, {"type": "Feature", "geometry": {"type": "Point", "coordinates": [4.05, 51.9]}, "properties": {}}, {"type": "Feature", "geometry": {"type": "Point", "coordinates": [4.05, 51.9]}, "properties": {}}, {"type": "Feature", "geometry": {"type": "Point", "coordinates": [4.05, 51.9]}, "properties": {}}, {"type": "Feature", "geometry": {"type": "Point", "coordinates": [5.1, 52.05]}, "properties": {}}, {"type": "Feature", "geometry": {"type": "Point", "coordinates": [5.0, 52.55]}, "properties": {}}, {"type": "Feature", "geometry": {"type": "Point", "coordinates": [4.2, 51.35]}, "properties": {}}, {"type": "Feature", "geometry": {"type": "Point", "coordinates": [4.05, 51.9]}, "properties": {}}, {"type": "Feature", "geometry": {"type": "Point", "coordinates": [4.0, 51.8]}, "properties": {}}, {"type": "Feature", "geometry": {"type": "Point", "coordinates": [4.3, 52.0]}, "properties": {}}, {"type": "Feature", "geometry": {"type": "Point", "coordinates": [3.65, 51.55]}, "properties": {}}, {"type": "Feature", "geometry": {"type": "Point", "coordinates": [3.95, 51.75]}, "properties": {}}, {"type": "Feature", "geometry": {"type": "Point", "coordinates": [4.85, 52.35]}, "properties": {}}, {"type": "Feature", "geometry": {"type": "Point", "coordinates": [4.05, 51.9]}, "properties": {}}, {"type": "Feature", "geometry": {"type": "Point", "coordinates": [4.85, 52.35]}, "properties": {}}, {"type": "Feature", "geometry": {"type": "Point", "coordinates": [5.8, 50.95]}, "properties": {}}, {"type": "Feature", "geometry": {"type": "Point", "coordinates": [34.919096, 32.536677]}, "properties": {}}, {"type": "Feature", "geometry": {"type": "Point", "coordinates": [34.920944, 32.544716]}, "properties": {}}, {"type": "Feature", "geometry": {"type": "Point", "coordinates": [34.918433, 32.534187]}, "properties": {}}, {"type": "Feature", "geometry": {"type": "Point", "coordinates": [34.911513, 32.54428]}, "properties": {}}, {"type": "Feature", "geometry": {"type": "Point", "coordinates": [5.1, 52.05]}, "properties": {}}, {"type": "Feature", "geometry": {"type": "Point", "coordinates": [18.872032, -33.927831]}, "properties": {}}, {"type": "Feature", "geometry": {"type": "Point", "coordinates": [-117.11846, 32.943205]}, "properties": {}}, {"type": "Feature", "geometry": {"type": "Point", "coordinates": [144.936621, -37.802045]}, "properties": {}}, {"type": "Feature", "geometry": {"type": "Point", "coordinates": [-118.6482, 34.094247]}, "properties": {}}, {"type": "Feature", "geometry": {"type": "Point", "coordinates": [4.15, 51.3]}, "properties": {}}, {"type": "Feature", "geometry": {"type": "Point", "coordinates": [4.65, 51.95]}, "properties": {}}, {"type": "Feature", "geometry": {"type": "Point", "coordinates": [3.95, 51.8]}, "properties": {}}, {"type": "Feature", "geometry": {"type": "Point", "coordinates": [3.95, 51.8]}, "properties": {}}, {"type": "Feature", "geometry": {"type": "Point", "coordinates": [4.25, 51.65]}, "properties": {}}, {"type": "Feature", "geometry": {"type": "Point", "coordinates": [4.0, 51.8]}, "properties": {}}, {"type": "Feature", "geometry": {"type": "Point", "coordinates": [4.8, 53.1]}, "properties": {}}, {"type": "Feature", "geometry": {"type": "Point", "coordinates": [4.85, 52.35]}, "properties": {}}, {"type": "Feature", "geometry": {"type": "Point", "coordinates": [-119.091208, 34.428867]}, "properties": {}}, {"type": "Feature", "geometry": {"type": "Point", "coordinates": [23.732238, 38.031629]}, "properties": {}}, {"type": "Feature", "geometry": {"type": "Point", "coordinates": [-117.142255, 32.953788]}, "properties": {}}, {"type": "Feature", "geometry": {"type": "Point", "coordinates": [-117.039172, 32.633368]}, "properties": {}}, {"type": "Feature", "geometry": {"type": "Point", "coordinates": [-118.812605, 34.289263]}, "properties": {}}, {"type": "Feature", "geometry": {"type": "Point", "coordinates": [-117.043725, 32.71017]}, "properties": {}}, {"type": "Feature", "geometry": {"type": "Point", "coordinates": [73.375107, 18.790451]}, "properties": {}}, {"type": "Feature", "geometry": {"type": "Point", "coordinates": [-117.355824, 33.171845]}, "properties": {}}, {"type": "Feature", "geometry": {"type": "Point", "coordinates": [138.917955, -34.583028]}, "properties": {}}, {"type": "Feature", "geometry": {"type": "Point", "coordinates": [12.768263, 46.828113]}, "properties": {}}, {"type": "Feature", "geometry": {"type": "Point", "coordinates": [-117.160267, 33.076533]}, "properties": {}}, {"type": "Feature", "geometry": {"type": "Point", "coordinates": [24.834586, 35.026817]}, "properties": {}}, {"type": "Feature", "geometry": {"type": "Point", "coordinates": [-49.730411, -29.352015]}, "properties": {}}, {"type": "Feature", "geometry": {"type": "Point", "coordinates": [3.95, 51.8]}, "properties": {}}, {"type": "Feature", "geometry": {"type": "Point", "coordinates": [4.65, 51.95]}, "properties": {}}, {"type": "Feature", "geometry": {"type": "Point", "coordinates": [107.663928, -7.204246]}, "properties": {}}, {"type": "Feature", "geometry": {"type": "Point", "coordinates": [-78.56704, -0.90599]}, "properties": {}}, {"type": "Feature", "geometry": {"type": "Point", "coordinates": [4.0, 51.8]}, "properties": {}}, {"type": "Feature", "geometry": {"type": "Point", "coordinates": [138.579955, -34.912888]}, "properties": {}}, {"type": "Feature", "geometry": {"type": "Point", "coordinates": [-117.800768, 33.676645]}, "properties": {}}, {"type": "Feature", "geometry": {"type": "Point", "coordinates": [-91.988789, 16.247015]}, "properties": {}}, {"type": "Feature", "geometry": {"type": "Point", "coordinates": [2.441919, 48.839673]}, "properties": {}}, {"type": "Feature", "geometry": {"type": "Point", "coordinates": [-117.060811, 32.82196]}, "properties": {}}, {"type": "Feature", "geometry": {"type": "Point", "coordinates": [34.98419, 31.7296]}, "properties": {}}, {"type": "Feature", "geometry": {"type": "Point", "coordinates": [5.65, 51.95]}, "properties": {}}, {"type": "Feature", "geometry": {"type": "Point", "coordinates": [4.9, 52.35]}, "properties": {}}, {"type": "Feature", "geometry": {"type": "Point", "coordinates": [4.0, 51.8]}, "properties": {}}, {"type": "Feature", "geometry": {"type": "Point", "coordinates": [4.35, 51.9]}, "properties": {}}, {"type": "Feature", "geometry": {"type": "Point", "coordinates": [4.6, 52.6]}, "properties": {}}, {"type": "Feature", "geometry": {"type": "Point", "coordinates": [4.35, 51.9]}, "properties": {}}, {"type": "Feature", "geometry": {"type": "Point", "coordinates": [-117.099258, 32.832638]}, "properties": {}}, {"type": "Feature", "geometry": {"type": "Point", "coordinates": [-117.061858, 32.650467]}, "properties": {}}, {"type": "Feature", "geometry": {"type": "Point", "coordinates": [144.651795, -37.909855]}, "properties": {}}, {"type": "Feature", "geometry": {"type": "Point", "coordinates": [-117.305322, 33.147619]}, "properties": {}}, {"type": "Feature", "geometry": {"type": "Point", "coordinates": [-116.861337, 32.847912]}, "properties": {}}, {"type": "Feature", "geometry": {"type": "Point", "coordinates": [-117.269086, 33.176755]}, "properties": {}}, {"type": "Feature", "geometry": {"type": "Point", "coordinates": [5.1, 52.05]}, "properties": {}}, {"type": "Feature", "geometry": {"type": "Point", "coordinates": [144.87024, -37.85651]}, "properties": {}}, {"type": "Feature", "geometry": {"type": "Point", "coordinates": [-28.628639, 38.522473]}, "properties": {}}, {"type": "Feature", "geometry": {"type": "Point", "coordinates": [3.247164, 50.716397]}, "properties": {}}, {"type": "Feature", "geometry": {"type": "Point", "coordinates": [-117.239317, 33.239353]}, "properties": {}}, {"type": "Feature", "geometry": {"type": "Point", "coordinates": [-117.062575, 32.821128]}, "properties": {}}, {"type": "Feature", "geometry": {"type": "Point", "coordinates": [150.635136, -33.6717]}, "properties": {}}, {"type": "Feature", "geometry": {"type": "Point", "coordinates": [34.954025, 32.501079]}, "properties": {}}, {"type": "Feature", "geometry": {"type": "Point", "coordinates": [-117.689042, 33.462208]}, "properties": {}}, {"type": "Feature", "geometry": {"type": "Point", "coordinates": [0.144788, 53.598142]}, "properties": {}}, {"type": "Feature", "geometry": {"type": "Point", "coordinates": [0.141446, 53.616417]}, "properties": {}}, {"type": "Feature", "geometry": {"type": "Point", "coordinates": [4.65, 52.05]}, "properties": {}}, {"type": "Feature", "geometry": {"type": "Point", "coordinates": [4.15, 51.3]}, "properties": {}}, {"type": "Feature", "geometry": {"type": "Point", "coordinates": [4.9, 52.35]}, "properties": {}}, {"type": "Feature", "geometry": {"type": "Point", "coordinates": [4.9, 52.35]}, "properties": {}}, {"type": "Feature", "geometry": {"type": "Point", "coordinates": [3.6, 51.45]}, "properties": {}}, {"type": "Feature", "geometry": {"type": "Point", "coordinates": [5.05, 52.1]}, "properties": {}}, {"type": "Feature", "geometry": {"type": "Point", "coordinates": [-117.167547, 32.955074]}, "properties": {}}, {"type": "Feature", "geometry": {"type": "Point", "coordinates": [6.383499, 43.006906]}, "properties": {}}, {"type": "Feature", "geometry": {"type": "Point", "coordinates": [-117.645155, 33.505788]}, "properties": {}}, {"type": "Feature", "geometry": {"type": "Point", "coordinates": [-116.929878, 32.743947]}, "properties": {}}, {"type": "Feature", "geometry": {"type": "Point", "coordinates": [-121.698037, 37.847867]}, "properties": {}}, {"type": "Feature", "geometry": {"type": "Point", "coordinates": [-117.694037, 33.64886]}, "properties": {}}, {"type": "Feature", "geometry": {"type": "Point", "coordinates": [-117.017228, 32.643803]}, "properties": {}}, {"type": "Feature", "geometry": {"type": "Point", "coordinates": [-77.495828, 37.433731]}, "properties": {}}, {"type": "Feature", "geometry": {"type": "Point", "coordinates": [-117.019172, 32.644344]}, "properties": {}}, {"type": "Feature", "geometry": {"type": "Point", "coordinates": [-117.86332, 33.615788]}, "properties": {}}, {"type": "Feature", "geometry": {"type": "Point", "coordinates": [-78.372846, -0.155602]}, "properties": {}}, {"type": "Feature", "geometry": {"type": "Point", "coordinates": [-118.047216, 33.696031]}, "properties": {}}, {"type": "Feature", "geometry": {"type": "Point", "coordinates": [121.152182, 27.823901]}, "properties": {}}, {"type": "Feature", "geometry": {"type": "Point", "coordinates": [4.3, 52.05]}, "properties": {}}, {"type": "Feature", "geometry": {"type": "Point", "coordinates": [19.91521, 39.618818]}, "properties": {}}, {"type": "Feature", "geometry": {"type": "Point", "coordinates": [-117.658097, 33.592412]}, "properties": {}}, {"type": "Feature", "geometry": {"type": "Point", "coordinates": [-116.90663, 32.450522]}, "properties": {}}, {"type": "Feature", "geometry": {"type": "Point", "coordinates": [-116.907322, 32.448102]}, "properties": {}}, {"type": "Feature", "geometry": {"type": "Point", "coordinates": [-117.035572, 32.846844]}, "properties": {}}, {"type": "Feature", "geometry": {"type": "Point", "coordinates": [-117.035572, 32.846844]}, "properties": {}}, {"type": "Feature", "geometry": {"type": "Point", "coordinates": [-116.906669, 32.450608]}, "properties": {}}, {"type": "Feature", "geometry": {"type": "Point", "coordinates": [-117.169687, 33.069847]}, "properties": {}}, {"type": "Feature", "geometry": {"type": "Point", "coordinates": [-116.906678, 32.450603]}, "properties": {}}, {"type": "Feature", "geometry": {"type": "Point", "coordinates": [-117.258408, 33.008597]}, "properties": {}}, {"type": "Feature", "geometry": {"type": "Point", "coordinates": [-116.906639, 32.4506]}, "properties": {}}, {"type": "Feature", "geometry": {"type": "Point", "coordinates": [-117.065895, 32.778557]}, "properties": {}}, {"type": "Feature", "geometry": {"type": "Point", "coordinates": [-117.063775, 32.805906]}, "properties": {}}, {"type": "Feature", "geometry": {"type": "Point", "coordinates": [-117.063725, 32.805817]}, "properties": {}}, {"type": "Feature", "geometry": {"type": "Point", "coordinates": [-117.142317, 32.973561]}, "properties": {}}, {"type": "Feature", "geometry": {"type": "Point", "coordinates": [-116.907303, 32.448078]}, "properties": {}}, {"type": "Feature", "geometry": {"type": "Point", "coordinates": [-116.822967, 32.678133]}, "properties": {}}, {"type": "Feature", "geometry": {"type": "Point", "coordinates": [-117.06215, 32.820495]}, "properties": {}}, {"type": "Feature", "geometry": {"type": "Point", "coordinates": [-117.01015, 32.816068]}, "properties": {}}, {"type": "Feature", "geometry": {"type": "Point", "coordinates": [-25.156573, 37.005006]}, "properties": {}}, {"type": "Feature", "geometry": {"type": "Point", "coordinates": [-117.306264, 33.269891]}, "properties": {}}, {"type": "Feature", "geometry": {"type": "Point", "coordinates": [-116.907311, 32.448083]}, "properties": {}}, {"type": "Feature", "geometry": {"type": "Point", "coordinates": [-117.031836, 32.841062]}, "properties": {}}, {"type": "Feature", "geometry": {"type": "Point", "coordinates": [-116.819083, 32.680958]}, "properties": {}}, {"type": "Feature", "geometry": {"type": "Point", "coordinates": [-116.907311, 32.448086]}, "properties": {}}, {"type": "Feature", "geometry": {"type": "Point", "coordinates": [-117.239455, 33.24026]}, "properties": {}}, {"type": "Feature", "geometry": {"type": "Point", "coordinates": [-117.116914, 32.94408]}, "properties": {}}, {"type": "Feature", "geometry": {"type": "Point", "coordinates": [-116.90728, 32.44808]}, "properties": {}}, {"type": "Feature", "geometry": {"type": "Point", "coordinates": [-117.037929, 32.841087]}, "properties": {}}, {"type": "Feature", "geometry": {"type": "Point", "coordinates": [-117.578658, 33.450978]}, "properties": {}}, {"type": "Feature", "geometry": {"type": "Point", "coordinates": [-116.572339, 32.893777]}, "properties": {}}, {"type": "Feature", "geometry": {"type": "Point", "coordinates": [-117.243112, 33.009675]}, "properties": {}}, {"type": "Feature", "geometry": {"type": "Point", "coordinates": [-75.643734, 6.17828]}, "properties": {}}, {"type": "Feature", "geometry": {"type": "Point", "coordinates": [-117.27842, 33.173078]}, "properties": {}}, {"type": "Feature", "geometry": {"type": "Point", "coordinates": [-116.9081, 32.764463]}, "properties": {}}, {"type": "Feature", "geometry": {"type": "Point", "coordinates": [-117.009034, 32.625818]}, "properties": {}}, {"type": "Feature", "geometry": {"type": "Point", "coordinates": [172.443786, -43.627753]}, "properties": {}}, {"type": "Feature", "geometry": {"type": "Point", "coordinates": [1.052009, 52.956804]}, "properties": {}}, {"type": "Feature", "geometry": {"type": "Point", "coordinates": [-3.46925, 56.031828]}, "properties": {}}, {"type": "Feature", "geometry": {"type": "Point", "coordinates": [4.774574, 43.407411]}, "properties": {}}, {"type": "Feature", "geometry": {"type": "Point", "coordinates": [1.051881, 52.956293]}, "properties": {}}, {"type": "Feature", "geometry": {"type": "Point", "coordinates": [-1.728199, 54.965823]}, "properties": {}}, {"type": "Feature", "geometry": {"type": "Point", "coordinates": [1.052009, 52.956804]}, "properties": {}}, {"type": "Feature", "geometry": {"type": "Point", "coordinates": [-3.46925, 56.031828]}, "properties": {}}, {"type": "Feature", "geometry": {"type": "Point", "coordinates": [1.051881, 52.956293]}, "properties": {}}, {"type": "Feature", "geometry": {"type": "Point", "coordinates": [4.55, 51.95]}, "properties": {}}, {"type": "Feature", "geometry": {"type": "Point", "coordinates": [4.35, 52.0]}, "properties": {}}, {"type": "Feature", "geometry": {"type": "Point", "coordinates": [-117.119117, 32.944163]}, "properties": {}}, {"type": "Feature", "geometry": {"type": "Point", "coordinates": [-117.649131, 33.565574]}, "properties": {}}, {"type": "Feature", "geometry": {"type": "Point", "coordinates": [-66.181943, -17.380259]}, "properties": {}}, {"type": "Feature", "geometry": {"type": "Point", "coordinates": [-118.047211, 33.695988]}, "properties": {}}, {"type": "Feature", "geometry": {"type": "Point", "coordinates": [-115.934171, 32.552362]}, "properties": {}}, {"type": "Feature", "geometry": {"type": "Point", "coordinates": [-116.822895, 32.678192]}, "properties": {}}, {"type": "Feature", "geometry": {"type": "Point", "coordinates": [-116.8229, 32.678187]}, "properties": {}}, {"type": "Feature", "geometry": {"type": "Point", "coordinates": [4.15, 51.3]}, "properties": {}}, {"type": "Feature", "geometry": {"type": "Point", "coordinates": [3.95, 51.8]}, "properties": {}}, {"type": "Feature", "geometry": {"type": "Point", "coordinates": [3.95, 51.8]}, "properties": {}}, {"type": "Feature", "geometry": {"type": "Point", "coordinates": [3.7, 51.3]}, "properties": {}}, {"type": "Feature", "geometry": {"type": "Point", "coordinates": [4.15, 51.3]}, "properties": {}}, {"type": "Feature", "geometry": {"type": "Point", "coordinates": [4.15, 51.3]}, "properties": {}}, {"type": "Feature", "geometry": {"type": "Point", "coordinates": [4.1, 51.95]}, "properties": {}}, {"type": "Feature", "geometry": {"type": "Point", "coordinates": [4.15, 51.3]}, "properties": {}}, {"type": "Feature", "geometry": {"type": "Point", "coordinates": [4.15, 51.3]}, "properties": {}}, {"type": "Feature", "geometry": {"type": "Point", "coordinates": [4.15, 51.3]}, "properties": {}}, {"type": "Feature", "geometry": {"type": "Point", "coordinates": [4.15, 51.3]}, "properties": {}}, {"type": "Feature", "geometry": {"type": "Point", "coordinates": [4.2, 51.65]}, "properties": {}}, {"type": "Feature", "geometry": {"type": "Point", "coordinates": [3.85, 51.6]}, "properties": {}}, {"type": "Feature", "geometry": {"type": "Point", "coordinates": [-117.042418, 32.698413]}, "properties": {}}, {"type": "Feature", "geometry": {"type": "Point", "coordinates": [-118.648018, 34.094306]}, "properties": {}}, {"type": "Feature", "geometry": {"type": "Point", "coordinates": [-117.008011, 32.635073]}, "properties": {}}, {"type": "Feature", "geometry": {"type": "Point", "coordinates": [-116.896766, 32.729454]}, "properties": {}}, {"type": "Feature", "geometry": {"type": "Point", "coordinates": [-117.019169, 32.644444]}, "properties": {}}, {"type": "Feature", "geometry": {"type": "Point", "coordinates": [138.905352, -35.079349]}, "properties": {}}, {"type": "Feature", "geometry": {"type": "Point", "coordinates": [-117.150252, 32.937636]}, "properties": {}}, {"type": "Feature", "geometry": {"type": "Point", "coordinates": [-116.403962, 32.67965]}, "properties": {}}, {"type": "Feature", "geometry": {"type": "Point", "coordinates": [-117.202392, 33.09507]}, "properties": {}}, {"type": "Feature", "geometry": {"type": "Point", "coordinates": [-117.017035, 32.643782]}, "properties": {}}, {"type": "Feature", "geometry": {"type": "Point", "coordinates": [3.8, 51.3]}, "properties": {}}, {"type": "Feature", "geometry": {"type": "Point", "coordinates": [3.85, 51.6]}, "properties": {}}, {"type": "Feature", "geometry": {"type": "Point", "coordinates": [4.0, 51.9]}, "properties": {}}, {"type": "Feature", "geometry": {"type": "Point", "coordinates": [-121.90262, 37.340649]}, "properties": {}}, {"type": "Feature", "geometry": {"type": "Point", "coordinates": [144.934128, -37.755705]}, "properties": {}}]}