{"type": "FeatureCollection", "name": "Aloysia citrodora", "features": [{"type": "Feature", "geometry": {"type": "Point", "coordinates": [-65.423198, -24.782072]}, "properties": {}}, {"type": "Feature", "geometry": {"type": "Point", "coordinates": [173.295446, -41.263851]}, "properties": {}}, {"type": "Feature", "geometry": {"type": "Point", "coordinates": [29.979613, -29.354911]}, "properties": {}}, {"type": "Feature", "geometry": {"type": "Point", "coordinates": [-78.416402, -0.385929]}, "properties": {}}, {"type": "Feature", "geometry": {"type": "Point", "coordinates": [-78.451195, -0.3338]}, "properties": {}}, {"type": "Feature", "geometry": {"type": "Point", "coordinates": [-78.233432, 0.01659]}, "properties": {}}, {"type": "Feature", "geometry": {"type": "Point", "coordinates": [-99.057474, 19.430841]}, "properties": {}}, {"type": "Feature", "geometry": {"type": "Point", "coordinates": [175.300413, -40.60873]}, "properties": {}}, {"type": "Feature", "geometry": {"type": "Point", "coordinates": [172.459626, -43.64688]}, "properties": {}}, {"type": "Feature", "geometry": {"type": "Point", "coordinates": [-78.460323, -0.296663]}, "properties": {}}, {"type": "Feature", "geometry": {"type": "Point", "coordinates": [-78.43277, -0.343597]}, "properties": {}}, {"type": "Feature", "geometry": {"type": "Point", "coordinates": [172.459648, -43.646914]}, "properties": {}}, {"type": "Feature", "geometry": {"type": "Point", "coordinates": [-78.567961, -0.506207]}, "properties": {}}, {"type": "Feature", "geometry": {"type": "Point", "coordinates": [-99.14968, 19.428145]}, "properties": {}}, {"type": "Feature", "geometry": {"type": "Point", "coordinates": [-118.251016, 33.860375]}, "properties": {}}, {"type": "Feature", "geometry": {"type": "Point", "coordinates": [-62.061043, -26.13593]}, "properties": {}}, {"type": "Feature", "geometry": {"type": "Point", "coordinates": [-70.662193, -33.529047]}, "properties": {}}, {"type": "Feature", "geometry": {"type": "Point", "coordinates": [-78.568316, -0.507393]}, "properties": {}}, {"type": "Feature", "geometry": {"type": "Point", "coordinates": [-70.873641, -53.139314]}, "properties": {}}, {"type": "Feature", "geometry": {"type": "Point", "coordinates": [-64.603616, -37.378759]}, "properties": {}}, {"type": "Feature", "geometry": {"type": "Point", "coordinates": [-65.066192, -32.35302]}, "properties": {}}, {"type": "Feature", "geometry": {"type": "Point", "coordinates": [-79.008841, -2.90046]}, "properties": {}}, {"type": "Feature", "geometry": {"type": "Point", "coordinates": [-78.533397, -0.267016]}, "properties": {}}, {"type": "Feature", "geometry": {"type": "Point", "coordinates": [-79.02422, -2.920743]}, "properties": {}}, {"type": "Feature", "geometry": {"type": "Point", "coordinates": [-79.010474, -2.901332]}, "properties": {}}, {"type": "Feature", "geometry": {"type": "Point", "coordinates": [-79.01771, -2.915298]}, "properties": {}}, {"type": "Feature", "geometry": {"type": "Point", "coordinates": [-78.468844, -0.35632]}, "properties": {}}, {"type": "Feature", "geometry": {"type": "Point", "coordinates": [-76.863642, -0.289888]}, "properties": {}}, {"type": "Feature", "geometry": {"type": "Point", "coordinates": [-78.667319, -0.842667]}, "properties": {}}, {"type": "Feature", "geometry": {"type": "Point", "coordinates": [-78.125094, -0.117475]}, "properties": {}}, {"type": "Feature", "geometry": {"type": "Point", "coordinates": [-70.536634, -33.40799]}, "properties": {}}, {"type": "Feature", "geometry": {"type": "Point", "coordinates": [2.642147, 41.75515]}, "properties": {}}, {"type": "Feature", "geometry": {"type": "Point", "coordinates": [-78.637528, -1.260744]}, "properties": {}}, {"type": "Feature", "geometry": {"type": "Point", "coordinates": [-70.659987, -33.683476]}, "properties": {}}, {"type": "Feature", "geometry": {"type": "Point", "coordinates": [-65.849956, -25.166026]}, "properties": {}}, {"type": "Feature", "geometry": {"type": "Point", "coordinates": [-67.604047, -29.076389]}, "properties": {}}, {"type": "Feature", "geometry": {"type": "Point", "coordinates": [-63.804523, -35.6438]}, "properties": {}}, {"type": "Feature", "geometry": {"type": "Point", "coordinates": [-78.544639, -0.486852]}, "properties": {}}, {"type": "Feature", "geometry": {"type": "Point", "coordinates": [-79.046189, -2.936305]}, "properties": {}}, {"type": "Feature", "geometry": {"type": "Point", "coordinates": [-79.216003, -2.855422]}, "properties": {}}, {"type": "Feature", "geometry": {"type": "Point", "coordinates": [-78.584069, -0.470099]}, "properties": {}}, {"type": "Feature", "geometry": {"type": "Point", "coordinates": [-79.025694, -2.91067]}, "properties": {}}, {"type": "Feature", "geometry": {"type": "Point", "coordinates": [5.42381, 43.291358]}, "properties": {}}, {"type": "Feature", "geometry": {"type": "Point", "coordinates": [-54.237885, -25.341927]}, "properties": {}}, {"type": "Feature", "geometry": {"type": "Point", "coordinates": [-78.78534, -2.893371]}, "properties": {}}, {"type": "Feature", "geometry": {"type": "Point", "coordinates": [-77.732752, 0.593188]}, "properties": {}}, {"type": "Feature", "geometry": {"type": "Point", "coordinates": [-78.823254, -1.712401]}, "properties": {}}, {"type": "Feature", "geometry": {"type": "Point", "coordinates": [-78.855997, -2.718537]}, "properties": {}}, {"type": "Feature", "geometry": {"type": "Point", "coordinates": [-78.963436, -2.858175]}, "properties": {}}, {"type": "Feature", "geometry": {"type": "Point", "coordinates": [-77.929073, 0.394471]}, "properties": {}}, {"type": "Feature", "geometry": {"type": "Point", "coordinates": [-78.216638, 0.283894]}, "properties": {}}, {"type": "Feature", "geometry": {"type": "Point", "coordinates": [-77.735589, 0.800407]}, "properties": {}}, {"type": "Feature", "geometry": {"type": "Point", "coordinates": [-78.596153, -1.31535]}, "properties": {}}, {"type": "Feature", "geometry": {"type": "Point", "coordinates": [-78.607243, -1.380705]}, "properties": {}}, {"type": "Feature", "geometry": {"type": "Point", "coordinates": [-78.236337, 0.301403]}, "properties": {}}, {"type": "Feature", "geometry": {"type": "Point", "coordinates": [-78.235814, 0.30063]}, "properties": {}}, {"type": "Feature", "geometry": {"type": "Point", "coordinates": [-78.238477, 0.297146]}, "properties": {}}, {"type": "Feature", "geometry": {"type": "Point", "coordinates": [7.009909, 43.645766]}, "properties": {}}, {"type": "Feature", "geometry": {"type": "Point", "coordinates": [-78.859712, -2.788847]}, "properties": {}}, {"type": "Feature", "geometry": {"type": "Point", "coordinates": [29.467237, -23.900581]}, "properties": {}}, {"type": "Feature", "geometry": {"type": "Point", "coordinates": [-78.849991, -0.350747]}, "properties": {}}, {"type": "Feature", "geometry": {"type": "Point", "coordinates": [-78.425031, -0.457825]}, "properties": {}}, {"type": "Feature", "geometry": {"type": "Point", "coordinates": [-8.415379, 40.206977]}, "properties": {}}, {"type": "Feature", "geometry": {"type": "Point", "coordinates": [145.487206, -37.932797]}, "properties": {}}, {"type": "Feature", "geometry": {"type": "Point", "coordinates": [-78.284265, -0.049496]}, "properties": {}}, {"type": "Feature", "geometry": {"type": "Point", "coordinates": [-79.011114, -2.901108]}, "properties": {}}, {"type": "Feature", "geometry": {"type": "Point", "coordinates": [-8.415379, 40.206977]}, "properties": {}}, {"type": "Feature", "geometry": {"type": "Point", "coordinates": [2.275234, 41.790902]}, "properties": {}}, {"type": "Feature", "geometry": {"type": "Point", "coordinates": [-122.030361, 36.968178]}, "properties": {}}, {"type": "Feature", "geometry": {"type": "Point", "coordinates": [2.97433, 39.620151]}, "properties": {}}, {"type": "Feature", "geometry": {"type": "Point", "coordinates": [-99.045368, 19.571102]}, "properties": {}}, {"type": "Feature", "geometry": {"type": "Point", "coordinates": [-79.008536, -2.899745]}, "properties": {}}, {"type": "Feature", "geometry": {"type": "Point", "coordinates": [-77.812417, -0.342967]}, "properties": {}}, {"type": "Feature", "geometry": {"type": "Point", "coordinates": [-77.813347, -0.341983]}, "properties": {}}, {"type": "Feature", "geometry": {"type": "Point", "coordinates": [-78.042368, -0.422012]}, "properties": {}}, {"type": "Feature", "geometry": {"type": "Point", "coordinates": [-78.815815, -3.019929]}, "properties": {}}, {"type": "Feature", "geometry": {"type": "Point", "coordinates": [1.5667, 41.3833]}, "properties": {}}, {"type": "Feature", "geometry": {"type": "Point", "coordinates": [-77.72716, 0.805942]}, "properties": {}}, {"type": "Feature", "geometry": {"type": "Point", "coordinates": [-84.432308, 34.469465]}, "properties": {}}, {"type": "Feature", "geometry": {"type": "Point", "coordinates": [-47.535695, -22.39183]}, "properties": {}}, {"type": "Feature", "geometry": {"type": "Point", "coordinates": [-7.724259, 31.298965]}, "properties": {}}, {"type": "Feature", "geometry": {"type": "Point", "coordinates": [-78.107115, 0.325244]}, "properties": {}}, {"type": "Feature", "geometry": {"type": "Point", "coordinates": [-78.784441, -3.055055]}, "properties": {}}, {"type": "Feature", "geometry": {"type": "Point", "coordinates": [-0.131589, 51.58408]}, "properties": {}}, {"type": "Feature", "geometry": {"type": "Point", "coordinates": [-58.289278, -26.850735]}, "properties": {}}, {"type": "Feature", "geometry": {"type": "Point", "coordinates": [-79.220703, -4.249842]}, "properties": {}}, {"type": "Feature", "geometry": {"type": "Point", "coordinates": [142.919551, -38.245107]}, "properties": {}}, {"type": "Feature", "geometry": {"type": "Point", "coordinates": [-25.09947, 17.154095]}, "properties": {}}, {"type": "Feature", "geometry": {"type": "Point", "coordinates": [-78.416402, -0.385929]}, "properties": {}}, {"type": "Feature", "geometry": {"type": "Point", "coordinates": [-78.557195, -1.168375]}, "properties": {}}, {"type": "Feature", "geometry": {"type": "Point", "coordinates": [-78.554667, -1.175841]}, "properties": {}}, {"type": "Feature", "geometry": {"type": "Point", "coordinates": [-78.552003, -0.504663]}, "properties": {}}, {"type": "Feature", "geometry": {"type": "Point", "coordinates": [146.299591, -41.228279]}, "properties": {}}, {"type": "Feature", "geometry": {"type": "Point", "coordinates": [-78.631953, -0.760939]}, "properties": {}}, {"type": "Feature", "geometry": {"type": "Point", "coordinates": [-47.257058, -23.675967]}, "properties": {}}, {"type": "Feature", "geometry": {"type": "Point", "coordinates": [-75.140785, 6.373031]}, "properties": {}}, {"type": "Feature", "geometry": {"type": "Point", "coordinates": [-58.94183, -27.470031]}, "properties": {}}, {"type": "Feature", "geometry": {"type": "Point", "coordinates": [-78.629973, -1.254566]}, "properties": {}}, {"type": "Feature", "geometry": {"type": "Point", "coordinates": [-48.101111, -15.844444]}, "properties": {}}, {"type": "Feature", "geometry": {"type": "Point", "coordinates": [-74.117146, 4.664257]}, "properties": {}}, {"type": "Feature", "geometry": {"type": "Point", "coordinates": [-74.053147, 4.730601]}, "properties": {}}, {"type": "Feature", "geometry": {"type": "Point", "coordinates": [2.77943, 42.122124]}, "properties": {}}, {"type": "Feature", "geometry": {"type": "Point", "coordinates": [-73.054717, -36.796703]}, "properties": {}}, {"type": "Feature", "geometry": {"type": "Point", "coordinates": [174.086324, -39.077161]}, "properties": {}}, {"type": "Feature", "geometry": {"type": "Point", "coordinates": [174.018975, -39.128888]}, "properties": {}}, {"type": "Feature", "geometry": {"type": "Point", "coordinates": [-79.356912, -3.986539]}, "properties": {}}, {"type": "Feature", "geometry": {"type": "Point", "coordinates": [4.808118, 43.950603]}, "properties": {}}, {"type": "Feature", "geometry": {"type": "Point", "coordinates": [5.708597, 45.18454]}, "properties": {}}, {"type": "Feature", "geometry": {"type": "Point", "coordinates": [-70.53498, -33.323205]}, "properties": {}}, {"type": "Feature", "geometry": {"type": "Point", "coordinates": [-74.047128, 4.669408]}, "properties": {}}, {"type": "Feature", "geometry": {"type": "Point", "coordinates": [-79.569649, -3.973822]}, "properties": {}}, {"type": "Feature", "geometry": {"type": "Point", "coordinates": [36.305613, -0.714371]}, "properties": {}}, {"type": "Feature", "geometry": {"type": "Point", "coordinates": [-78.415572, -0.384815]}, "properties": {}}, {"type": "Feature", "geometry": {"type": "Point", "coordinates": [-53.432247, -30.904805]}, "properties": {}}, {"type": "Feature", "geometry": {"type": "Point", "coordinates": [-1.144881, 43.886469]}, "properties": {}}, {"type": "Feature", "geometry": {"type": "Point", "coordinates": [3.021806, 42.541169]}, "properties": {}}, {"type": "Feature", "geometry": {"type": "Point", "coordinates": [-78.420692, -0.368698]}, "properties": {}}, {"type": "Feature", "geometry": {"type": "Point", "coordinates": [-71.209431, -32.896306]}, "properties": {}}, {"type": "Feature", "geometry": {"type": "Point", "coordinates": [-78.15728, 0.030205]}, "properties": {}}, {"type": "Feature", "geometry": {"type": "Point", "coordinates": [-99.910025, 19.692547]}, "properties": {}}, {"type": "Feature", "geometry": {"type": "Point", "coordinates": [-78.549937, -0.493467]}, "properties": {}}, {"type": "Feature", "geometry": {"type": "Point", "coordinates": [-78.541563, -0.434691]}, "properties": {}}, {"type": "Feature", "geometry": {"type": "Point", "coordinates": [-7.838425, 42.988378]}, "properties": {}}, {"type": "Feature", "geometry": {"type": "Point", "coordinates": [-4.69792, 40.319395]}, "properties": {}}, {"type": "Feature", "geometry": {"type": "Point", "coordinates": [8.904909, 45.62473]}, "properties": {}}, {"type": "Feature", "geometry": {"type": "Point", "coordinates": [0.106816, 43.85028]}, "properties": {}}, {"type": "Feature", "geometry": {"type": "Point", "coordinates": [-9.092819, 42.852211]}, "properties": {}}, {"type": "Feature", "geometry": {"type": "Point", "coordinates": [-5.829756, 43.160918]}, "properties": {}}, {"type": "Feature", "geometry": {"type": "Point", "coordinates": [-4.7301, 43.413006]}, "properties": {}}, {"type": "Feature", "geometry": {"type": "Point", "coordinates": [2.159665, 41.362896]}, "properties": {}}, {"type": "Feature", "geometry": {"type": "Point", "coordinates": [-97.913644, 29.911899]}, "properties": {}}, {"type": "Feature", "geometry": {"type": "Point", "coordinates": [-4.176096, 50.354294]}, "properties": {}}, {"type": "Feature", "geometry": {"type": "Point", "coordinates": [-98.843242, 19.689511]}, "properties": {}}, {"type": "Feature", "geometry": {"type": "Point", "coordinates": [-100.353043, 19.583457]}, "properties": {}}, {"type": "Feature", "geometry": {"type": "Point", "coordinates": [-8.67548, 42.040932]}, "properties": {}}, {"type": "Feature", "geometry": {"type": "Point", "coordinates": [-0.96519, 45.942085]}, "properties": {}}, {"type": "Feature", "geometry": {"type": "Point", "coordinates": [2.470089, 48.930327]}, "properties": {}}, {"type": "Feature", "geometry": {"type": "Point", "coordinates": [2.469951, 48.930279]}, "properties": {}}, {"type": "Feature", "geometry": {"type": "Point", "coordinates": [-117.165244, 33.116417]}, "properties": {}}, {"type": "Feature", "geometry": {"type": "Point", "coordinates": [-8.473616, 42.236048]}, "properties": {}}, {"type": "Feature", "geometry": {"type": "Point", "coordinates": [-99.593763, 19.469621]}, "properties": {}}, {"type": "Feature", "geometry": {"type": "Point", "coordinates": [-77.700425, 0.882544]}, "properties": {}}, {"type": "Feature", "geometry": {"type": "Point", "coordinates": [-8.111667, 43.502778]}, "properties": {}}, {"type": "Feature", "geometry": {"type": "Point", "coordinates": [-0.732525, 47.21477]}, "properties": {}}, {"type": "Feature", "geometry": {"type": "Point", "coordinates": [-7.745153, 43.723537]}, "properties": {}}, {"type": "Feature", "geometry": {"type": "Point", "coordinates": [4.705157, 43.730127]}, "properties": {}}, {"type": "Feature", "geometry": {"type": "Point", "coordinates": [2.251341, 48.846004]}, "properties": {}}, {"type": "Feature", "geometry": {"type": "Point", "coordinates": [-1.537143, 37.454645]}, "properties": {}}, {"type": "Feature", "geometry": {"type": "Point", "coordinates": [-76.972407, 38.904078]}, "properties": {}}, {"type": "Feature", "geometry": {"type": "Point", "coordinates": [-70.782192, -30.072134]}, "properties": {}}, {"type": "Feature", "geometry": {"type": "Point", "coordinates": [6.519475, 43.168842]}, "properties": {}}, {"type": "Feature", "geometry": {"type": "Point", "coordinates": [-65.322658, -27.340173]}, "properties": {}}, {"type": "Feature", "geometry": {"type": "Point", "coordinates": [-0.138018, 44.877894]}, "properties": {}}, {"type": "Feature", "geometry": {"type": "Point", "coordinates": [-0.616459, 41.022674]}, "properties": {}}, {"type": "Feature", "geometry": {"type": "Point", "coordinates": [6.850954, 43.699377]}, "properties": {}}, {"type": "Feature", "geometry": {"type": "Point", "coordinates": [-79.010399, -2.901518]}, "properties": {}}, {"type": "Feature", "geometry": {"type": "Point", "coordinates": [-77.8433, -0.417691]}, "properties": {}}, {"type": "Feature", "geometry": {"type": "Point", "coordinates": [-78.356682, -2.186331]}, "properties": {}}, {"type": "Feature", "geometry": {"type": "Point", "coordinates": [-74.062828, 4.645667]}, "properties": {}}, {"type": "Feature", "geometry": {"type": "Point", "coordinates": [-78.614012, -1.699093]}, "properties": {}}, {"type": "Feature", "geometry": {"type": "Point", "coordinates": [-79.038808, -2.890842]}, "properties": {}}, {"type": "Feature", "geometry": {"type": "Point", "coordinates": [-78.356682, -2.186331]}, "properties": {}}, {"type": "Feature", "geometry": {"type": "Point", "coordinates": [2.209721, 48.841397]}, "properties": {}}, {"type": "Feature", "geometry": {"type": "Point", "coordinates": [6.153143, 43.11818]}, "properties": {}}, {"type": "Feature", "geometry": {"type": "Point", "coordinates": [-70.671929, -33.557029]}, "properties": {}}, {"type": "Feature", "geometry": {"type": "Point", "coordinates": [-7.220345, 37.967906]}, "properties": {}}, {"type": "Feature", "geometry": {"type": "Point", "coordinates": [-77.890761, -0.465558]}, "properties": {}}, {"type": "Feature", "geometry": {"type": "Point", "coordinates": [-79.01099, -2.901181]}, "properties": {}}, {"type": "Feature", "geometry": {"type": "Point", "coordinates": [-65.802483, -25.185737]}, "properties": {}}, {"type": "Feature", "geometry": {"type": "Point", "coordinates": [-79.010977, -2.901165]}, "properties": {}}, {"type": "Feature", "geometry": {"type": "Point", "coordinates": [-3.679891, 40.407887]}, "properties": {}}, {"type": "Feature", "geometry": {"type": "Point", "coordinates": [-54.342608, -24.846464]}, "properties": {}}, {"type": "Feature", "geometry": {"type": "Point", "coordinates": [-66.099813, -26.881977]}, "properties": {}}, {"type": "Feature", "geometry": {"type": "Point", "coordinates": [-97.360572, 19.87572]}, "properties": {}}, {"type": "Feature", "geometry": {"type": "Point", "coordinates": [-79.679153, -3.610596]}, "properties": {}}, {"type": "Feature", "geometry": {"type": "Point", "coordinates": [-54.574356, -23.680972]}, "properties": {}}, {"type": "Feature", "geometry": {"type": "Point", "coordinates": [28.183266, -30.994596]}, "properties": {}}, {"type": "Feature", "geometry": {"type": "Point", "coordinates": [-78.658879, -1.665023]}, "properties": {}}, {"type": "Feature", "geometry": {"type": "Point", "coordinates": [-78.665742, -0.839442]}, "properties": {}}, {"type": "Feature", "geometry": {"type": "Point", "coordinates": [-73.01803, -36.948479]}, "properties": {}}, {"type": "Feature", "geometry": {"type": "Point", "coordinates": [-74.113383, 4.601279]}, "properties": {}}, {"type": "Feature", "geometry": {"type": "Point", "coordinates": [-74.113383, 4.601279]}, "properties": {}}, {"type": "Feature", "geometry": {"type": "Point", "coordinates": [-68.102707, -16.518541]}, "properties": {}}, {"type": "Feature", "geometry": {"type": "Point", "coordinates": [-68.102549, -16.518494]}, "properties": {}}, {"type": "Feature", "geometry": {"type": "Point", "coordinates": [-98.966202, 19.706036]}, "properties": {}}, {"type": "Feature", "geometry": {"type": "Point", "coordinates": [-78.61225, -0.946762]}, "properties": {}}, {"type": "Feature", "geometry": {"type": "Point", "coordinates": [-79.202545, -4.028014]}, "properties": {}}, {"type": "Feature", "geometry": {"type": "Point", "coordinates": [-79.002512, -2.9002]}, "properties": {}}, {"type": "Feature", "geometry": {"type": "Point", "coordinates": [176.005518, -38.683762]}, "properties": {}}, {"type": "Feature", "geometry": {"type": "Point", "coordinates": [9.127963, 54.47223]}, "properties": {}}, {"type": "Feature", "geometry": {"type": "Point", "coordinates": [-118.142262, 33.774121]}, "properties": {}}, {"type": "Feature", "geometry": {"type": "Point", "coordinates": [-66.055965, -26.400086]}, "properties": {}}, {"type": "Feature", "geometry": {"type": "Point", "coordinates": [-73.04773, -36.847467]}, "properties": {}}, {"type": "Feature", "geometry": {"type": "Point", "coordinates": [-122.773457, 38.506451]}, "properties": {}}, {"type": "Feature", "geometry": {"type": "Point", "coordinates": [-2.368127, 47.278263]}, "properties": {}}, {"type": "Feature", "geometry": {"type": "Point", "coordinates": [-100.143707, 20.184044]}, "properties": {}}, {"type": "Feature", "geometry": {"type": "Point", "coordinates": [-2.707889, 34.930213]}, "properties": {}}, {"type": "Feature", "geometry": {"type": "Point", "coordinates": [-78.460537, -0.296325]}, "properties": {}}, {"type": "Feature", "geometry": {"type": "Point", "coordinates": [2.481323, 41.716606]}, "properties": {}}, {"type": "Feature", "geometry": {"type": "Point", "coordinates": [0.903426, 44.876946]}, "properties": {}}, {"type": "Feature", "geometry": {"type": "Point", "coordinates": [-4.183053, 43.37894]}, "properties": {}}, {"type": "Feature", "geometry": {"type": "Point", "coordinates": [-78.996228, -2.907987]}, "properties": {}}, {"type": "Feature", "geometry": {"type": "Point", "coordinates": [0.744964, 41.732111]}, "properties": {}}, {"type": "Feature", "geometry": {"type": "Point", "coordinates": [-78.662567, -1.28757]}, "properties": {}}, {"type": "Feature", "geometry": {"type": "Point", "coordinates": [-79.227792, -3.23636]}, "properties": {}}, {"type": "Feature", "geometry": {"type": "Point", "coordinates": [-43.359194, -21.750056]}, "properties": {}}, {"type": "Feature", "geometry": {"type": "Point", "coordinates": [-8.680747, 41.995178]}, "properties": {}}, {"type": "Feature", "geometry": {"type": "Point", "coordinates": [-1.538261, 47.173953]}, "properties": {}}, {"type": "Feature", "geometry": {"type": "Point", "coordinates": [-0.37597, 43.294601]}, "properties": {}}, {"type": "Feature", "geometry": {"type": "Point", "coordinates": [-5.363377, 43.298647]}, "properties": {}}, {"type": "Feature", "geometry": {"type": "Point", "coordinates": [-0.489078, 43.897065]}, "properties": {}}, {"type": "Feature", "geometry": {"type": "Point", "coordinates": [-1.357323, 41.849758]}, "properties": {}}, {"type": "Feature", "geometry": {"type": "Point", "coordinates": [-1.664839, 43.379904]}, "properties": {}}, {"type": "Feature", "geometry": {"type": "Point", "coordinates": [2.433123, 48.841442]}, "properties": {}}, {"type": "Feature", "geometry": {"type": "Point", "coordinates": [2.800347, 42.40281]}, "properties": {}}, {"type": "Feature", "geometry": {"type": "Point", "coordinates": [2.441902, 48.839675]}, "properties": {}}, {"type": "Feature", "geometry": {"type": "Point", "coordinates": [-9.234629, 42.943723]}, "properties": {}}, {"type": "Feature", "geometry": {"type": "Point", "coordinates": [2.443693, 48.839292]}, "properties": {}}, {"type": "Feature", "geometry": {"type": "Point", "coordinates": [1.56766, 41.3891]}, "properties": {}}, {"type": "Feature", "geometry": {"type": "Point", "coordinates": [1.569305, 41.40055]}, "properties": {}}, {"type": "Feature", "geometry": {"type": "Point", "coordinates": [-2.74, 37.01]}, "properties": {}}, {"type": "Feature", "geometry": {"type": "Point", "coordinates": [2.299914, 48.846847]}, "properties": {}}, {"type": "Feature", "geometry": {"type": "Point", "coordinates": [2.880499, 43.562035]}, "properties": {}}, {"type": "Feature", "geometry": {"type": "Point", "coordinates": [-70.587383, -33.452952]}, "properties": {}}, {"type": "Feature", "geometry": {"type": "Point", "coordinates": [-2.481389, 47.408913]}, "properties": {}}, {"type": "Feature", "geometry": {"type": "Point", "coordinates": [-58.941783, -27.470124]}, "properties": {}}, {"type": "Feature", "geometry": {"type": "Point", "coordinates": [144.970543, -37.770901]}, "properties": {}}, {"type": "Feature", "geometry": {"type": "Point", "coordinates": [47.181065, -20.768744]}, "properties": {}}, {"type": "Feature", "geometry": {"type": "Point", "coordinates": [3.479596, 43.628611]}, "properties": {}}, {"type": "Feature", "geometry": {"type": "Point", "coordinates": [-3.620355, 39.91451]}, "properties": {}}, {"type": "Feature", "geometry": {"type": "Point", "coordinates": [-4.052779, 38.033333]}, "properties": {}}, {"type": "Feature", "geometry": {"type": "Point", "coordinates": [4.808171, 43.95059]}, "properties": {}}, {"type": "Feature", "geometry": {"type": "Point", "coordinates": [2.441904, 48.839658]}, "properties": {}}, {"type": "Feature", "geometry": {"type": "Point", "coordinates": [-65.420275, -24.700481]}, "properties": {}}, {"type": "Feature", "geometry": {"type": "Point", "coordinates": [-47.441389, -1.774444]}, "properties": {}}, {"type": "Feature", "geometry": {"type": "Point", "coordinates": [-78.559571, -0.500891]}, "properties": {}}, {"type": "Feature", "geometry": {"type": "Point", "coordinates": [-78.441572, -0.150875]}, "properties": {}}, {"type": "Feature", "geometry": {"type": "Point", "coordinates": [-73.036107, -36.83489]}, "properties": {}}, {"type": "Feature", "geometry": {"type": "Point", "coordinates": [-78.443467, -0.349617]}, "properties": {}}, {"type": "Feature", "geometry": {"type": "Point", "coordinates": [-68.073902, -16.537828]}, "properties": {}}, {"type": "Feature", "geometry": {"type": "Point", "coordinates": [-68.089034, -16.501596]}, "properties": {}}, {"type": "Feature", "geometry": {"type": "Point", "coordinates": [-78.119125, 0.370987]}, "properties": {}}, {"type": "Feature", "geometry": {"type": "Point", "coordinates": [-74.085319, 4.621592]}, "properties": {}}, {"type": "Feature", "geometry": {"type": "Point", "coordinates": [-73.490862, 5.71152]}, "properties": {}}, {"type": "Feature", "geometry": {"type": "Point", "coordinates": [-79.580727, -3.458956]}, "properties": {}}, {"type": "Feature", "geometry": {"type": "Point", "coordinates": [-78.617977, -1.354157]}, "properties": {}}, {"type": "Feature", "geometry": {"type": "Point", "coordinates": [3.594527, 44.323299]}, "properties": {}}, {"type": "Feature", "geometry": {"type": "Point", "coordinates": [-78.44563, -0.331139]}, "properties": {}}, {"type": "Feature", "geometry": {"type": "Point", "coordinates": [4.128491, 46.919698]}, "properties": {}}, {"type": "Feature", "geometry": {"type": "Point", "coordinates": [-79.010986, -2.902778]}, "properties": {}}, {"type": "Feature", "geometry": {"type": "Point", "coordinates": [-3.691533, 40.411589]}, "properties": {}}, {"type": "Feature", "geometry": {"type": "Point", "coordinates": [7.241926, 43.689798]}, "properties": {}}, {"type": "Feature", "geometry": {"type": "Point", "coordinates": [-8.814362, 42.13485]}, "properties": {}}, {"type": "Feature", "geometry": {"type": "Point", "coordinates": [-79.007121, -2.891449]}, "properties": {}}, {"type": "Feature", "geometry": {"type": "Point", "coordinates": [3.043801, 41.830426]}, "properties": {}}, {"type": "Feature", "geometry": {"type": "Point", "coordinates": [-71.434617, -33.038058]}, "properties": {}}, {"type": "Feature", "geometry": {"type": "Point", "coordinates": [-78.451013, -0.326823]}, "properties": {}}, {"type": "Feature", "geometry": {"type": "Point", "coordinates": [-78.629883, -1.28309]}, "properties": {}}, {"type": "Feature", "geometry": {"type": "Point", "coordinates": [-78.646356, -0.759365]}, "properties": {}}, {"type": "Feature", "geometry": {"type": "Point", "coordinates": [-78.506447, -1.312837]}, "properties": {}}, {"type": "Feature", "geometry": {"type": "Point", "coordinates": [-71.609683, -33.389831]}, "properties": {}}, {"type": "Feature", "geometry": {"type": "Point", "coordinates": [-73.101817, -36.845486]}, "properties": {}}, {"type": "Feature", "geometry": {"type": "Point", "coordinates": [-79.853396, -3.189563]}, "properties": {}}, {"type": "Feature", "geometry": {"type": "Point", "coordinates": [-78.577222, -0.723611]}, "properties": {}}, {"type": "Feature", "geometry": {"type": "Point", "coordinates": [-70.932814, -17.192736]}, "properties": {}}, {"type": "Feature", "geometry": {"type": "Point", "coordinates": [6.970194, 43.5588]}, "properties": {}}, {"type": "Feature", "geometry": {"type": "Point", "coordinates": [-72.699844, -37.282235]}, "properties": {}}, {"type": "Feature", "geometry": {"type": "Point", "coordinates": [-78.567019, -0.5114]}, "properties": {}}, {"type": "Feature", "geometry": {"type": "Point", "coordinates": [-118.323762, 33.978238]}, "properties": {}}, {"type": "Feature", "geometry": {"type": "Point", "coordinates": [-78.611576, -0.929507]}, "properties": {}}, {"type": "Feature", "geometry": {"type": "Point", "coordinates": [-78.587538, 0.331566]}, "properties": {}}, {"type": "Feature", "geometry": {"type": "Point", "coordinates": [-76.9934, -12.085947]}, "properties": {}}, {"type": "Feature", "geometry": {"type": "Point", "coordinates": [-79.05689, -2.875492]}, "properties": {}}, {"type": "Feature", "geometry": {"type": "Point", "coordinates": [-71.861893, -15.6118]}, "properties": {}}, {"type": "Feature", "geometry": {"type": "Point", "coordinates": [-77.951021, 0.05476]}, "properties": {}}, {"type": "Feature", "geometry": {"type": "Point", "coordinates": [-74.076156, 4.634605]}, "properties": {}}, {"type": "Feature", "geometry": {"type": "Point", "coordinates": [-79.026631, -2.916864]}, "properties": {}}, {"type": "Feature", "geometry": {"type": "Point", "coordinates": [-78.454947, -0.322922]}, "properties": {}}, {"type": "Feature", "geometry": {"type": "Point", "coordinates": [-78.642506, -1.237907]}, "properties": {}}, {"type": "Feature", "geometry": {"type": "Point", "coordinates": [30.722975, -29.78317]}, "properties": {}}, {"type": "Feature", "geometry": {"type": "Point", "coordinates": [-78.447382, -0.333005]}, "properties": {}}, {"type": "Feature", "geometry": {"type": "Point", "coordinates": [-78.995955, -2.876705]}, "properties": {}}, {"type": "Feature", "geometry": {"type": "Point", "coordinates": [-78.433973, -0.392181]}, "properties": {}}, {"type": "Feature", "geometry": {"type": "Point", "coordinates": [-71.572055, -33.133807]}, "properties": {}}, {"type": "Feature", "geometry": {"type": "Point", "coordinates": [-89.436391, -0.867467]}, "properties": {}}, {"type": "Feature", "geometry": {"type": "Point", "coordinates": [-78.448428, -0.331781]}, "properties": {}}, {"type": "Feature", "geometry": {"type": "Point", "coordinates": [-78.456502, -0.310495]}, "properties": {}}, {"type": "Feature", "geometry": {"type": "Point", "coordinates": [-78.436217, -0.351261]}, "properties": {}}, {"type": "Feature", "geometry": {"type": "Point", "coordinates": [-78.449822, -0.338717]}, "properties": {}}, {"type": "Feature", "geometry": {"type": "Point", "coordinates": [-74.114748, 4.658727]}, "properties": {}}, {"type": "Feature", "geometry": {"type": "Point", "coordinates": [-54.574356, -23.680989]}, "properties": {}}, {"type": "Feature", "geometry": {"type": "Point", "coordinates": [-96.617243, 16.779653]}, "properties": {}}, {"type": "Feature", "geometry": {"type": "Point", "coordinates": [2.638499, 41.746913]}, "properties": {}}, {"type": "Feature", "geometry": {"type": "Point", "coordinates": [-104.961468, 39.732207]}, "properties": {}}, {"type": "Feature", "geometry": {"type": "Point", "coordinates": [-78.581175, -1.222863]}, "properties": {}}, {"type": "Feature", "geometry": {"type": "Point", "coordinates": [-78.455492, -0.325849]}, "properties": {}}, {"type": "Feature", "geometry": {"type": "Point", "coordinates": [8.01857, 44.480007]}, "properties": {}}, {"type": "Feature", "geometry": {"type": "Point", "coordinates": [2.498871, 41.679968]}, "properties": {}}, {"type": "Feature", "geometry": {"type": "Point", "coordinates": [-99.048912, 19.25822]}, "properties": {}}, {"type": "Feature", "geometry": {"type": "Point", "coordinates": [-70.604808, -33.453863]}, "properties": {}}]}