{"type": "FeatureCollection", "name": "Cynodon dactylon", "features": [{"type": "Feature", "geometry": {"type": "Point", "coordinates": [4.75668, 50.85061]}, "properties": {}}, {"type": "Feature", "geometry": {"type": "Point", "coordinates": [-97.596336, 30.474923]}, "properties": {}}, {"type": "Feature", "geometry": {"type": "Point", "coordinates": [-95.594123, 29.787521]}, "properties": {}}, {"type": "Feature", "geometry": {"type": "Point", "coordinates": [-112.139515, 33.932998]}, "properties": {}}, {"type": "Feature", "geometry": {"type": "Point", "coordinates": [138.659746, -34.973632]}, "properties": {}}, {"type": "Feature", "geometry": {"type": "Point", "coordinates": [174.988715, -40.939363]}, "properties": {}}, {"type": "Feature", "geometry": {"type": "Point", "coordinates": [144.903714, -37.677442]}, "properties": {}}, {"type": "Feature", "geometry": {"type": "Point", "coordinates": [-97.680703, 30.267262]}, "properties": {}}, {"type": "Feature", "geometry": {"type": "Point", "coordinates": [-110.621747, 31.725375]}, "properties": {}}, {"type": "Feature", "geometry": {"type": "Point", "coordinates": [-159.594117, 21.907872]}, "properties": {}}, {"type": "Feature", "geometry": {"type": "Point", "coordinates": [175.181657, -40.597782]}, "properties": {}}, {"type": "Feature", "geometry": {"type": "Point", "coordinates": [-97.9636, 29.576166]}, "properties": {}}, {"type": "Feature", "geometry": {"type": "Point", "coordinates": [-105.604813, 22.616488]}, "properties": {}}, {"type": "Feature", "geometry": {"type": "Point", "coordinates": [-110.685472, 32.223655]}, "properties": {}}, {"type": "Feature", "geometry": {"type": "Point", "coordinates": [-97.687308, 26.081585]}, "properties": {}}, {"type": "Feature", "geometry": {"type": "Point", "coordinates": [5.941001, 43.52111]}, "properties": {}}, {"type": "Feature", "geometry": {"type": "Point", "coordinates": [83.786496, 19.347921]}, "properties": {}}, {"type": "Feature", "geometry": {"type": "Point", "coordinates": [81.837346, 25.417217]}, "properties": {}}, {"type": "Feature", "geometry": {"type": "Point", "coordinates": [-98.727377, 30.643598]}, "properties": {}}, {"type": "Feature", "geometry": {"type": "Point", "coordinates": [147.369916, -35.091413]}, "properties": {}}, {"type": "Feature", "geometry": {"type": "Point", "coordinates": [-96.336882, 30.592051]}, "properties": {}}, {"type": "Feature", "geometry": {"type": "Point", "coordinates": [174.77024, -36.848824]}, "properties": {}}, {"type": "Feature", "geometry": {"type": "Point", "coordinates": [151.544447, -33.255487]}, "properties": {}}, {"type": "Feature", "geometry": {"type": "Point", "coordinates": [146.953184, -36.13477]}, "properties": {}}, {"type": "Feature", "geometry": {"type": "Point", "coordinates": [-110.97325, 32.330483]}, "properties": {}}, {"type": "Feature", "geometry": {"type": "Point", "coordinates": [150.850747, -33.94295]}, "properties": {}}, {"type": "Feature", "geometry": {"type": "Point", "coordinates": [-97.350141, 27.672275]}, "properties": {}}, {"type": "Feature", "geometry": {"type": "Point", "coordinates": [116.561138, 40.431989]}, "properties": {}}, {"type": "Feature", "geometry": {"type": "Point", "coordinates": [-95.521155, 29.561338]}, "properties": {}}, {"type": "Feature", "geometry": {"type": "Point", "coordinates": [-115.165574, 36.049595]}, "properties": {}}, {"type": "Feature", "geometry": {"type": "Point", "coordinates": [-117.8582, 33.628137]}, "properties": {}}, {"type": "Feature", "geometry": {"type": "Point", "coordinates": [176.848358, -39.483002]}, "properties": {}}, {"type": "Feature", "geometry": {"type": "Point", "coordinates": [120.695839, 24.196533]}, "properties": {}}, {"type": "Feature", "geometry": {"type": "Point", "coordinates": [-97.905586, 26.147934]}, "properties": {}}, {"type": "Feature", "geometry": {"type": "Point", "coordinates": [81.781341, 25.44941]}, "properties": {}}, {"type": "Feature", "geometry": {"type": "Point", "coordinates": [175.136207, -40.07314]}, "properties": {}}, {"type": "Feature", "geometry": {"type": "Point", "coordinates": [16.910554, 47.791216]}, "properties": {}}, {"type": "Feature", "geometry": {"type": "Point", "coordinates": [-105.604843, 22.616531]}, "properties": {}}, {"type": "Feature", "geometry": {"type": "Point", "coordinates": [-8.621037, 42.310088]}, "properties": {}}, {"type": "Feature", "geometry": {"type": "Point", "coordinates": [173.133979, -41.283633]}, "properties": {}}, {"type": "Feature", "geometry": {"type": "Point", "coordinates": [-95.47318, 29.490661]}, "properties": {}}, {"type": "Feature", "geometry": {"type": "Point", "coordinates": [-110.980081, 32.379917]}, "properties": {}}, {"type": "Feature", "geometry": {"type": "Point", "coordinates": [-110.692951, 32.063285]}, "properties": {}}, {"type": "Feature", "geometry": {"type": "Point", "coordinates": [-96.701678, 33.086171]}, "properties": {}}, {"type": "Feature", "geometry": {"type": "Point", "coordinates": [173.103141, -41.364386]}, "properties": {}}, {"type": "Feature", "geometry": {"type": "Point", "coordinates": [-111.962013, 33.881692]}, "properties": {}}, {"type": "Feature", "geometry": {"type": "Point", "coordinates": [-84.822853, 10.315572]}, "properties": {}}, {"type": "Feature", "geometry": {"type": "Point", "coordinates": [-15.725029, 27.928771]}, "properties": {}}, {"type": "Feature", "geometry": {"type": "Point", "coordinates": [-81.074997, 26.996963]}, "properties": {}}, {"type": "Feature", "geometry": {"type": "Point", "coordinates": [28.036893, -26.003562]}, "properties": {}}, {"type": "Feature", "geometry": {"type": "Point", "coordinates": [151.131107, -33.896205]}, "properties": {}}, {"type": "Feature", "geometry": {"type": "Point", "coordinates": [-97.684949, 26.057462]}, "properties": {}}, {"type": "Feature", "geometry": {"type": "Point", "coordinates": [-112.056389, 33.984442]}, "properties": {}}, {"type": "Feature", "geometry": {"type": "Point", "coordinates": [-112.522312, 33.428511]}, "properties": {}}, {"type": "Feature", "geometry": {"type": "Point", "coordinates": [175.121428, -40.732182]}, "properties": {}}, {"type": "Feature", "geometry": {"type": "Point", "coordinates": [-97.027163, 28.824064]}, "properties": {}}, {"type": "Feature", "geometry": {"type": "Point", "coordinates": [-110.979744, 32.379494]}, "properties": {}}, {"type": "Feature", "geometry": {"type": "Point", "coordinates": [-116.36698, 33.334055]}, "properties": {}}, {"type": "Feature", "geometry": {"type": "Point", "coordinates": [18.768727, -34.078923]}, "properties": {}}, {"type": "Feature", "geometry": {"type": "Point", "coordinates": [-97.029592, 28.824269]}, "properties": {}}, {"type": "Feature", "geometry": {"type": "Point", "coordinates": [-159.454653, 21.873838]}, "properties": {}}, {"type": "Feature", "geometry": {"type": "Point", "coordinates": [-111.435442, 33.538572]}, "properties": {}}, {"type": "Feature", "geometry": {"type": "Point", "coordinates": [-112.525489, 33.428514]}, "properties": {}}, {"type": "Feature", "geometry": {"type": "Point", "coordinates": [30.985, 1.892]}, "properties": {}}, {"type": "Feature", "geometry": {"type": "Point", "coordinates": [176.07457, -38.692755]}, "properties": {}}, {"type": "Feature", "geometry": {"type": "Point", "coordinates": [-95.639738, 29.625905]}, "properties": {}}, {"type": "Feature", "geometry": {"type": "Point", "coordinates": [-95.667388, 29.562222]}, "properties": {}}, {"type": "Feature", "geometry": {"type": "Point", "coordinates": [-97.158058, 26.075195]}, "properties": {}}, {"type": "Feature", "geometry": {"type": "Point", "coordinates": [176.879165, -39.488757]}, "properties": {}}, {"type": "Feature", "geometry": {"type": "Point", "coordinates": [-97.15818, 26.075103]}, "properties": {}}, {"type": "Feature", "geometry": {"type": "Point", "coordinates": [173.073915, -41.416344]}, "properties": {}}, {"type": "Feature", "geometry": {"type": "Point", "coordinates": [-97.186478, 30.115642]}, "properties": {}}, {"type": "Feature", "geometry": {"type": "Point", "coordinates": [-95.65912, 29.560113]}, "properties": {}}, {"type": "Feature", "geometry": {"type": "Point", "coordinates": [-155.665512, 19.000194]}, "properties": {}}, {"type": "Feature", "geometry": {"type": "Point", "coordinates": [-96.697153, 30.06597]}, "properties": {}}, {"type": "Feature", "geometry": {"type": "Point", "coordinates": [150.880737, -34.546397]}, "properties": {}}, {"type": "Feature", "geometry": {"type": "Point", "coordinates": [-110.886092, 31.739783]}, "properties": {}}, {"type": "Feature", "geometry": {"type": "Point", "coordinates": [-96.965323, 30.846979]}, "properties": {}}, {"type": "Feature", "geometry": {"type": "Point", "coordinates": [-99.732225, 32.474763]}, "properties": {}}, {"type": "Feature", "geometry": {"type": "Point", "coordinates": [-95.631029, 29.578815]}, "properties": {}}, {"type": "Feature", "geometry": {"type": "Point", "coordinates": [-98.662902, 29.494519]}, "properties": {}}, {"type": "Feature", "geometry": {"type": "Point", "coordinates": [-95.25091, 29.419439]}, "properties": {}}, {"type": "Feature", "geometry": {"type": "Point", "coordinates": [-97.47438, 26.079217]}, "properties": {}}, {"type": "Feature", "geometry": {"type": "Point", "coordinates": [-58.475497, -34.524363]}, "properties": {}}, {"type": "Feature", "geometry": {"type": "Point", "coordinates": [-97.077647, 33.045152]}, "properties": {}}, {"type": "Feature", "geometry": {"type": "Point", "coordinates": [-95.250909, 29.419407]}, "properties": {}}, {"type": "Feature", "geometry": {"type": "Point", "coordinates": [-97.119241, 31.551912]}, "properties": {}}, {"type": "Feature", "geometry": {"type": "Point", "coordinates": [-102.752717, 30.995092]}, "properties": {}}, {"type": "Feature", "geometry": {"type": "Point", "coordinates": [-98.768367, 29.476686]}, "properties": {}}, {"type": "Feature", "geometry": {"type": "Point", "coordinates": [119.610342, 23.611045]}, "properties": {}}, {"type": "Feature", "geometry": {"type": "Point", "coordinates": [145.187732, -38.14688]}, "properties": {}}, {"type": "Feature", "geometry": {"type": "Point", "coordinates": [151.214567, -33.547229]}, "properties": {}}, {"type": "Feature", "geometry": {"type": "Point", "coordinates": [-96.664238, 30.295105]}, "properties": {}}, {"type": "Feature", "geometry": {"type": "Point", "coordinates": [151.788638, -32.376698]}, "properties": {}}, {"type": "Feature", "geometry": {"type": "Point", "coordinates": [-97.779004, 30.281535]}, "properties": {}}, {"type": "Feature", "geometry": {"type": "Point", "coordinates": [-5.577049, 36.03292]}, "properties": {}}, {"type": "Feature", "geometry": {"type": "Point", "coordinates": [145.318289, -37.892975]}, "properties": {}}, {"type": "Feature", "geometry": {"type": "Point", "coordinates": [-103.598307, 29.154592]}, "properties": {}}, {"type": "Feature", "geometry": {"type": "Point", "coordinates": [3.8, 51.75]}, "properties": {}}, {"type": "Feature", "geometry": {"type": "Point", "coordinates": [5.4, 51.6]}, "properties": {}}, {"type": "Feature", "geometry": {"type": "Point", "coordinates": [-1.308626, 42.650275]}, "properties": {}}, {"type": "Feature", "geometry": {"type": "Point", "coordinates": [3.8, 51.75]}, "properties": {}}, {"type": "Feature", "geometry": {"type": "Point", "coordinates": [35.098113, 32.528651]}, "properties": {}}, {"type": "Feature", "geometry": {"type": "Point", "coordinates": [34.665473, 31.67896]}, "properties": {}}, {"type": "Feature", "geometry": {"type": "Point", "coordinates": [34.72752, 31.939022]}, "properties": {}}, {"type": "Feature", "geometry": {"type": "Point", "coordinates": [34.669459, 31.688329]}, "properties": {}}, {"type": "Feature", "geometry": {"type": "Point", "coordinates": [34.54269, 31.493884]}, "properties": {}}, {"type": "Feature", "geometry": {"type": "Point", "coordinates": [34.66544, 31.672025]}, "properties": {}}, {"type": "Feature", "geometry": {"type": "Point", "coordinates": [34.649413, 31.488583]}, "properties": {}}, {"type": "Feature", "geometry": {"type": "Point", "coordinates": [34.756549, 31.937009]}, "properties": {}}, {"type": "Feature", "geometry": {"type": "Point", "coordinates": [34.663555, 31.695131]}, "properties": {}}, {"type": "Feature", "geometry": {"type": "Point", "coordinates": [34.759963, 31.581807]}, "properties": {}}, {"type": "Feature", "geometry": {"type": "Point", "coordinates": [35.690844, 33.240976]}, "properties": {}}, {"type": "Feature", "geometry": {"type": "Point", "coordinates": [34.763566, 31.944753]}, "properties": {}}, {"type": "Feature", "geometry": {"type": "Point", "coordinates": [34.71185, 31.709729]}, "properties": {}}, {"type": "Feature", "geometry": {"type": "Point", "coordinates": [34.688886, 31.688301]}, "properties": {}}, {"type": "Feature", "geometry": {"type": "Point", "coordinates": [34.660008, 31.697461]}, "properties": {}}, {"type": "Feature", "geometry": {"type": "Point", "coordinates": [34.676377, 31.482943]}, "properties": {}}, {"type": "Feature", "geometry": {"type": "Point", "coordinates": [34.66123, 31.694075]}, "properties": {}}, {"type": "Feature", "geometry": {"type": "Point", "coordinates": [34.790653, 31.840342]}, "properties": {}}, {"type": "Feature", "geometry": {"type": "Point", "coordinates": [35.10124, 32.521593]}, "properties": {}}, {"type": "Feature", "geometry": {"type": "Point", "coordinates": [34.671168, 31.669821]}, "properties": {}}, {"type": "Feature", "geometry": {"type": "Point", "coordinates": [34.683868, 31.689777]}, "properties": {}}, {"type": "Feature", "geometry": {"type": "Point", "coordinates": [34.74409, 31.593908]}, "properties": {}}, {"type": "Feature", "geometry": {"type": "Point", "coordinates": [34.720921, 31.663265]}, "properties": {}}, {"type": "Feature", "geometry": {"type": "Point", "coordinates": [34.705049, 31.699331]}, "properties": {}}, {"type": "Feature", "geometry": {"type": "Point", "coordinates": [34.6853, 31.709254]}, "properties": {}}, {"type": "Feature", "geometry": {"type": "Point", "coordinates": [34.666416, 31.669161]}, "properties": {}}, {"type": "Feature", "geometry": {"type": "Point", "coordinates": [35.102837, 32.530134]}, "properties": {}}, {"type": "Feature", "geometry": {"type": "Point", "coordinates": [34.730785, 31.703722]}, "properties": {}}, {"type": "Feature", "geometry": {"type": "Point", "coordinates": [34.806167, 31.562416]}, "properties": {}}, {"type": "Feature", "geometry": {"type": "Point", "coordinates": [26.795593, -32.059647]}, "properties": {}}, {"type": "Feature", "geometry": {"type": "Point", "coordinates": [176.074083, -38.692567]}, "properties": {}}, {"type": "Feature", "geometry": {"type": "Point", "coordinates": [-111.068304, 33.2169]}, "properties": {}}, {"type": "Feature", "geometry": {"type": "Point", "coordinates": [150.704306, -35.003806]}, "properties": {}}, {"type": "Feature", "geometry": {"type": "Point", "coordinates": [149.517776, -33.477407]}, "properties": {}}, {"type": "Feature", "geometry": {"type": "Point", "coordinates": [150.703028, -35.004222]}, "properties": {}}, {"type": "Feature", "geometry": {"type": "Point", "coordinates": [149.855127, -33.414692]}, "properties": {}}, {"type": "Feature", "geometry": {"type": "Point", "coordinates": [152.113684, -32.778841]}, "properties": {}}, {"type": "Feature", "geometry": {"type": "Point", "coordinates": [151.294898, -33.496103]}, "properties": {}}, {"type": "Feature", "geometry": {"type": "Point", "coordinates": [166.678774, 19.279717]}, "properties": {}}, {"type": "Feature", "geometry": {"type": "Point", "coordinates": [166.769678, 19.363038]}, "properties": {}}, {"type": "Feature", "geometry": {"type": "Point", "coordinates": [120.496342, 22.431746]}, "properties": {}}, {"type": "Feature", "geometry": {"type": "Point", "coordinates": [150.811611, -34.521609]}, "properties": {}}, {"type": "Feature", "geometry": {"type": "Point", "coordinates": [150.78823, -34.525497]}, "properties": {}}, {"type": "Feature", "geometry": {"type": "Point", "coordinates": [150.777152, -34.648293]}, "properties": {}}, {"type": "Feature", "geometry": {"type": "Point", "coordinates": [150.789538, -34.52507]}, "properties": {}}, {"type": "Feature", "geometry": {"type": "Point", "coordinates": [150.790968, -34.525754]}, "properties": {}}, {"type": "Feature", "geometry": {"type": "Point", "coordinates": [150.796107, -34.52381]}, "properties": {}}, {"type": "Feature", "geometry": {"type": "Point", "coordinates": [150.797434, -34.521408]}, "properties": {}}, {"type": "Feature", "geometry": {"type": "Point", "coordinates": [173.057786, -40.95665]}, "properties": {}}, {"type": "Feature", "geometry": {"type": "Point", "coordinates": [150.989862, -33.732711]}, "properties": {}}, {"type": "Feature", "geometry": {"type": "Point", "coordinates": [150.944368, -32.210988]}, "properties": {}}, {"type": "Feature", "geometry": {"type": "Point", "coordinates": [150.804881, -33.934657]}, "properties": {}}, {"type": "Feature", "geometry": {"type": "Point", "coordinates": [150.877911, -33.678608]}, "properties": {}}, {"type": "Feature", "geometry": {"type": "Point", "coordinates": [151.302905, -32.833653]}, "properties": {}}, {"type": "Feature", "geometry": {"type": "Point", "coordinates": [151.74634, -32.627282]}, "properties": {}}, {"type": "Feature", "geometry": {"type": "Point", "coordinates": [150.382694, -33.723612]}, "properties": {}}, {"type": "Feature", "geometry": {"type": "Point", "coordinates": [-97.389595, 32.785675]}, "properties": {}}, {"type": "Feature", "geometry": {"type": "Point", "coordinates": [-97.007464, 30.41175]}, "properties": {}}, {"type": "Feature", "geometry": {"type": "Point", "coordinates": [-97.005475, 30.417297]}, "properties": {}}, {"type": "Feature", "geometry": {"type": "Point", "coordinates": [75.744464, 24.912106]}, "properties": {}}, {"type": "Feature", "geometry": {"type": "Point", "coordinates": [-117.939276, 33.661877]}, "properties": {}}, {"type": "Feature", "geometry": {"type": "Point", "coordinates": [4.36226, 51.22003]}, "properties": {}}, {"type": "Feature", "geometry": {"type": "Point", "coordinates": [-110.99245, 32.219991]}, "properties": {}}, {"type": "Feature", "geometry": {"type": "Point", "coordinates": [-97.072095, 27.834143]}, "properties": {}}, {"type": "Feature", "geometry": {"type": "Point", "coordinates": [151.84864, -32.373812]}, "properties": {}}, {"type": "Feature", "geometry": {"type": "Point", "coordinates": [176.265008, -38.154134]}, "properties": {}}, {"type": "Feature", "geometry": {"type": "Point", "coordinates": [75.811561, 25.137364]}, "properties": {}}, {"type": "Feature", "geometry": {"type": "Point", "coordinates": [153.149564, -27.433946]}, "properties": {}}, {"type": "Feature", "geometry": {"type": "Point", "coordinates": [-157.831752, 21.289098]}, "properties": {}}, {"type": "Feature", "geometry": {"type": "Point", "coordinates": [-98.285054, 29.972196]}, "properties": {}}, {"type": "Feature", "geometry": {"type": "Point", "coordinates": [-117.753952, 33.52642]}, "properties": {}}, {"type": "Feature", "geometry": {"type": "Point", "coordinates": [151.842818, -32.374898]}, "properties": {}}, {"type": "Feature", "geometry": {"type": "Point", "coordinates": [75.811775, 25.137691]}, "properties": {}}, {"type": "Feature", "geometry": {"type": "Point", "coordinates": [-97.809922, 30.487516]}, "properties": {}}, {"type": "Feature", "geometry": {"type": "Point", "coordinates": [-97.716605, 30.301383]}, "properties": {}}, {"type": "Feature", "geometry": {"type": "Point", "coordinates": [151.82694, -32.372248]}, "properties": {}}, {"type": "Feature", "geometry": {"type": "Point", "coordinates": [35.1087, 33.077983]}, "properties": {}}, {"type": "Feature", "geometry": {"type": "Point", "coordinates": [-13.558749, 29.113048]}, "properties": {}}, {"type": "Feature", "geometry": {"type": "Point", "coordinates": [-96.937795, 30.176628]}, "properties": {}}, {"type": "Feature", "geometry": {"type": "Point", "coordinates": [174.736957, -36.934111]}, "properties": {}}, {"type": "Feature", "geometry": {"type": "Point", "coordinates": [-53.576762, -34.001003]}, "properties": {}}, {"type": "Feature", "geometry": {"type": "Point", "coordinates": [76.256164, 25.18245]}, "properties": {}}, {"type": "Feature", "geometry": {"type": "Point", "coordinates": [16.47963, 48.215235]}, "properties": {}}, {"type": "Feature", "geometry": {"type": "Point", "coordinates": [76.256164, 25.18245]}, "properties": {}}, {"type": "Feature", "geometry": {"type": "Point", "coordinates": [-14.330917, 28.049246]}, "properties": {}}, {"type": "Feature", "geometry": {"type": "Point", "coordinates": [-54.974877, -34.918078]}, "properties": {}}, {"type": "Feature", "geometry": {"type": "Point", "coordinates": [149.117874, -35.250142]}, "properties": {}}, {"type": "Feature", "geometry": {"type": "Point", "coordinates": [35.37931, 31.835212]}, "properties": {}}, {"type": "Feature", "geometry": {"type": "Point", "coordinates": [34.741892, 31.837576]}, "properties": {}}, {"type": "Feature", "geometry": {"type": "Point", "coordinates": [35.314288, 31.833301]}, "properties": {}}, {"type": "Feature", "geometry": {"type": "Point", "coordinates": [34.990274, 30.721052]}, "properties": {}}, {"type": "Feature", "geometry": {"type": "Point", "coordinates": [35.381742, 31.836354]}, "properties": {}}, {"type": "Feature", "geometry": {"type": "Point", "coordinates": [34.890672, 31.609621]}, "properties": {}}, {"type": "Feature", "geometry": {"type": "Point", "coordinates": [35.097019, 30.962056]}, "properties": {}}, {"type": "Feature", "geometry": {"type": "Point", "coordinates": [34.759667, 31.91764]}, "properties": {}}, {"type": "Feature", "geometry": {"type": "Point", "coordinates": [34.974554, 30.715415]}, "properties": {}}, {"type": "Feature", "geometry": {"type": "Point", "coordinates": [34.788772, 31.618339]}, "properties": {}}, {"type": "Feature", "geometry": {"type": "Point", "coordinates": [35.314816, 31.833283]}, "properties": {}}, {"type": "Feature", "geometry": {"type": "Point", "coordinates": [34.844082, 31.727414]}, "properties": {}}, {"type": "Feature", "geometry": {"type": "Point", "coordinates": [34.802211, 31.784231]}, "properties": {}}, {"type": "Feature", "geometry": {"type": "Point", "coordinates": [35.282651, 31.011251]}, "properties": {}}, {"type": "Feature", "geometry": {"type": "Point", "coordinates": [34.897005, 31.609735]}, "properties": {}}, {"type": "Feature", "geometry": {"type": "Point", "coordinates": [34.635307, 31.745483]}, "properties": {}}, {"type": "Feature", "geometry": {"type": "Point", "coordinates": [34.766949, 31.902497]}, "properties": {}}, {"type": "Feature", "geometry": {"type": "Point", "coordinates": [35.351506, 31.84156]}, "properties": {}}, {"type": "Feature", "geometry": {"type": "Point", "coordinates": [34.791277, 31.901757]}, "properties": {}}, {"type": "Feature", "geometry": {"type": "Point", "coordinates": [34.574291, 31.53386]}, "properties": {}}, {"type": "Feature", "geometry": {"type": "Point", "coordinates": [35.375309, 31.513896]}, "properties": {}}, {"type": "Feature", "geometry": {"type": "Point", "coordinates": [34.777615, 30.700097]}, "properties": {}}, {"type": "Feature", "geometry": {"type": "Point", "coordinates": [34.683405, 31.638632]}, "properties": {}}, {"type": "Feature", "geometry": {"type": "Point", "coordinates": [34.794243, 31.902741]}, "properties": {}}, {"type": "Feature", "geometry": {"type": "Point", "coordinates": [34.848096, 32.289662]}, "properties": {}}, {"type": "Feature", "geometry": {"type": "Point", "coordinates": [35.264268, 31.23733]}, "properties": {}}, {"type": "Feature", "geometry": {"type": "Point", "coordinates": [35.180961, 30.875744]}, "properties": {}}, {"type": "Feature", "geometry": {"type": "Point", "coordinates": [35.348694, 31.840364]}, "properties": {}}, {"type": "Feature", "geometry": {"type": "Point", "coordinates": [35.305784, 31.832794]}, "properties": {}}, {"type": "Feature", "geometry": {"type": "Point", "coordinates": [34.683788, 31.828658]}, "properties": {}}, {"type": "Feature", "geometry": {"type": "Point", "coordinates": [34.714212, 31.506695]}, "properties": {}}, {"type": "Feature", "geometry": {"type": "Point", "coordinates": [35.146127, 30.946736]}, "properties": {}}, {"type": "Feature", "geometry": {"type": "Point", "coordinates": [144.800025, -37.736403]}, "properties": {}}, {"type": "Feature", "geometry": {"type": "Point", "coordinates": [-111.339233, 26.003742]}, "properties": {}}, {"type": "Feature", "geometry": {"type": "Point", "coordinates": [172.989019, -41.406903]}, "properties": {}}, {"type": "Feature", "geometry": {"type": "Point", "coordinates": [-117.892, 33.649169]}, "properties": {}}, {"type": "Feature", "geometry": {"type": "Point", "coordinates": [172.755468, -43.565271]}, "properties": {}}, {"type": "Feature", "geometry": {"type": "Point", "coordinates": [-117.755951, 33.531038]}, "properties": {}}, {"type": "Feature", "geometry": {"type": "Point", "coordinates": [-98.481795, 29.462248]}, "properties": {}}, {"type": "Feature", "geometry": {"type": "Point", "coordinates": [-98.494592, 29.425191]}, "properties": {}}, {"type": "Feature", "geometry": {"type": "Point", "coordinates": [-98.494592, 29.425191]}, "properties": {}}, {"type": "Feature", "geometry": {"type": "Point", "coordinates": [173.159573, -41.2916]}, "properties": {}}, {"type": "Feature", "geometry": {"type": "Point", "coordinates": [-96.611325, 32.72872]}, "properties": {}}, {"type": "Feature", "geometry": {"type": "Point", "coordinates": [-117.089508, 32.891342]}, "properties": {}}, {"type": "Feature", "geometry": {"type": "Point", "coordinates": [16.433596, 48.237131]}, "properties": {}}, {"type": "Feature", "geometry": {"type": "Point", "coordinates": [26.462677, -26.645693]}, "properties": {}}, {"type": "Feature", "geometry": {"type": "Point", "coordinates": [175.47217, -37.889239]}, "properties": {}}, {"type": "Feature", "geometry": {"type": "Point", "coordinates": [-116.701069, 31.937982]}, "properties": {}}, {"type": "Feature", "geometry": {"type": "Point", "coordinates": [-96.935928, 33.057159]}, "properties": {}}, {"type": "Feature", "geometry": {"type": "Point", "coordinates": [150.184612, -33.466878]}, "properties": {}}, {"type": "Feature", "geometry": {"type": "Point", "coordinates": [26.454502, -26.667397]}, "properties": {}}, {"type": "Feature", "geometry": {"type": "Point", "coordinates": [-97.389678, 32.785738]}, "properties": {}}, {"type": "Feature", "geometry": {"type": "Point", "coordinates": [-70.878411, -33.296251]}, "properties": {}}, {"type": "Feature", "geometry": {"type": "Point", "coordinates": [-117.149581, 32.840161]}, "properties": {}}, {"type": "Feature", "geometry": {"type": "Point", "coordinates": [-114.825798, 36.312036]}, "properties": {}}, {"type": "Feature", "geometry": {"type": "Point", "coordinates": [-38.623374, -5.885985]}, "properties": {}}, {"type": "Feature", "geometry": {"type": "Point", "coordinates": [144.970879, -37.630992]}, "properties": {}}, {"type": "Feature", "geometry": {"type": "Point", "coordinates": [-110.265488, 31.916613]}, "properties": {}}, {"type": "Feature", "geometry": {"type": "Point", "coordinates": [-96.350215, 30.644276]}, "properties": {}}, {"type": "Feature", "geometry": {"type": "Point", "coordinates": [-95.206612, 29.678133]}, "properties": {}}, {"type": "Feature", "geometry": {"type": "Point", "coordinates": [-116.221005, 33.717959]}, "properties": {}}, {"type": "Feature", "geometry": {"type": "Point", "coordinates": [-13.85729, 28.860821]}, "properties": {}}, {"type": "Feature", "geometry": {"type": "Point", "coordinates": [116.0047, -31.94042]}, "properties": {}}, {"type": "Feature", "geometry": {"type": "Point", "coordinates": [55.842331, 24.961654]}, "properties": {}}, {"type": "Feature", "geometry": {"type": "Point", "coordinates": [-116.400545, 33.358472]}, "properties": {}}, {"type": "Feature", "geometry": {"type": "Point", "coordinates": [-111.372408, 25.926567]}, "properties": {}}, {"type": "Feature", "geometry": {"type": "Point", "coordinates": [100.073908, 15.809458]}, "properties": {}}, {"type": "Feature", "geometry": {"type": "Point", "coordinates": [-17.946516, 28.651695]}, "properties": {}}, {"type": "Feature", "geometry": {"type": "Point", "coordinates": [-111.37037, 25.926712]}, "properties": {}}, {"type": "Feature", "geometry": {"type": "Point", "coordinates": [28.199483, -27.533528]}, "properties": {}}, {"type": "Feature", "geometry": {"type": "Point", "coordinates": [150.575528, -35.149244]}, "properties": {}}, {"type": "Feature", "geometry": {"type": "Point", "coordinates": [150.580151, -35.149914]}, "properties": {}}, {"type": "Feature", "geometry": {"type": "Point", "coordinates": [150.571843, -35.151027]}, "properties": {}}, {"type": "Feature", "geometry": {"type": "Point", "coordinates": [150.346352, -34.453939]}, "properties": {}}, {"type": "Feature", "geometry": {"type": "Point", "coordinates": [151.126849, -34.023533]}, "properties": {}}, {"type": "Feature", "geometry": {"type": "Point", "coordinates": [150.793489, -34.05975]}, "properties": {}}, {"type": "Feature", "geometry": {"type": "Point", "coordinates": [150.808853, -34.524174]}, "properties": {}}, {"type": "Feature", "geometry": {"type": "Point", "coordinates": [150.790618, -34.520465]}, "properties": {}}, {"type": "Feature", "geometry": {"type": "Point", "coordinates": [149.704422, -35.101078]}, "properties": {}}, {"type": "Feature", "geometry": {"type": "Point", "coordinates": [149.116561, -36.241833]}, "properties": {}}, {"type": "Feature", "geometry": {"type": "Point", "coordinates": [150.681758, -34.228306]}, "properties": {}}, {"type": "Feature", "geometry": {"type": "Point", "coordinates": [150.681758, -34.228306]}, "properties": {}}, {"type": "Feature", "geometry": {"type": "Point", "coordinates": [150.977833, -33.750862]}, "properties": {}}, {"type": "Feature", "geometry": {"type": "Point", "coordinates": [151.247837, -33.882946]}, "properties": {}}, {"type": "Feature", "geometry": {"type": "Point", "coordinates": [150.69489, -33.549087]}, "properties": {}}, {"type": "Feature", "geometry": {"type": "Point", "coordinates": [149.209393, -35.451104]}, "properties": {}}, {"type": "Feature", "geometry": {"type": "Point", "coordinates": [151.130715, -33.711402]}, "properties": {}}, {"type": "Feature", "geometry": {"type": "Point", "coordinates": [151.168356, -33.8009]}, "properties": {}}, {"type": "Feature", "geometry": {"type": "Point", "coordinates": [150.870948, -34.054284]}, "properties": {}}, {"type": "Feature", "geometry": {"type": "Point", "coordinates": [150.457938, -34.375877]}, "properties": {}}, {"type": "Feature", "geometry": {"type": "Point", "coordinates": [151.287946, -33.718772]}, "properties": {}}, {"type": "Feature", "geometry": {"type": "Point", "coordinates": [34.904871, 32.169946]}, "properties": {}}, {"type": "Feature", "geometry": {"type": "Point", "coordinates": [34.920314, 32.606077]}, "properties": {}}, {"type": "Feature", "geometry": {"type": "Point", "coordinates": [34.861435, 29.72889]}, "properties": {}}, {"type": "Feature", "geometry": {"type": "Point", "coordinates": [5.5, 52.8]}, "properties": {}}, {"type": "Feature", "geometry": {"type": "Point", "coordinates": [144.772078, -37.664708]}, "properties": {}}, {"type": "Feature", "geometry": {"type": "Point", "coordinates": [-97.398681, 27.791667]}, "properties": {}}, {"type": "Feature", "geometry": {"type": "Point", "coordinates": [-97.399641, 27.791081]}, "properties": {}}, {"type": "Feature", "geometry": {"type": "Point", "coordinates": [177.05068, -39.69144]}, "properties": {}}, {"type": "Feature", "geometry": {"type": "Point", "coordinates": [-97.040698, 28.038381]}, "properties": {}}, {"type": "Feature", "geometry": {"type": "Point", "coordinates": [34.814645, 32.167933]}, "properties": {}}, {"type": "Feature", "geometry": {"type": "Point", "coordinates": [35.310541, 31.827046]}, "properties": {}}, {"type": "Feature", "geometry": {"type": "Point", "coordinates": [-101.797062, 30.46709]}, "properties": {}}, {"type": "Feature", "geometry": {"type": "Point", "coordinates": [-95.662888, 33.066162]}, "properties": {}}, {"type": "Feature", "geometry": {"type": "Point", "coordinates": [72.553362, 23.03795]}, "properties": {}}, {"type": "Feature", "geometry": {"type": "Point", "coordinates": [-117.24488, 32.672358]}, "properties": {}}, {"type": "Feature", "geometry": {"type": "Point", "coordinates": [-103.665343, 30.356757]}, "properties": {}}, {"type": "Feature", "geometry": {"type": "Point", "coordinates": [151.699875, -32.837845]}, "properties": {}}, {"type": "Feature", "geometry": {"type": "Point", "coordinates": [151.350312, -33.403832]}, "properties": {}}, {"type": "Feature", "geometry": {"type": "Point", "coordinates": [150.850255, -34.409506]}, "properties": {}}, {"type": "Feature", "geometry": {"type": "Point", "coordinates": [-99.142517, 30.04367]}, "properties": {}}]}