{"type": "FeatureCollection", "name": "Petroselinum crispum (Mill.)", "features": [{"type": "Feature", "geometry": {"type": "Point", "coordinates": [145.295929, -40.760983]}, "properties": {}}, {"type": "Feature", "geometry": {"type": "Point", "coordinates": [13.18504, 55.7223]}, "properties": {}}, {"type": "Feature", "geometry": {"type": "Point", "coordinates": [12.485809, 55.680342]}, "properties": {}}, {"type": "Feature", "geometry": {"type": "Point", "coordinates": [2.91729, 51.22836]}, "properties": {}}, {"type": "Feature", "geometry": {"type": "Point", "coordinates": [-111.868779, 40.77478]}, "properties": {}}, {"type": "Feature", "geometry": {"type": "Point", "coordinates": [174.798845, -41.291412]}, "properties": {}}, {"type": "Feature", "geometry": {"type": "Point", "coordinates": [174.765065, -41.344077]}, "properties": {}}, {"type": "Feature", "geometry": {"type": "Point", "coordinates": [-84.3731, 33.790596]}, "properties": {}}, {"type": "Feature", "geometry": {"type": "Point", "coordinates": [-78.937837, 35.932158]}, "properties": {}}, {"type": "Feature", "geometry": {"type": "Point", "coordinates": [9.948109, 53.580467]}, "properties": {}}, {"type": "Feature", "geometry": {"type": "Point", "coordinates": [174.764349, -41.346225]}, "properties": {}}, {"type": "Feature", "geometry": {"type": "Point", "coordinates": [151.059283, -33.733387]}, "properties": {}}, {"type": "Feature", "geometry": {"type": "Point", "coordinates": [29.040073, 41.222069]}, "properties": {}}, {"type": "Feature", "geometry": {"type": "Point", "coordinates": [144.544012, -38.261767]}, "properties": {}}, {"type": "Feature", "geometry": {"type": "Point", "coordinates": [173.550542, -42.459153]}, "properties": {}}, {"type": "Feature", "geometry": {"type": "Point", "coordinates": [12.800562, 46.843912]}, "properties": {}}, {"type": "Feature", "geometry": {"type": "Point", "coordinates": [173.550388, -42.459026]}, "properties": {}}, {"type": "Feature", "geometry": {"type": "Point", "coordinates": [-0.354363, 39.487995]}, "properties": {}}, {"type": "Feature", "geometry": {"type": "Point", "coordinates": [-7.940014, 37.018345]}, "properties": {}}, {"type": "Feature", "geometry": {"type": "Point", "coordinates": [174.943401, -40.832337]}, "properties": {}}, {"type": "Feature", "geometry": {"type": "Point", "coordinates": [170.517942, -45.862606]}, "properties": {}}, {"type": "Feature", "geometry": {"type": "Point", "coordinates": [-123.452559, 48.430846]}, "properties": {}}, {"type": "Feature", "geometry": {"type": "Point", "coordinates": [-80.820499, 35.051226]}, "properties": {}}, {"type": "Feature", "geometry": {"type": "Point", "coordinates": [-89.540002, -0.887999]}, "properties": {}}, {"type": "Feature", "geometry": {"type": "Point", "coordinates": [4.1, 51.95]}, "properties": {}}, {"type": "Feature", "geometry": {"type": "Point", "coordinates": [5.85, 51.8]}, "properties": {}}, {"type": "Feature", "geometry": {"type": "Point", "coordinates": [172.706926, -43.82625]}, "properties": {}}, {"type": "Feature", "geometry": {"type": "Point", "coordinates": [18.213598, 50.107015]}, "properties": {}}, {"type": "Feature", "geometry": {"type": "Point", "coordinates": [-117.803075, 33.773479]}, "properties": {}}, {"type": "Feature", "geometry": {"type": "Point", "coordinates": [-89.539953, -0.888075]}, "properties": {}}, {"type": "Feature", "geometry": {"type": "Point", "coordinates": [6.996547, 47.151242]}, "properties": {}}, {"type": "Feature", "geometry": {"type": "Point", "coordinates": [-4.288653, 55.87454]}, "properties": {}}, {"type": "Feature", "geometry": {"type": "Point", "coordinates": [170.498893, -45.874442]}, "properties": {}}, {"type": "Feature", "geometry": {"type": "Point", "coordinates": [174.821717, -41.339563]}, "properties": {}}, {"type": "Feature", "geometry": {"type": "Point", "coordinates": [174.838039, -41.327009]}, "properties": {}}, {"type": "Feature", "geometry": {"type": "Point", "coordinates": [174.789724, -41.312065]}, "properties": {}}, {"type": "Feature", "geometry": {"type": "Point", "coordinates": [4.25, 52.05]}, "properties": {}}, {"type": "Feature", "geometry": {"type": "Point", "coordinates": [173.641388, -42.411147]}, "properties": {}}, {"type": "Feature", "geometry": {"type": "Point", "coordinates": [174.818663, -41.211422]}, "properties": {}}, {"type": "Feature", "geometry": {"type": "Point", "coordinates": [174.784449, -41.327381]}, "properties": {}}, {"type": "Feature", "geometry": {"type": "Point", "coordinates": [5.95, 52.2]}, "properties": {}}, {"type": "Feature", "geometry": {"type": "Point", "coordinates": [174.76317, -41.34595]}, "properties": {}}, {"type": "Feature", "geometry": {"type": "Point", "coordinates": [2.64384, 51.12399]}, "properties": {}}, {"type": "Feature", "geometry": {"type": "Point", "coordinates": [2.62581, 51.11074]}, "properties": {}}, {"type": "Feature", "geometry": {"type": "Point", "coordinates": [2.64372, 51.12411]}, "properties": {}}, {"type": "Feature", "geometry": {"type": "Point", "coordinates": [2.64384, 51.12399]}, "properties": {}}, {"type": "Feature", "geometry": {"type": "Point", "coordinates": [5.3, 52.4]}, "properties": {}}, {"type": "Feature", "geometry": {"type": "Point", "coordinates": [5.3, 52.4]}, "properties": {}}, {"type": "Feature", "geometry": {"type": "Point", "coordinates": [174.766676, -41.344481]}, "properties": {}}, {"type": "Feature", "geometry": {"type": "Point", "coordinates": [170.59555, -45.871231]}, "properties": {}}, {"type": "Feature", "geometry": {"type": "Point", "coordinates": [174.773922, -41.25599]}, "properties": {}}, {"type": "Feature", "geometry": {"type": "Point", "coordinates": [174.764715, -41.344858]}, "properties": {}}, {"type": "Feature", "geometry": {"type": "Point", "coordinates": [27.576117, 53.91665]}, "properties": {}}, {"type": "Feature", "geometry": {"type": "Point", "coordinates": [174.832748, -41.329144]}, "properties": {}}, {"type": "Feature", "geometry": {"type": "Point", "coordinates": [-0.001747, 51.792569]}, "properties": {}}, {"type": "Feature", "geometry": {"type": "Point", "coordinates": [174.767248, -41.344827]}, "properties": {}}, {"type": "Feature", "geometry": {"type": "Point", "coordinates": [174.781361, -41.322071]}, "properties": {}}, {"type": "Feature", "geometry": {"type": "Point", "coordinates": [174.763367, -41.345608]}, "properties": {}}, {"type": "Feature", "geometry": {"type": "Point", "coordinates": [174.814196, -41.310881]}, "properties": {}}, {"type": "Feature", "geometry": {"type": "Point", "coordinates": [172.633727, -43.566118]}, "properties": {}}, {"type": "Feature", "geometry": {"type": "Point", "coordinates": [144.886683, -37.832606]}, "properties": {}}, {"type": "Feature", "geometry": {"type": "Point", "coordinates": [174.788894, -41.312744]}, "properties": {}}, {"type": "Feature", "geometry": {"type": "Point", "coordinates": [174.802353, -41.320664]}, "properties": {}}, {"type": "Feature", "geometry": {"type": "Point", "coordinates": [145.228902, -37.81476]}, "properties": {}}, {"type": "Feature", "geometry": {"type": "Point", "coordinates": [174.736532, -41.287678]}, "properties": {}}, {"type": "Feature", "geometry": {"type": "Point", "coordinates": [174.764994, -41.344083]}, "properties": {}}, {"type": "Feature", "geometry": {"type": "Point", "coordinates": [143.903768, -37.461661]}, "properties": {}}, {"type": "Feature", "geometry": {"type": "Point", "coordinates": [174.126446, -39.056454]}, "properties": {}}, {"type": "Feature", "geometry": {"type": "Point", "coordinates": [174.79882, -41.295111]}, "properties": {}}, {"type": "Feature", "geometry": {"type": "Point", "coordinates": [170.595529, -45.87121]}, "properties": {}}, {"type": "Feature", "geometry": {"type": "Point", "coordinates": [174.830414, -41.331398]}, "properties": {}}, {"type": "Feature", "geometry": {"type": "Point", "coordinates": [174.736496, -41.287688]}, "properties": {}}, {"type": "Feature", "geometry": {"type": "Point", "coordinates": [-27.961442, 39.011893]}, "properties": {}}, {"type": "Feature", "geometry": {"type": "Point", "coordinates": [16.85255, 57.06718]}, "properties": {}}, {"type": "Feature", "geometry": {"type": "Point", "coordinates": [172.704178, -43.578049]}, "properties": {}}, {"type": "Feature", "geometry": {"type": "Point", "coordinates": [174.758072, -41.261025]}, "properties": {}}, {"type": "Feature", "geometry": {"type": "Point", "coordinates": [174.880409, -41.091227]}, "properties": {}}, {"type": "Feature", "geometry": {"type": "Point", "coordinates": [174.714736, -41.281871]}, "properties": {}}, {"type": "Feature", "geometry": {"type": "Point", "coordinates": [172.632813, -43.579801]}, "properties": {}}, {"type": "Feature", "geometry": {"type": "Point", "coordinates": [174.714802, -41.2822]}, "properties": {}}, {"type": "Feature", "geometry": {"type": "Point", "coordinates": [174.748966, -41.280705]}, "properties": {}}, {"type": "Feature", "geometry": {"type": "Point", "coordinates": [16.57934, 56.73639]}, "properties": {}}, {"type": "Feature", "geometry": {"type": "Point", "coordinates": [172.633977, -43.57892]}, "properties": {}}, {"type": "Feature", "geometry": {"type": "Point", "coordinates": [174.755262, -41.287409]}, "properties": {}}, {"type": "Feature", "geometry": {"type": "Point", "coordinates": [174.789661, -41.301345]}, "properties": {}}, {"type": "Feature", "geometry": {"type": "Point", "coordinates": [174.760911, -41.347592]}, "properties": {}}, {"type": "Feature", "geometry": {"type": "Point", "coordinates": [172.631254, -43.574379]}, "properties": {}}, {"type": "Feature", "geometry": {"type": "Point", "coordinates": [172.742722, -43.588129]}, "properties": {}}, {"type": "Feature", "geometry": {"type": "Point", "coordinates": [174.805664, -41.250083]}, "properties": {}}, {"type": "Feature", "geometry": {"type": "Point", "coordinates": [174.816482, -41.228339]}, "properties": {}}, {"type": "Feature", "geometry": {"type": "Point", "coordinates": [172.705042, -43.824588]}, "properties": {}}, {"type": "Feature", "geometry": {"type": "Point", "coordinates": [-68.093769, -16.55664]}, "properties": {}}, {"type": "Feature", "geometry": {"type": "Point", "coordinates": [-84.437421, 33.723587]}, "properties": {}}, {"type": "Feature", "geometry": {"type": "Point", "coordinates": [4.75, 52.35]}, "properties": {}}, {"type": "Feature", "geometry": {"type": "Point", "coordinates": [4.75, 52.35]}, "properties": {}}, {"type": "Feature", "geometry": {"type": "Point", "coordinates": [4.75, 52.35]}, "properties": {}}, {"type": "Feature", "geometry": {"type": "Point", "coordinates": [5.5, 52.3]}, "properties": {}}, {"type": "Feature", "geometry": {"type": "Point", "coordinates": [4.75, 52.35]}, "properties": {}}, {"type": "Feature", "geometry": {"type": "Point", "coordinates": [4.75, 52.35]}, "properties": {}}, {"type": "Feature", "geometry": {"type": "Point", "coordinates": [5.951832, 45.361744]}, "properties": {}}, {"type": "Feature", "geometry": {"type": "Point", "coordinates": [4.14749, 50.99483]}, "properties": {}}, {"type": "Feature", "geometry": {"type": "Point", "coordinates": [-72.811005, 40.84162]}, "properties": {}}, {"type": "Feature", "geometry": {"type": "Point", "coordinates": [174.790706, -41.344723]}, "properties": {}}, {"type": "Feature", "geometry": {"type": "Point", "coordinates": [19.141313, 47.515102]}, "properties": {}}, {"type": "Feature", "geometry": {"type": "Point", "coordinates": [-72.811021, 40.841665]}, "properties": {}}, {"type": "Feature", "geometry": {"type": "Point", "coordinates": [3.79193, 50.96618]}, "properties": {}}, {"type": "Feature", "geometry": {"type": "Point", "coordinates": [3.79188, 50.96619]}, "properties": {}}, {"type": "Feature", "geometry": {"type": "Point", "coordinates": [-16.880012, 32.668431]}, "properties": {}}, {"type": "Feature", "geometry": {"type": "Point", "coordinates": [-75.773401, 41.188947]}, "properties": {}}, {"type": "Feature", "geometry": {"type": "Point", "coordinates": [172.648879, -43.639284]}, "properties": {}}, {"type": "Feature", "geometry": {"type": "Point", "coordinates": [2.323172, 42.566985]}, "properties": {}}, {"type": "Feature", "geometry": {"type": "Point", "coordinates": [-78.468855, -0.35638]}, "properties": {}}, {"type": "Feature", "geometry": {"type": "Point", "coordinates": [-111.582288, 35.189238]}, "properties": {}}, {"type": "Feature", "geometry": {"type": "Point", "coordinates": [25.185558, 46.244964]}, "properties": {}}, {"type": "Feature", "geometry": {"type": "Point", "coordinates": [4.13109, 51.0959]}, "properties": {}}, {"type": "Feature", "geometry": {"type": "Point", "coordinates": [4.21285, 50.74324]}, "properties": {}}, {"type": "Feature", "geometry": {"type": "Point", "coordinates": [3.61962, 50.76695]}, "properties": {}}, {"type": "Feature", "geometry": {"type": "Point", "coordinates": [-28.004406, 39.082576]}, "properties": {}}, {"type": "Feature", "geometry": {"type": "Point", "coordinates": [-74.049141, 4.648255]}, "properties": {}}, {"type": "Feature", "geometry": {"type": "Point", "coordinates": [-82.70938, 41.45902]}, "properties": {}}, {"type": "Feature", "geometry": {"type": "Point", "coordinates": [2.387301, 48.854592]}, "properties": {}}, {"type": "Feature", "geometry": {"type": "Point", "coordinates": [-73.057076, 40.939182]}, "properties": {}}, {"type": "Feature", "geometry": {"type": "Point", "coordinates": [3.7925, 50.96191]}, "properties": {}}, {"type": "Feature", "geometry": {"type": "Point", "coordinates": [5.05, 52.1]}, "properties": {}}, {"type": "Feature", "geometry": {"type": "Point", "coordinates": [4.45, 52.15]}, "properties": {}}, {"type": "Feature", "geometry": {"type": "Point", "coordinates": [3.71026, 51.01869]}, "properties": {}}, {"type": "Feature", "geometry": {"type": "Point", "coordinates": [173.999206, -40.66581]}, "properties": {}}, {"type": "Feature", "geometry": {"type": "Point", "coordinates": [172.63032, -43.513738]}, "properties": {}}, {"type": "Feature", "geometry": {"type": "Point", "coordinates": [172.806442, -43.58768]}, "properties": {}}, {"type": "Feature", "geometry": {"type": "Point", "coordinates": [172.801863, -43.590675]}, "properties": {}}, {"type": "Feature", "geometry": {"type": "Point", "coordinates": [174.758075, -41.261057]}, "properties": {}}, {"type": "Feature", "geometry": {"type": "Point", "coordinates": [138.70949, -34.974017]}, "properties": {}}, {"type": "Feature", "geometry": {"type": "Point", "coordinates": [13.1726, 55.70374]}, "properties": {}}, {"type": "Feature", "geometry": {"type": "Point", "coordinates": [4.45, 52.1]}, "properties": {}}, {"type": "Feature", "geometry": {"type": "Point", "coordinates": [38.301056, 49.903843]}, "properties": {}}, {"type": "Feature", "geometry": {"type": "Point", "coordinates": [-103.378638, 20.744855]}, "properties": {}}, {"type": "Feature", "geometry": {"type": "Point", "coordinates": [7.346117, 47.364827]}, "properties": {}}, {"type": "Feature", "geometry": {"type": "Point", "coordinates": [152.822668, -27.197089]}, "properties": {}}, {"type": "Feature", "geometry": {"type": "Point", "coordinates": [-123.302712, 48.468013]}, "properties": {}}, {"type": "Feature", "geometry": {"type": "Point", "coordinates": [145.130602, -37.691338]}, "properties": {}}, {"type": "Feature", "geometry": {"type": "Point", "coordinates": [116.772006, 29.310568]}, "properties": {}}, {"type": "Feature", "geometry": {"type": "Point", "coordinates": [-103.3786, 20.744895]}, "properties": {}}, {"type": "Feature", "geometry": {"type": "Point", "coordinates": [-16.90668, 32.677618]}, "properties": {}}, {"type": "Feature", "geometry": {"type": "Point", "coordinates": [-16.90668, 32.677618]}, "properties": {}}, {"type": "Feature", "geometry": {"type": "Point", "coordinates": [-78.645633, -1.709218]}, "properties": {}}, {"type": "Feature", "geometry": {"type": "Point", "coordinates": [-122.456033, 37.727803]}, "properties": {}}, {"type": "Feature", "geometry": {"type": "Point", "coordinates": [0.835496, 41.232039]}, "properties": {}}, {"type": "Feature", "geometry": {"type": "Point", "coordinates": [4.260215, 39.875706]}, "properties": {}}, {"type": "Feature", "geometry": {"type": "Point", "coordinates": [9.909949, 44.217468]}, "properties": {}}, {"type": "Feature", "geometry": {"type": "Point", "coordinates": [12.485827, 55.680326]}, "properties": {}}, {"type": "Feature", "geometry": {"type": "Point", "coordinates": [4.75, 51.55]}, "properties": {}}, {"type": "Feature", "geometry": {"type": "Point", "coordinates": [-84.252221, 33.759241]}, "properties": {}}, {"type": "Feature", "geometry": {"type": "Point", "coordinates": [174.764997, -41.29988]}, "properties": {}}, {"type": "Feature", "geometry": {"type": "Point", "coordinates": [172.66237, -43.618155]}, "properties": {}}, {"type": "Feature", "geometry": {"type": "Point", "coordinates": [172.960091, -43.869193]}, "properties": {}}, {"type": "Feature", "geometry": {"type": "Point", "coordinates": [4.70335, 50.88814]}, "properties": {}}, {"type": "Feature", "geometry": {"type": "Point", "coordinates": [-97.991829, 30.382911]}, "properties": {}}, {"type": "Feature", "geometry": {"type": "Point", "coordinates": [-122.37393, 47.683338]}, "properties": {}}, {"type": "Feature", "geometry": {"type": "Point", "coordinates": [-0.618267, 44.87549]}, "properties": {}}, {"type": "Feature", "geometry": {"type": "Point", "coordinates": [-16.302692, 28.56856]}, "properties": {}}, {"type": "Feature", "geometry": {"type": "Point", "coordinates": [-97.113658, 31.548827]}, "properties": {}}, {"type": "Feature", "geometry": {"type": "Point", "coordinates": [-16.952425, 32.659675]}, "properties": {}}, {"type": "Feature", "geometry": {"type": "Point", "coordinates": [-97.823563, 30.475845]}, "properties": {}}, {"type": "Feature", "geometry": {"type": "Point", "coordinates": [-95.305842, 32.349509]}, "properties": {}}, {"type": "Feature", "geometry": {"type": "Point", "coordinates": [20.166836, 44.750107]}, "properties": {}}, {"type": "Feature", "geometry": {"type": "Point", "coordinates": [-8.413539, 40.202499]}, "properties": {}}, {"type": "Feature", "geometry": {"type": "Point", "coordinates": [-84.284813, 33.845403]}, "properties": {}}, {"type": "Feature", "geometry": {"type": "Point", "coordinates": [2.840814, 43.179482]}, "properties": {}}, {"type": "Feature", "geometry": {"type": "Point", "coordinates": [-0.51505, 38.832116]}, "properties": {}}, {"type": "Feature", "geometry": {"type": "Point", "coordinates": [4.65, 51.75]}, "properties": {}}, {"type": "Feature", "geometry": {"type": "Point", "coordinates": [-52.307472, 4.928571]}, "properties": {}}, {"type": "Feature", "geometry": {"type": "Point", "coordinates": [12.499946, 50.88715]}, "properties": {}}, {"type": "Feature", "geometry": {"type": "Point", "coordinates": [-0.065742, 51.503887]}, "properties": {}}, {"type": "Feature", "geometry": {"type": "Point", "coordinates": [-79.02616, 35.906753]}, "properties": {}}, {"type": "Feature", "geometry": {"type": "Point", "coordinates": [-122.062003, 36.98227]}, "properties": {}}, {"type": "Feature", "geometry": {"type": "Point", "coordinates": [-155.736294, 20.050809]}, "properties": {}}, {"type": "Feature", "geometry": {"type": "Point", "coordinates": [-0.164076, 51.480668]}, "properties": {}}, {"type": "Feature", "geometry": {"type": "Point", "coordinates": [4.35051, 50.83052]}, "properties": {}}, {"type": "Feature", "geometry": {"type": "Point", "coordinates": [-25.063294, 37.012664]}, "properties": {}}, {"type": "Feature", "geometry": {"type": "Point", "coordinates": [7.142045, 46.123118]}, "properties": {}}, {"type": "Feature", "geometry": {"type": "Point", "coordinates": [-16.866171, 32.657559]}, "properties": {}}, {"type": "Feature", "geometry": {"type": "Point", "coordinates": [-53.785032, -29.779132]}, "properties": {}}, {"type": "Feature", "geometry": {"type": "Point", "coordinates": [2.08474, 48.645977]}, "properties": {}}, {"type": "Feature", "geometry": {"type": "Point", "coordinates": [6.860568, 51.550999]}, "properties": {}}, {"type": "Feature", "geometry": {"type": "Point", "coordinates": [6.9103, 51.550033]}, "properties": {}}, {"type": "Feature", "geometry": {"type": "Point", "coordinates": [6.627252, 50.704868]}, "properties": {}}, {"type": "Feature", "geometry": {"type": "Point", "coordinates": [6.68554, 46.79117]}, "properties": {}}, {"type": "Feature", "geometry": {"type": "Point", "coordinates": [7.1476, 46.11862]}, "properties": {}}, {"type": "Feature", "geometry": {"type": "Point", "coordinates": [-27.956764, 38.635338]}, "properties": {}}, {"type": "Feature", "geometry": {"type": "Point", "coordinates": [55.782203, 30.980802]}, "properties": {}}, {"type": "Feature", "geometry": {"type": "Point", "coordinates": [11.867491, 54.762133]}, "properties": {}}, {"type": "Feature", "geometry": {"type": "Point", "coordinates": [2.92485, 51.22351]}, "properties": {}}, {"type": "Feature", "geometry": {"type": "Point", "coordinates": [3.75756, 51.06296]}, "properties": {}}, {"type": "Feature", "geometry": {"type": "Point", "coordinates": [15.891613, 48.553945]}, "properties": {}}, {"type": "Feature", "geometry": {"type": "Point", "coordinates": [172.70282, -43.824453]}, "properties": {}}, {"type": "Feature", "geometry": {"type": "Point", "coordinates": [16.794922, 47.94638]}, "properties": {}}, {"type": "Feature", "geometry": {"type": "Point", "coordinates": [-122.613356, 45.398118]}, "properties": {}}, {"type": "Feature", "geometry": {"type": "Point", "coordinates": [174.832782, -41.168399]}, "properties": {}}, {"type": "Feature", "geometry": {"type": "Point", "coordinates": [-90.76303, 14.808655]}, "properties": {}}, {"type": "Feature", "geometry": {"type": "Point", "coordinates": [172.703565, -43.823913]}, "properties": {}}, {"type": "Feature", "geometry": {"type": "Point", "coordinates": [-78.435547, -0.19578]}, "properties": {}}, {"type": "Feature", "geometry": {"type": "Point", "coordinates": [-25.135269, 37.824245]}, "properties": {}}, {"type": "Feature", "geometry": {"type": "Point", "coordinates": [4.38266, 50.86176]}, "properties": {}}, {"type": "Feature", "geometry": {"type": "Point", "coordinates": [4.38909, 50.85865]}, "properties": {}}, {"type": "Feature", "geometry": {"type": "Point", "coordinates": [5.0, 52.05]}, "properties": {}}, {"type": "Feature", "geometry": {"type": "Point", "coordinates": [11.58484, 57.92285]}, "properties": {}}, {"type": "Feature", "geometry": {"type": "Point", "coordinates": [174.798667, -41.295088]}, "properties": {}}, {"type": "Feature", "geometry": {"type": "Point", "coordinates": [174.77887, -41.25745]}, "properties": {}}, {"type": "Feature", "geometry": {"type": "Point", "coordinates": [174.792765, -41.302663]}, "properties": {}}, {"type": "Feature", "geometry": {"type": "Point", "coordinates": [174.918573, -41.213501]}, "properties": {}}, {"type": "Feature", "geometry": {"type": "Point", "coordinates": [-112.042052, 40.689442]}, "properties": {}}, {"type": "Feature", "geometry": {"type": "Point", "coordinates": [174.775554, -41.318771]}, "properties": {}}, {"type": "Feature", "geometry": {"type": "Point", "coordinates": [174.754501, -41.332092]}, "properties": {}}, {"type": "Feature", "geometry": {"type": "Point", "coordinates": [174.787799, -41.295565]}, "properties": {}}, {"type": "Feature", "geometry": {"type": "Point", "coordinates": [174.79155, -41.345908]}, "properties": {}}, {"type": "Feature", "geometry": {"type": "Point", "coordinates": [174.820908, -41.201021]}, "properties": {}}, {"type": "Feature", "geometry": {"type": "Point", "coordinates": [174.783649, -41.342474]}, "properties": {}}, {"type": "Feature", "geometry": {"type": "Point", "coordinates": [174.968311, -41.200873]}, "properties": {}}, {"type": "Feature", "geometry": {"type": "Point", "coordinates": [174.796538, -41.322805]}, "properties": {}}, {"type": "Feature", "geometry": {"type": "Point", "coordinates": [173.956731, -39.116714]}, "properties": {}}, {"type": "Feature", "geometry": {"type": "Point", "coordinates": [174.790803, -41.327113]}, "properties": {}}, {"type": "Feature", "geometry": {"type": "Point", "coordinates": [126.216708, 6.951723]}, "properties": {}}, {"type": "Feature", "geometry": {"type": "Point", "coordinates": [173.689154, -42.413869]}, "properties": {}}, {"type": "Feature", "geometry": {"type": "Point", "coordinates": [-68.113356, -16.521047]}, "properties": {}}, {"type": "Feature", "geometry": {"type": "Point", "coordinates": [5.65, 51.65]}, "properties": {}}, {"type": "Feature", "geometry": {"type": "Point", "coordinates": [4.37932, 50.86219]}, "properties": {}}, {"type": "Feature", "geometry": {"type": "Point", "coordinates": [172.643885, -43.607679]}, "properties": {}}, {"type": "Feature", "geometry": {"type": "Point", "coordinates": [172.613167, -43.569025]}, "properties": {}}, {"type": "Feature", "geometry": {"type": "Point", "coordinates": [172.630331, -43.578122]}, "properties": {}}, {"type": "Feature", "geometry": {"type": "Point", "coordinates": [174.760855, -41.348139]}, "properties": {}}, {"type": "Feature", "geometry": {"type": "Point", "coordinates": [174.748854, -41.278097]}, "properties": {}}, {"type": "Feature", "geometry": {"type": "Point", "coordinates": [172.709524, -43.819249]}, "properties": {}}, {"type": "Feature", "geometry": {"type": "Point", "coordinates": [174.76137, -41.34801]}, "properties": {}}, {"type": "Feature", "geometry": {"type": "Point", "coordinates": [172.630407, -43.578224]}, "properties": {}}, {"type": "Feature", "geometry": {"type": "Point", "coordinates": [-5.341938, 36.141695]}, "properties": {}}, {"type": "Feature", "geometry": {"type": "Point", "coordinates": [172.63409, -43.578934]}, "properties": {}}, {"type": "Feature", "geometry": {"type": "Point", "coordinates": [172.633014, -43.579606]}, "properties": {}}, {"type": "Feature", "geometry": {"type": "Point", "coordinates": [172.643898, -43.607637]}, "properties": {}}, {"type": "Feature", "geometry": {"type": "Point", "coordinates": [-103.350618, 34.176639]}, "properties": {}}, {"type": "Feature", "geometry": {"type": "Point", "coordinates": [-52.307439, 4.928595]}, "properties": {}}, {"type": "Feature", "geometry": {"type": "Point", "coordinates": [175.332131, -37.796338]}, "properties": {}}, {"type": "Feature", "geometry": {"type": "Point", "coordinates": [-5.347588, 36.146478]}, "properties": {}}, {"type": "Feature", "geometry": {"type": "Point", "coordinates": [4.36673, 50.86182]}, "properties": {}}, {"type": "Feature", "geometry": {"type": "Point", "coordinates": [4.86323, 50.46449]}, "properties": {}}, {"type": "Feature", "geometry": {"type": "Point", "coordinates": [8.65109, 46.83222]}, "properties": {}}, {"type": "Feature", "geometry": {"type": "Point", "coordinates": [7.08292, 46.11843]}, "properties": {}}, {"type": "Feature", "geometry": {"type": "Point", "coordinates": [172.68554, -43.508912]}, "properties": {}}, {"type": "Feature", "geometry": {"type": "Point", "coordinates": [173.689154, -42.413869]}, "properties": {}}, {"type": "Feature", "geometry": {"type": "Point", "coordinates": [1.089303, 47.796211]}, "properties": {}}, {"type": "Feature", "geometry": {"type": "Point", "coordinates": [2.932416, 39.527613]}, "properties": {}}, {"type": "Feature", "geometry": {"type": "Point", "coordinates": [60.631472, 56.82605]}, "properties": {}}, {"type": "Feature", "geometry": {"type": "Point", "coordinates": [4.36719, 50.8936]}, "properties": {}}, {"type": "Feature", "geometry": {"type": "Point", "coordinates": [174.792511, -41.307144]}, "properties": {}}, {"type": "Feature", "geometry": {"type": "Point", "coordinates": [174.790436, -41.323792]}, "properties": {}}, {"type": "Feature", "geometry": {"type": "Point", "coordinates": [-17.21014, 32.765923]}, "properties": {}}, {"type": "Feature", "geometry": {"type": "Point", "coordinates": [115.689964, -31.543218]}, "properties": {}}, {"type": "Feature", "geometry": {"type": "Point", "coordinates": [174.792145, -41.307236]}, "properties": {}}, {"type": "Feature", "geometry": {"type": "Point", "coordinates": [4.35, 52.0]}, "properties": {}}, {"type": "Feature", "geometry": {"type": "Point", "coordinates": [4.21284, 50.74325]}, "properties": {}}, {"type": "Feature", "geometry": {"type": "Point", "coordinates": [11.90345, 57.30364]}, "properties": {}}, {"type": "Feature", "geometry": {"type": "Point", "coordinates": [4.45, 51.9]}, "properties": {}}, {"type": "Feature", "geometry": {"type": "Point", "coordinates": [4.37721, 51.18798]}, "properties": {}}, {"type": "Feature", "geometry": {"type": "Point", "coordinates": [174.784392, -41.322056]}, "properties": {}}, {"type": "Feature", "geometry": {"type": "Point", "coordinates": [175.006918, -40.916557]}, "properties": {}}, {"type": "Feature", "geometry": {"type": "Point", "coordinates": [-27.981418, 39.064018]}, "properties": {}}, {"type": "Feature", "geometry": {"type": "Point", "coordinates": [7.824922, 48.296894]}, "properties": {}}, {"type": "Feature", "geometry": {"type": "Point", "coordinates": [5.1, 52.05]}, "properties": {}}, {"type": "Feature", "geometry": {"type": "Point", "coordinates": [-76.326065, 35.409332]}, "properties": {}}, {"type": "Feature", "geometry": {"type": "Point", "coordinates": [40.828537, 45.436628]}, "properties": {}}, {"type": "Feature", "geometry": {"type": "Point", "coordinates": [20.479875, 54.96003]}, "properties": {}}, {"type": "Feature", "geometry": {"type": "Point", "coordinates": [-40.598129, -20.353663]}, "properties": {}}, {"type": "Feature", "geometry": {"type": "Point", "coordinates": [-64.355096, 45.091911]}, "properties": {}}, {"type": "Feature", "geometry": {"type": "Point", "coordinates": [144.529892, -37.35648]}, "properties": {}}, {"type": "Feature", "geometry": {"type": "Point", "coordinates": [-117.510462, 47.744148]}, "properties": {}}, {"type": "Feature", "geometry": {"type": "Point", "coordinates": [-122.867514, 48.443074]}, "properties": {}}, {"type": "Feature", "geometry": {"type": "Point", "coordinates": [174.792749, -41.298077]}, "properties": {}}, {"type": "Feature", "geometry": {"type": "Point", "coordinates": [6.23424, 46.47242]}, "properties": {}}, {"type": "Feature", "geometry": {"type": "Point", "coordinates": [6.62414, 46.52087]}, "properties": {}}, {"type": "Feature", "geometry": {"type": "Point", "coordinates": [4.3773, 50.84886]}, "properties": {}}, {"type": "Feature", "geometry": {"type": "Point", "coordinates": [12.672634, 55.592796]}, "properties": {}}, {"type": "Feature", "geometry": {"type": "Point", "coordinates": [-5.776493, 35.773567]}, "properties": {}}, {"type": "Feature", "geometry": {"type": "Point", "coordinates": [2.926931, 39.527583]}, "properties": {}}, {"type": "Feature", "geometry": {"type": "Point", "coordinates": [15.817547, 48.091175]}, "properties": {}}, {"type": "Feature", "geometry": {"type": "Point", "coordinates": [15.817547, 48.091175]}, "properties": {}}, {"type": "Feature", "geometry": {"type": "Point", "coordinates": [0.145236, 53.599025]}, "properties": {}}, {"type": "Feature", "geometry": {"type": "Point", "coordinates": [4.9, 52.35]}, "properties": {}}, {"type": "Feature", "geometry": {"type": "Point", "coordinates": [4.9, 52.35]}, "properties": {}}, {"type": "Feature", "geometry": {"type": "Point", "coordinates": [34.456649, 53.242692]}, "properties": {}}, {"type": "Feature", "geometry": {"type": "Point", "coordinates": [5.2, 53.35]}, "properties": {}}, {"type": "Feature", "geometry": {"type": "Point", "coordinates": [4.3572, 50.8789]}, "properties": {}}, {"type": "Feature", "geometry": {"type": "Point", "coordinates": [4.36719, 50.89368]}, "properties": {}}, {"type": "Feature", "geometry": {"type": "Point", "coordinates": [174.765105, -41.344059]}, "properties": {}}, {"type": "Feature", "geometry": {"type": "Point", "coordinates": [27.039715, 45.203576]}, "properties": {}}, {"type": "Feature", "geometry": {"type": "Point", "coordinates": [174.76465, -41.346747]}, "properties": {}}, {"type": "Feature", "geometry": {"type": "Point", "coordinates": [-111.596386, 40.083628]}, "properties": {}}, {"type": "Feature", "geometry": {"type": "Point", "coordinates": [-27.290767, 38.798863]}, "properties": {}}, {"type": "Feature", "geometry": {"type": "Point", "coordinates": [3.01317, 51.18297]}, "properties": {}}, {"type": "Feature", "geometry": {"type": "Point", "coordinates": [4.35217, 50.84413]}, "properties": {}}, {"type": "Feature", "geometry": {"type": "Point", "coordinates": [5.0, 52.3]}, "properties": {}}, {"type": "Feature", "geometry": {"type": "Point", "coordinates": [4.10028, 51.19984]}, "properties": {}}]}