{"type": "FeatureCollection", "name": "Juniperus sabina", "features": [{"type": "Feature", "geometry": {"type": "Point", "coordinates": [16.40594, 56.26446]}, "properties": {}}, {"type": "Feature", "geometry": {"type": "Point", "coordinates": [7.733122, 46.009517]}, "properties": {}}, {"type": "Feature", "geometry": {"type": "Point", "coordinates": [83.085339, 51.33271]}, "properties": {}}, {"type": "Feature", "geometry": {"type": "Point", "coordinates": [7.727422, 46.007122]}, "properties": {}}, {"type": "Feature", "geometry": {"type": "Point", "coordinates": [42.688556, 43.278955]}, "properties": {}}, {"type": "Feature", "geometry": {"type": "Point", "coordinates": [15.242114, 47.890543]}, "properties": {}}, {"type": "Feature", "geometry": {"type": "Point", "coordinates": [15.24194, 47.89056]}, "properties": {}}, {"type": "Feature", "geometry": {"type": "Point", "coordinates": [15.705, 47.82083]}, "properties": {}}, {"type": "Feature", "geometry": {"type": "Point", "coordinates": [15.705, 47.82083]}, "properties": {}}, {"type": "Feature", "geometry": {"type": "Point", "coordinates": [26.094547, 52.119129]}, "properties": {}}, {"type": "Feature", "geometry": {"type": "Point", "coordinates": [12.82928, 55.38978]}, "properties": {}}, {"type": "Feature", "geometry": {"type": "Point", "coordinates": [10.910876, 47.163295]}, "properties": {}}, {"type": "Feature", "geometry": {"type": "Point", "coordinates": [74.509429, 42.551771]}, "properties": {}}, {"type": "Feature", "geometry": {"type": "Point", "coordinates": [12.82925, 55.38982]}, "properties": {}}, {"type": "Feature", "geometry": {"type": "Point", "coordinates": [6.529289, 44.797642]}, "properties": {}}, {"type": "Feature", "geometry": {"type": "Point", "coordinates": [11.491208, 47.065931]}, "properties": {}}, {"type": "Feature", "geometry": {"type": "Point", "coordinates": [6.570075, 44.743054]}, "properties": {}}, {"type": "Feature", "geometry": {"type": "Point", "coordinates": [11.49467, 47.067035]}, "properties": {}}, {"type": "Feature", "geometry": {"type": "Point", "coordinates": [11.494238, 47.066678]}, "properties": {}}, {"type": "Feature", "geometry": {"type": "Point", "coordinates": [56.098397, 53.554222]}, "properties": {}}, {"type": "Feature", "geometry": {"type": "Point", "coordinates": [11.490623, 47.065865]}, "properties": {}}, {"type": "Feature", "geometry": {"type": "Point", "coordinates": [11.494535, 47.06702]}, "properties": {}}, {"type": "Feature", "geometry": {"type": "Point", "coordinates": [-4.701183, 42.995005]}, "properties": {}}, {"type": "Feature", "geometry": {"type": "Point", "coordinates": [15.78644, 56.94973]}, "properties": {}}, {"type": "Feature", "geometry": {"type": "Point", "coordinates": [6.77808, 44.679033]}, "properties": {}}, {"type": "Feature", "geometry": {"type": "Point", "coordinates": [10.698107, 47.080031]}, "properties": {}}, {"type": "Feature", "geometry": {"type": "Point", "coordinates": [83.084825, 51.333403]}, "properties": {}}, {"type": "Feature", "geometry": {"type": "Point", "coordinates": [43.503151, 49.488716]}, "properties": {}}, {"type": "Feature", "geometry": {"type": "Point", "coordinates": [15.165119, 44.543889]}, "properties": {}}, {"type": "Feature", "geometry": {"type": "Point", "coordinates": [43.630921, 43.105951]}, "properties": {}}, {"type": "Feature", "geometry": {"type": "Point", "coordinates": [12.598025, 46.92405]}, "properties": {}}, {"type": "Feature", "geometry": {"type": "Point", "coordinates": [44.394253, 49.74687]}, "properties": {}}, {"type": "Feature", "geometry": {"type": "Point", "coordinates": [43.140458, 49.299788]}, "properties": {}}, {"type": "Feature", "geometry": {"type": "Point", "coordinates": [13.492477, 47.102451]}, "properties": {}}, {"type": "Feature", "geometry": {"type": "Point", "coordinates": [43.604698, 49.190639]}, "properties": {}}, {"type": "Feature", "geometry": {"type": "Point", "coordinates": [43.593482, 49.180841]}, "properties": {}}, {"type": "Feature", "geometry": {"type": "Point", "coordinates": [43.577064, 49.16148]}, "properties": {}}, {"type": "Feature", "geometry": {"type": "Point", "coordinates": [133.060592, 43.293608]}, "properties": {}}, {"type": "Feature", "geometry": {"type": "Point", "coordinates": [4.185314, 36.468173]}, "properties": {}}, {"type": "Feature", "geometry": {"type": "Point", "coordinates": [43.75178, 49.550387]}, "properties": {}}, {"type": "Feature", "geometry": {"type": "Point", "coordinates": [43.606908, 49.188161]}, "properties": {}}, {"type": "Feature", "geometry": {"type": "Point", "coordinates": [43.761446, 49.555333]}, "properties": {}}, {"type": "Feature", "geometry": {"type": "Point", "coordinates": [43.716036, 49.591401]}, "properties": {}}, {"type": "Feature", "geometry": {"type": "Point", "coordinates": [43.735604, 49.545968]}, "properties": {}}, {"type": "Feature", "geometry": {"type": "Point", "coordinates": [15.78723, 56.94997]}, "properties": {}}, {"type": "Feature", "geometry": {"type": "Point", "coordinates": [43.49488, 49.098161]}, "properties": {}}, {"type": "Feature", "geometry": {"type": "Point", "coordinates": [43.603336, 49.189019]}, "properties": {}}, {"type": "Feature", "geometry": {"type": "Point", "coordinates": [43.49433, 49.10905]}, "properties": {}}, {"type": "Feature", "geometry": {"type": "Point", "coordinates": [-1.0, 40.1]}, "properties": {}}, {"type": "Feature", "geometry": {"type": "Point", "coordinates": [75.484661, 49.436471]}, "properties": {}}, {"type": "Feature", "geometry": {"type": "Point", "coordinates": [81.213018, 47.373583]}, "properties": {}}, {"type": "Feature", "geometry": {"type": "Point", "coordinates": [43.497955, 49.107392]}, "properties": {}}, {"type": "Feature", "geometry": {"type": "Point", "coordinates": [43.730018, 49.589463]}, "properties": {}}, {"type": "Feature", "geometry": {"type": "Point", "coordinates": [-1.595642, 40.369739]}, "properties": {}}, {"type": "Feature", "geometry": {"type": "Point", "coordinates": [104.079096, 43.49083]}, "properties": {}}, {"type": "Feature", "geometry": {"type": "Point", "coordinates": [84.155419, 47.569013]}, "properties": {}}, {"type": "Feature", "geometry": {"type": "Point", "coordinates": [76.979799, 43.121483]}, "properties": {}}, {"type": "Feature", "geometry": {"type": "Point", "coordinates": [81.693459, 47.274049]}, "properties": {}}, {"type": "Feature", "geometry": {"type": "Point", "coordinates": [12.82928, 55.38977]}, "properties": {}}, {"type": "Feature", "geometry": {"type": "Point", "coordinates": [12.41623, 47.298931]}, "properties": {}}, {"type": "Feature", "geometry": {"type": "Point", "coordinates": [-5.00266, 36.705277]}, "properties": {}}, {"type": "Feature", "geometry": {"type": "Point", "coordinates": [34.390239, 44.759011]}, "properties": {}}, {"type": "Feature", "geometry": {"type": "Point", "coordinates": [34.580421, 44.823244]}, "properties": {}}, {"type": "Feature", "geometry": {"type": "Point", "coordinates": [7.79584, 46.34333]}, "properties": {}}, {"type": "Feature", "geometry": {"type": "Point", "coordinates": [7.14736, 46.1636]}, "properties": {}}, {"type": "Feature", "geometry": {"type": "Point", "coordinates": [7.79584, 46.34333]}, "properties": {}}, {"type": "Feature", "geometry": {"type": "Point", "coordinates": [7.465355, 51.481883]}, "properties": {}}, {"type": "Feature", "geometry": {"type": "Point", "coordinates": [-3.716113, 40.443224]}, "properties": {}}, {"type": "Feature", "geometry": {"type": "Point", "coordinates": [19.118465, 50.833387]}, "properties": {}}, {"type": "Feature", "geometry": {"type": "Point", "coordinates": [6.859725, 44.718214]}, "properties": {}}, {"type": "Feature", "geometry": {"type": "Point", "coordinates": [16.903565, 52.427389]}, "properties": {}}, {"type": "Feature", "geometry": {"type": "Point", "coordinates": [2.381958, 41.849075]}, "properties": {}}, {"type": "Feature", "geometry": {"type": "Point", "coordinates": [11.488342, 47.065833]}, "properties": {}}, {"type": "Feature", "geometry": {"type": "Point", "coordinates": [-5.881392, 42.937163]}, "properties": {}}, {"type": "Feature", "geometry": {"type": "Point", "coordinates": [16.40594, 56.26446]}, "properties": {}}, {"type": "Feature", "geometry": {"type": "Point", "coordinates": [85.901, 51.56651]}, "properties": {}}, {"type": "Feature", "geometry": {"type": "Point", "coordinates": [6.563483, 44.818528]}, "properties": {}}, {"type": "Feature", "geometry": {"type": "Point", "coordinates": [6.563483, 44.818528]}, "properties": {}}, {"type": "Feature", "geometry": {"type": "Point", "coordinates": [14.089758, 46.358025]}, "properties": {}}, {"type": "Feature", "geometry": {"type": "Point", "coordinates": [6.716876, 44.871147]}, "properties": {}}, {"type": "Feature", "geometry": {"type": "Point", "coordinates": [-1.85345, 40.394763]}, "properties": {}}, {"type": "Feature", "geometry": {"type": "Point", "coordinates": [-3.600831, 40.036041]}, "properties": {}}, {"type": "Feature", "geometry": {"type": "Point", "coordinates": [2.437747, 48.842753]}, "properties": {}}, {"type": "Feature", "geometry": {"type": "Point", "coordinates": [1.073181, 49.904463]}, "properties": {}}, {"type": "Feature", "geometry": {"type": "Point", "coordinates": [-3.597467, 40.402678]}, "properties": {}}, {"type": "Feature", "geometry": {"type": "Point", "coordinates": [7.14736, 46.1636]}, "properties": {}}, {"type": "Feature", "geometry": {"type": "Point", "coordinates": [7.14736, 46.1636]}, "properties": {}}, {"type": "Feature", "geometry": {"type": "Point", "coordinates": [7.14736, 46.1636]}, "properties": {}}, {"type": "Feature", "geometry": {"type": "Point", "coordinates": [7.14736, 46.1636]}, "properties": {}}, {"type": "Feature", "geometry": {"type": "Point", "coordinates": [6.605762, 44.715664]}, "properties": {}}, {"type": "Feature", "geometry": {"type": "Point", "coordinates": [34.313381, 44.805808]}, "properties": {}}, {"type": "Feature", "geometry": {"type": "Point", "coordinates": [-5.068611, 42.82128]}, "properties": {}}, {"type": "Feature", "geometry": {"type": "Point", "coordinates": [5.563825, 44.902467]}, "properties": {}}, {"type": "Feature", "geometry": {"type": "Point", "coordinates": [2.358732, 48.844114]}, "properties": {}}, {"type": "Feature", "geometry": {"type": "Point", "coordinates": [15.970508, 45.804417]}, "properties": {}}, {"type": "Feature", "geometry": {"type": "Point", "coordinates": [-1.631999, 42.803183]}, "properties": {}}, {"type": "Feature", "geometry": {"type": "Point", "coordinates": [2.358735, 48.844144]}, "properties": {}}, {"type": "Feature", "geometry": {"type": "Point", "coordinates": [10.988648, 45.431459]}, "properties": {}}, {"type": "Feature", "geometry": {"type": "Point", "coordinates": [17.210248, 44.775405]}, "properties": {}}, {"type": "Feature", "geometry": {"type": "Point", "coordinates": [-0.350355, 39.460704]}, "properties": {}}, {"type": "Feature", "geometry": {"type": "Point", "coordinates": [3.158015, 50.67397]}, "properties": {}}, {"type": "Feature", "geometry": {"type": "Point", "coordinates": [13.162818, 52.418435]}, "properties": {}}, {"type": "Feature", "geometry": {"type": "Point", "coordinates": [5.97027, 45.376501]}, "properties": {}}, {"type": "Feature", "geometry": {"type": "Point", "coordinates": [-5.020366, 36.696048]}, "properties": {}}, {"type": "Feature", "geometry": {"type": "Point", "coordinates": [11.645325, 52.179111]}, "properties": {}}, {"type": "Feature", "geometry": {"type": "Point", "coordinates": [7.85974, 46.20817]}, "properties": {}}, {"type": "Feature", "geometry": {"type": "Point", "coordinates": [7.85974, 46.20817]}, "properties": {}}, {"type": "Feature", "geometry": {"type": "Point", "coordinates": [7.92493, 46.25289]}, "properties": {}}, {"type": "Feature", "geometry": {"type": "Point", "coordinates": [7.40598, 46.65873]}, "properties": {}}, {"type": "Feature", "geometry": {"type": "Point", "coordinates": [7.79555, 46.29835]}, "properties": {}}, {"type": "Feature", "geometry": {"type": "Point", "coordinates": [7.53598, 46.29887]}, "properties": {}}, {"type": "Feature", "geometry": {"type": "Point", "coordinates": [7.40598, 46.65873]}, "properties": {}}, {"type": "Feature", "geometry": {"type": "Point", "coordinates": [7.86009, 46.25315]}, "properties": {}}, {"type": "Feature", "geometry": {"type": "Point", "coordinates": [7.85974, 46.20817]}, "properties": {}}, {"type": "Feature", "geometry": {"type": "Point", "coordinates": [7.79584, 46.34333]}, "properties": {}}, {"type": "Feature", "geometry": {"type": "Point", "coordinates": [7.79584, 46.34333]}, "properties": {}}, {"type": "Feature", "geometry": {"type": "Point", "coordinates": [7.86009, 46.25315]}, "properties": {}}, {"type": "Feature", "geometry": {"type": "Point", "coordinates": [7.85974, 46.20817]}, "properties": {}}, {"type": "Feature", "geometry": {"type": "Point", "coordinates": [7.85974, 46.20817]}, "properties": {}}, {"type": "Feature", "geometry": {"type": "Point", "coordinates": [7.86044, 46.29813]}, "properties": {}}, {"type": "Feature", "geometry": {"type": "Point", "coordinates": [7.85974, 46.20817]}, "properties": {}}, {"type": "Feature", "geometry": {"type": "Point", "coordinates": [7.79584, 46.34333]}, "properties": {}}, {"type": "Feature", "geometry": {"type": "Point", "coordinates": [7.86044, 46.29813]}, "properties": {}}, {"type": "Feature", "geometry": {"type": "Point", "coordinates": [7.85974, 46.20817]}, "properties": {}}, {"type": "Feature", "geometry": {"type": "Point", "coordinates": [7.86009, 46.25315]}, "properties": {}}, {"type": "Feature", "geometry": {"type": "Point", "coordinates": [7.86009, 46.25315]}, "properties": {}}, {"type": "Feature", "geometry": {"type": "Point", "coordinates": [7.79584, 46.34333]}, "properties": {}}, {"type": "Feature", "geometry": {"type": "Point", "coordinates": [7.34065, 46.65869]}, "properties": {}}, {"type": "Feature", "geometry": {"type": "Point", "coordinates": [7.86009, 46.25315]}, "properties": {}}, {"type": "Feature", "geometry": {"type": "Point", "coordinates": [7.79584, 46.34333]}, "properties": {}}, {"type": "Feature", "geometry": {"type": "Point", "coordinates": [7.85974, 46.20817]}, "properties": {}}, {"type": "Feature", "geometry": {"type": "Point", "coordinates": [7.79584, 46.34333]}, "properties": {}}, {"type": "Feature", "geometry": {"type": "Point", "coordinates": [7.92533, 46.29787]}, "properties": {}}, {"type": "Feature", "geometry": {"type": "Point", "coordinates": [7.86009, 46.25315]}, "properties": {}}, {"type": "Feature", "geometry": {"type": "Point", "coordinates": [7.86009, 46.25315]}, "properties": {}}, {"type": "Feature", "geometry": {"type": "Point", "coordinates": [7.86009, 46.25315]}, "properties": {}}, {"type": "Feature", "geometry": {"type": "Point", "coordinates": [-5.014211, 36.693651]}, "properties": {}}, {"type": "Feature", "geometry": {"type": "Point", "coordinates": [11.489698, 47.065222]}, "properties": {}}, {"type": "Feature", "geometry": {"type": "Point", "coordinates": [7.60087, 46.29879]}, "properties": {}}, {"type": "Feature", "geometry": {"type": "Point", "coordinates": [10.42191, 46.84471]}, "properties": {}}, {"type": "Feature", "geometry": {"type": "Point", "coordinates": [10.42191, 46.84471]}, "properties": {}}, {"type": "Feature", "geometry": {"type": "Point", "coordinates": [10.42191, 46.84471]}, "properties": {}}, {"type": "Feature", "geometry": {"type": "Point", "coordinates": [-4.744894, 42.895539]}, "properties": {}}, {"type": "Feature", "geometry": {"type": "Point", "coordinates": [4.761054, 44.28444]}, "properties": {}}, {"type": "Feature", "geometry": {"type": "Point", "coordinates": [16.40643, 56.26425]}, "properties": {}}, {"type": "Feature", "geometry": {"type": "Point", "coordinates": [70.815467, 52.032089]}, "properties": {}}, {"type": "Feature", "geometry": {"type": "Point", "coordinates": [7.842506, 46.284114]}, "properties": {}}, {"type": "Feature", "geometry": {"type": "Point", "coordinates": [70.999878, 52.058875]}, "properties": {}}, {"type": "Feature", "geometry": {"type": "Point", "coordinates": [-0.216712, 43.019257]}, "properties": {}}, {"type": "Feature", "geometry": {"type": "Point", "coordinates": [14.50957, 56.84702]}, "properties": {}}, {"type": "Feature", "geometry": {"type": "Point", "coordinates": [12.82928, 55.38977]}, "properties": {}}, {"type": "Feature", "geometry": {"type": "Point", "coordinates": [87.866333, 50.238811]}, "properties": {}}, {"type": "Feature", "geometry": {"type": "Point", "coordinates": [-6.16449, 43.022926]}, "properties": {}}, {"type": "Feature", "geometry": {"type": "Point", "coordinates": [13.23722, 47.177001]}, "properties": {}}, {"type": "Feature", "geometry": {"type": "Point", "coordinates": [77.07916, 43.173608]}, "properties": {}}, {"type": "Feature", "geometry": {"type": "Point", "coordinates": [77.07916, 43.173608]}, "properties": {}}, {"type": "Feature", "geometry": {"type": "Point", "coordinates": [83.083831, 51.231782]}, "properties": {}}, {"type": "Feature", "geometry": {"type": "Point", "coordinates": [83.064, 51.208]}, "properties": {}}, {"type": "Feature", "geometry": {"type": "Point", "coordinates": [43.723264, 49.563673]}, "properties": {}}, {"type": "Feature", "geometry": {"type": "Point", "coordinates": [74.828904, 47.449327]}, "properties": {}}, {"type": "Feature", "geometry": {"type": "Point", "coordinates": [44.394573, 49.781536]}, "properties": {}}, {"type": "Feature", "geometry": {"type": "Point", "coordinates": [74.857133, 47.469647]}, "properties": {}}, {"type": "Feature", "geometry": {"type": "Point", "coordinates": [9.42896, 46.59636]}, "properties": {}}, {"type": "Feature", "geometry": {"type": "Point", "coordinates": [7.7309, 46.34351]}, "properties": {}}, {"type": "Feature", "geometry": {"type": "Point", "coordinates": [7.73066, 46.29854]}, "properties": {}}, {"type": "Feature", "geometry": {"type": "Point", "coordinates": [7.7309, 46.34351]}, "properties": {}}, {"type": "Feature", "geometry": {"type": "Point", "coordinates": [7.08262, 46.16341]}, "properties": {}}, {"type": "Feature", "geometry": {"type": "Point", "coordinates": [7.66577, 46.29868]}, "properties": {}}, {"type": "Feature", "geometry": {"type": "Point", "coordinates": [7.73066, 46.29854]}, "properties": {}}, {"type": "Feature", "geometry": {"type": "Point", "coordinates": [7.86044, 46.29813]}, "properties": {}}, {"type": "Feature", "geometry": {"type": "Point", "coordinates": [7.47125, 46.56877]}, "properties": {}}, {"type": "Feature", "geometry": {"type": "Point", "coordinates": [7.73066, 46.29854]}, "properties": {}}, {"type": "Feature", "geometry": {"type": "Point", "coordinates": [7.47127, 46.61375]}, "properties": {}}, {"type": "Feature", "geometry": {"type": "Point", "coordinates": [7.79584, 46.34333]}, "properties": {}}, {"type": "Feature", "geometry": {"type": "Point", "coordinates": [7.73066, 46.29854]}, "properties": {}}, {"type": "Feature", "geometry": {"type": "Point", "coordinates": [7.47127, 46.61375]}, "properties": {}}, {"type": "Feature", "geometry": {"type": "Point", "coordinates": [7.60087, 46.29879]}, "properties": {}}, {"type": "Feature", "geometry": {"type": "Point", "coordinates": [7.60087, 46.29879]}, "properties": {}}, {"type": "Feature", "geometry": {"type": "Point", "coordinates": [7.66577, 46.29868]}, "properties": {}}, {"type": "Feature", "geometry": {"type": "Point", "coordinates": [7.66577, 46.29868]}, "properties": {}}, {"type": "Feature", "geometry": {"type": "Point", "coordinates": [7.86044, 46.29813]}, "properties": {}}, {"type": "Feature", "geometry": {"type": "Point", "coordinates": [7.7309, 46.34351]}, "properties": {}}, {"type": "Feature", "geometry": {"type": "Point", "coordinates": [7.7309, 46.34351]}, "properties": {}}, {"type": "Feature", "geometry": {"type": "Point", "coordinates": [7.842563, 46.284163]}, "properties": {}}, {"type": "Feature", "geometry": {"type": "Point", "coordinates": [13.836267, 47.076061]}, "properties": {}}, {"type": "Feature", "geometry": {"type": "Point", "coordinates": [13.23722, 47.177001]}, "properties": {}}, {"type": "Feature", "geometry": {"type": "Point", "coordinates": [13.836427, 47.076172]}, "properties": {}}, {"type": "Feature", "geometry": {"type": "Point", "coordinates": [7.650818, 46.316657]}, "properties": {}}, {"type": "Feature", "geometry": {"type": "Point", "coordinates": [10.42441, 46.88965]}, "properties": {}}, {"type": "Feature", "geometry": {"type": "Point", "coordinates": [10.42191, 46.84471]}, "properties": {}}, {"type": "Feature", "geometry": {"type": "Point", "coordinates": [10.42191, 46.84471]}, "properties": {}}, {"type": "Feature", "geometry": {"type": "Point", "coordinates": [10.42191, 46.84471]}, "properties": {}}, {"type": "Feature", "geometry": {"type": "Point", "coordinates": [10.42441, 46.88965]}, "properties": {}}, {"type": "Feature", "geometry": {"type": "Point", "coordinates": [10.42441, 46.88965]}, "properties": {}}, {"type": "Feature", "geometry": {"type": "Point", "coordinates": [10.35641, 46.8464]}, "properties": {}}, {"type": "Feature", "geometry": {"type": "Point", "coordinates": [10.15533, 46.76135]}, "properties": {}}, {"type": "Feature", "geometry": {"type": "Point", "coordinates": [10.42191, 46.84471]}, "properties": {}}, {"type": "Feature", "geometry": {"type": "Point", "coordinates": [10.08991, 46.76289]}, "properties": {}}, {"type": "Feature", "geometry": {"type": "Point", "coordinates": [7.645638, 46.319529]}, "properties": {}}, {"type": "Feature", "geometry": {"type": "Point", "coordinates": [7.761592, 46.321438]}, "properties": {}}, {"type": "Feature", "geometry": {"type": "Point", "coordinates": [74.869874, 47.469022]}, "properties": {}}, {"type": "Feature", "geometry": {"type": "Point", "coordinates": [41.410266, 49.907541]}, "properties": {}}, {"type": "Feature", "geometry": {"type": "Point", "coordinates": [-1.596147, 40.331194]}, "properties": {}}, {"type": "Feature", "geometry": {"type": "Point", "coordinates": [41.41166, 49.902806]}, "properties": {}}, {"type": "Feature", "geometry": {"type": "Point", "coordinates": [41.411274, 49.907402]}, "properties": {}}, {"type": "Feature", "geometry": {"type": "Point", "coordinates": [-1.655575, 40.549049]}, "properties": {}}, {"type": "Feature", "geometry": {"type": "Point", "coordinates": [41.399499, 49.907383]}, "properties": {}}, {"type": "Feature", "geometry": {"type": "Point", "coordinates": [41.409193, 49.907422]}, "properties": {}}, {"type": "Feature", "geometry": {"type": "Point", "coordinates": [41.412584, 49.905896]}, "properties": {}}, {"type": "Feature", "geometry": {"type": "Point", "coordinates": [-2.843469, 37.429711]}, "properties": {}}, {"type": "Feature", "geometry": {"type": "Point", "coordinates": [41.413657, 49.90414]}, "properties": {}}, {"type": "Feature", "geometry": {"type": "Point", "coordinates": [41.409575, 49.907435]}, "properties": {}}, {"type": "Feature", "geometry": {"type": "Point", "coordinates": [-2.848161, 37.369094]}, "properties": {}}, {"type": "Feature", "geometry": {"type": "Point", "coordinates": [85.372215, 51.841208]}, "properties": {}}, {"type": "Feature", "geometry": {"type": "Point", "coordinates": [56.722529, 52.132053]}, "properties": {}}, {"type": "Feature", "geometry": {"type": "Point", "coordinates": [-0.908383, 40.469307]}, "properties": {}}, {"type": "Feature", "geometry": {"type": "Point", "coordinates": [56.72251, 52.13201]}, "properties": {}}, {"type": "Feature", "geometry": {"type": "Point", "coordinates": [16.40642, 56.26427]}, "properties": {}}, {"type": "Feature", "geometry": {"type": "Point", "coordinates": [13.522952, 47.095402]}, "properties": {}}, {"type": "Feature", "geometry": {"type": "Point", "coordinates": [13.525109, 47.095325]}, "properties": {}}, {"type": "Feature", "geometry": {"type": "Point", "coordinates": [13.569197, 47.084968]}, "properties": {}}, {"type": "Feature", "geometry": {"type": "Point", "coordinates": [13.568371, 47.086384]}, "properties": {}}, {"type": "Feature", "geometry": {"type": "Point", "coordinates": [13.563851, 47.085599]}, "properties": {}}, {"type": "Feature", "geometry": {"type": "Point", "coordinates": [13.564901, 47.085052]}, "properties": {}}, {"type": "Feature", "geometry": {"type": "Point", "coordinates": [13.565706, 47.084438]}, "properties": {}}, {"type": "Feature", "geometry": {"type": "Point", "coordinates": [13.563613, 47.086159]}, "properties": {}}, {"type": "Feature", "geometry": {"type": "Point", "coordinates": [-1.606932, 40.47245]}, "properties": {}}, {"type": "Feature", "geometry": {"type": "Point", "coordinates": [-1.646597, 40.553806]}, "properties": {}}, {"type": "Feature", "geometry": {"type": "Point", "coordinates": [-0.427995, 40.479468]}, "properties": {}}, {"type": "Feature", "geometry": {"type": "Point", "coordinates": [-1.03262, 40.090517]}, "properties": {}}, {"type": "Feature", "geometry": {"type": "Point", "coordinates": [-1.5503, 40.535342]}, "properties": {}}, {"type": "Feature", "geometry": {"type": "Point", "coordinates": [56.406284, 53.054574]}, "properties": {}}, {"type": "Feature", "geometry": {"type": "Point", "coordinates": [42.653531, 43.222936]}, "properties": {}}, {"type": "Feature", "geometry": {"type": "Point", "coordinates": [54.163184, 36.666739]}, "properties": {}}, {"type": "Feature", "geometry": {"type": "Point", "coordinates": [-1.678168, 40.547495]}, "properties": {}}, {"type": "Feature", "geometry": {"type": "Point", "coordinates": [11.476296, 47.047045]}, "properties": {}}, {"type": "Feature", "geometry": {"type": "Point", "coordinates": [-1.681272, 40.572304]}, "properties": {}}, {"type": "Feature", "geometry": {"type": "Point", "coordinates": [-1.549647, 40.535125]}, "properties": {}}, {"type": "Feature", "geometry": {"type": "Point", "coordinates": [7.66399, 46.314961]}, "properties": {}}, {"type": "Feature", "geometry": {"type": "Point", "coordinates": [41.413774, 49.906842]}, "properties": {}}, {"type": "Feature", "geometry": {"type": "Point", "coordinates": [41.412643, 49.905896]}, "properties": {}}, {"type": "Feature", "geometry": {"type": "Point", "coordinates": [41.417861, 49.906006]}, "properties": {}}, {"type": "Feature", "geometry": {"type": "Point", "coordinates": [41.415052, 49.902978]}, "properties": {}}, {"type": "Feature", "geometry": {"type": "Point", "coordinates": [41.414448, 49.907106]}, "properties": {}}, {"type": "Feature", "geometry": {"type": "Point", "coordinates": [74.227967, 49.330658]}, "properties": {}}, {"type": "Feature", "geometry": {"type": "Point", "coordinates": [43.454742, 49.107445]}, "properties": {}}, {"type": "Feature", "geometry": {"type": "Point", "coordinates": [75.280934, 49.235773]}, "properties": {}}, {"type": "Feature", "geometry": {"type": "Point", "coordinates": [12.397822, 47.020267]}, "properties": {}}, {"type": "Feature", "geometry": {"type": "Point", "coordinates": [66.974132, 48.615017]}, "properties": {}}, {"type": "Feature", "geometry": {"type": "Point", "coordinates": [56.560582, 52.994467]}, "properties": {}}, {"type": "Feature", "geometry": {"type": "Point", "coordinates": [87.895354, 50.241052]}, "properties": {}}, {"type": "Feature", "geometry": {"type": "Point", "coordinates": [66.399863, 50.375637]}, "properties": {}}, {"type": "Feature", "geometry": {"type": "Point", "coordinates": [7.86044, 46.29813]}, "properties": {}}, {"type": "Feature", "geometry": {"type": "Point", "coordinates": [7.86044, 46.29813]}, "properties": {}}, {"type": "Feature", "geometry": {"type": "Point", "coordinates": [7.86044, 46.29813]}, "properties": {}}, {"type": "Feature", "geometry": {"type": "Point", "coordinates": [7.86044, 46.29813]}, "properties": {}}, {"type": "Feature", "geometry": {"type": "Point", "coordinates": [7.08292, 46.11843]}, "properties": {}}, {"type": "Feature", "geometry": {"type": "Point", "coordinates": [7.66577, 46.29868]}, "properties": {}}, {"type": "Feature", "geometry": {"type": "Point", "coordinates": [7.86044, 46.29813]}, "properties": {}}, {"type": "Feature", "geometry": {"type": "Point", "coordinates": [7.86009, 46.25315]}, "properties": {}}, {"type": "Feature", "geometry": {"type": "Point", "coordinates": [7.86044, 46.29813]}, "properties": {}}, {"type": "Feature", "geometry": {"type": "Point", "coordinates": [7.86044, 46.29813]}, "properties": {}}, {"type": "Feature", "geometry": {"type": "Point", "coordinates": [7.86044, 46.29813]}, "properties": {}}, {"type": "Feature", "geometry": {"type": "Point", "coordinates": [7.86044, 46.29813]}, "properties": {}}, {"type": "Feature", "geometry": {"type": "Point", "coordinates": [7.86044, 46.29813]}, "properties": {}}, {"type": "Feature", "geometry": {"type": "Point", "coordinates": [7.86044, 46.29813]}, "properties": {}}, {"type": "Feature", "geometry": {"type": "Point", "coordinates": [8.65515, 47.0121]}, "properties": {}}, {"type": "Feature", "geometry": {"type": "Point", "coordinates": [7.08262, 46.16341]}, "properties": {}}, {"type": "Feature", "geometry": {"type": "Point", "coordinates": [7.86044, 46.29813]}, "properties": {}}, {"type": "Feature", "geometry": {"type": "Point", "coordinates": [7.86044, 46.29813]}, "properties": {}}, {"type": "Feature", "geometry": {"type": "Point", "coordinates": [-2.237733, 37.662876]}, "properties": {}}, {"type": "Feature", "geometry": {"type": "Point", "coordinates": [66.986046, 48.649644]}, "properties": {}}, {"type": "Feature", "geometry": {"type": "Point", "coordinates": [7.14736, 46.1636]}, "properties": {}}, {"type": "Feature", "geometry": {"type": "Point", "coordinates": [13.525109, 47.095325]}, "properties": {}}, {"type": "Feature", "geometry": {"type": "Point", "coordinates": [13.522952, 47.095402]}, "properties": {}}, {"type": "Feature", "geometry": {"type": "Point", "coordinates": [13.563851, 47.085599]}, "properties": {}}, {"type": "Feature", "geometry": {"type": "Point", "coordinates": [13.564901, 47.085052]}, "properties": {}}, {"type": "Feature", "geometry": {"type": "Point", "coordinates": [13.565706, 47.084438]}, "properties": {}}, {"type": "Feature", "geometry": {"type": "Point", "coordinates": [13.568371, 47.086384]}, "properties": {}}, {"type": "Feature", "geometry": {"type": "Point", "coordinates": [13.563613, 47.086159]}, "properties": {}}, {"type": "Feature", "geometry": {"type": "Point", "coordinates": [13.569197, 47.084968]}, "properties": {}}, {"type": "Feature", "geometry": {"type": "Point", "coordinates": [10.966518, 47.059516]}, "properties": {}}, {"type": "Feature", "geometry": {"type": "Point", "coordinates": [10.965811, 47.059832]}, "properties": {}}, {"type": "Feature", "geometry": {"type": "Point", "coordinates": [10.967449, 47.060357]}, "properties": {}}, {"type": "Feature", "geometry": {"type": "Point", "coordinates": [10.35641, 46.8464]}, "properties": {}}, {"type": "Feature", "geometry": {"type": "Point", "coordinates": [10.42191, 46.84471]}, "properties": {}}, {"type": "Feature", "geometry": {"type": "Point", "coordinates": [-5.858927, 42.876913]}, "properties": {}}, {"type": "Feature", "geometry": {"type": "Point", "coordinates": [7.652625, 46.317706]}, "properties": {}}, {"type": "Feature", "geometry": {"type": "Point", "coordinates": [41.414905, 49.907345]}, "properties": {}}, {"type": "Feature", "geometry": {"type": "Point", "coordinates": [66.972584, 48.615087]}, "properties": {}}, {"type": "Feature", "geometry": {"type": "Point", "coordinates": [77.080398, 43.17174]}, "properties": {}}, {"type": "Feature", "geometry": {"type": "Point", "coordinates": [34.431341, 44.850217]}, "properties": {}}, {"type": "Feature", "geometry": {"type": "Point", "coordinates": [78.327361, 42.99599]}, "properties": {}}, {"type": "Feature", "geometry": {"type": "Point", "coordinates": [-1.641395, 40.532558]}, "properties": {}}, {"type": "Feature", "geometry": {"type": "Point", "coordinates": [-6.110619, 43.052497]}, "properties": {}}, {"type": "Feature", "geometry": {"type": "Point", "coordinates": [75.272934, 49.40348]}, "properties": {}}, {"type": "Feature", "geometry": {"type": "Point", "coordinates": [75.277041, 49.400452]}, "properties": {}}, {"type": "Feature", "geometry": {"type": "Point", "coordinates": [135.502455, 43.847562]}, "properties": {}}, {"type": "Feature", "geometry": {"type": "Point", "coordinates": [7.620842, 45.839357]}, "properties": {}}, {"type": "Feature", "geometry": {"type": "Point", "coordinates": [54.110397, 50.07977]}, "properties": {}}]}