{"type": "FeatureCollection", "name": "Artemisia abrotanum", "features": [{"type": "Feature", "geometry": {"type": "Point", "coordinates": [41.518174, 50.072714]}, "properties": {}}, {"type": "Feature", "geometry": {"type": "Point", "coordinates": [50.110094, 53.220765]}, "properties": {}}, {"type": "Feature", "geometry": {"type": "Point", "coordinates": [37.576398, 54.850616]}, "properties": {}}, {"type": "Feature", "geometry": {"type": "Point", "coordinates": [51.251358, 53.914882]}, "properties": {}}, {"type": "Feature", "geometry": {"type": "Point", "coordinates": [50.814038, 52.297937]}, "properties": {}}, {"type": "Feature", "geometry": {"type": "Point", "coordinates": [46.929721, 49.107501]}, "properties": {}}, {"type": "Feature", "geometry": {"type": "Point", "coordinates": [44.520183, 52.703978]}, "properties": {}}, {"type": "Feature", "geometry": {"type": "Point", "coordinates": [44.422308, 52.67825]}, "properties": {}}, {"type": "Feature", "geometry": {"type": "Point", "coordinates": [44.420842, 52.677472]}, "properties": {}}, {"type": "Feature", "geometry": {"type": "Point", "coordinates": [51.252797, 53.915483]}, "properties": {}}, {"type": "Feature", "geometry": {"type": "Point", "coordinates": [39.086577, 51.536076]}, "properties": {}}, {"type": "Feature", "geometry": {"type": "Point", "coordinates": [41.500976, 50.196033]}, "properties": {}}, {"type": "Feature", "geometry": {"type": "Point", "coordinates": [43.679561, 52.43688]}, "properties": {}}, {"type": "Feature", "geometry": {"type": "Point", "coordinates": [39.084184, 51.539853]}, "properties": {}}, {"type": "Feature", "geometry": {"type": "Point", "coordinates": [41.518672, 50.021983]}, "properties": {}}, {"type": "Feature", "geometry": {"type": "Point", "coordinates": [38.061476, 50.192489]}, "properties": {}}, {"type": "Feature", "geometry": {"type": "Point", "coordinates": [55.110037, 51.750844]}, "properties": {}}, {"type": "Feature", "geometry": {"type": "Point", "coordinates": [44.645715, 52.689009]}, "properties": {}}, {"type": "Feature", "geometry": {"type": "Point", "coordinates": [73.129106, 49.769706]}, "properties": {}}, {"type": "Feature", "geometry": {"type": "Point", "coordinates": [41.375961, 50.419009]}, "properties": {}}, {"type": "Feature", "geometry": {"type": "Point", "coordinates": [59.511803, 51.603429]}, "properties": {}}, {"type": "Feature", "geometry": {"type": "Point", "coordinates": [45.065844, 53.181627]}, "properties": {}}, {"type": "Feature", "geometry": {"type": "Point", "coordinates": [38.587076, 54.847507]}, "properties": {}}, {"type": "Feature", "geometry": {"type": "Point", "coordinates": [55.002766, 51.568894]}, "properties": {}}, {"type": "Feature", "geometry": {"type": "Point", "coordinates": [39.292042, 50.963603]}, "properties": {}}, {"type": "Feature", "geometry": {"type": "Point", "coordinates": [39.291938, 50.963617]}, "properties": {}}, {"type": "Feature", "geometry": {"type": "Point", "coordinates": [55.353349, 51.963121]}, "properties": {}}, {"type": "Feature", "geometry": {"type": "Point", "coordinates": [55.002777, 51.568909]}, "properties": {}}, {"type": "Feature", "geometry": {"type": "Point", "coordinates": [39.069243, 51.977295]}, "properties": {}}, {"type": "Feature", "geometry": {"type": "Point", "coordinates": [51.131772, 53.918873]}, "properties": {}}, {"type": "Feature", "geometry": {"type": "Point", "coordinates": [45.080414, 53.452141]}, "properties": {}}, {"type": "Feature", "geometry": {"type": "Point", "coordinates": [45.059603, 53.138679]}, "properties": {}}, {"type": "Feature", "geometry": {"type": "Point", "coordinates": [72.846043, 49.815419]}, "properties": {}}, {"type": "Feature", "geometry": {"type": "Point", "coordinates": [72.845985, 49.813695]}, "properties": {}}, {"type": "Feature", "geometry": {"type": "Point", "coordinates": [57.272418, 50.405437]}, "properties": {}}, {"type": "Feature", "geometry": {"type": "Point", "coordinates": [44.023114, 56.33158]}, "properties": {}}, {"type": "Feature", "geometry": {"type": "Point", "coordinates": [59.512548, 51.60596]}, "properties": {}}, {"type": "Feature", "geometry": {"type": "Point", "coordinates": [47.573217, 56.110653]}, "properties": {}}, {"type": "Feature", "geometry": {"type": "Point", "coordinates": [41.0497, 51.330734]}, "properties": {}}, {"type": "Feature", "geometry": {"type": "Point", "coordinates": [73.042861, 55.288008]}, "properties": {}}, {"type": "Feature", "geometry": {"type": "Point", "coordinates": [52.258943, 55.715082]}, "properties": {}}, {"type": "Feature", "geometry": {"type": "Point", "coordinates": [51.260604, 53.976045]}, "properties": {}}, {"type": "Feature", "geometry": {"type": "Point", "coordinates": [10.815418, 45.380288]}, "properties": {}}, {"type": "Feature", "geometry": {"type": "Point", "coordinates": [-3.174448, 55.95309]}, "properties": {}}, {"type": "Feature", "geometry": {"type": "Point", "coordinates": [45.060005, 53.296759]}, "properties": {}}, {"type": "Feature", "geometry": {"type": "Point", "coordinates": [12.13789, 57.52424]}, "properties": {}}, {"type": "Feature", "geometry": {"type": "Point", "coordinates": [45.821433, 52.625129]}, "properties": {}}, {"type": "Feature", "geometry": {"type": "Point", "coordinates": [38.708205, 55.335117]}, "properties": {}}, {"type": "Feature", "geometry": {"type": "Point", "coordinates": [42.358252, 50.650845]}, "properties": {}}, {"type": "Feature", "geometry": {"type": "Point", "coordinates": [41.200933, 50.210184]}, "properties": {}}, {"type": "Feature", "geometry": {"type": "Point", "coordinates": [42.795853, 49.538448]}, "properties": {}}, {"type": "Feature", "geometry": {"type": "Point", "coordinates": [44.390876, 49.722935]}, "properties": {}}, {"type": "Feature", "geometry": {"type": "Point", "coordinates": [34.513346, 49.430073]}, "properties": {}}, {"type": "Feature", "geometry": {"type": "Point", "coordinates": [73.121359, 49.767861]}, "properties": {}}, {"type": "Feature", "geometry": {"type": "Point", "coordinates": [73.124275, 49.76469]}, "properties": {}}, {"type": "Feature", "geometry": {"type": "Point", "coordinates": [45.11979, 48.700481]}, "properties": {}}, {"type": "Feature", "geometry": {"type": "Point", "coordinates": [45.059835, 53.296748]}, "properties": {}}, {"type": "Feature", "geometry": {"type": "Point", "coordinates": [3.74275, 51.08712]}, "properties": {}}, {"type": "Feature", "geometry": {"type": "Point", "coordinates": [81.757338, 51.013283]}, "properties": {}}, {"type": "Feature", "geometry": {"type": "Point", "coordinates": [41.34474, 50.31052]}, "properties": {}}, {"type": "Feature", "geometry": {"type": "Point", "coordinates": [45.006543, 53.310146]}, "properties": {}}, {"type": "Feature", "geometry": {"type": "Point", "coordinates": [49.423958, 53.501762]}, "properties": {}}, {"type": "Feature", "geometry": {"type": "Point", "coordinates": [41.406672, 49.916698]}, "properties": {}}, {"type": "Feature", "geometry": {"type": "Point", "coordinates": [41.76965, 54.982776]}, "properties": {}}, {"type": "Feature", "geometry": {"type": "Point", "coordinates": [39.396287, 50.977937]}, "properties": {}}, {"type": "Feature", "geometry": {"type": "Point", "coordinates": [81.75697, 51.014597]}, "properties": {}}, {"type": "Feature", "geometry": {"type": "Point", "coordinates": [45.06549, 53.181252]}, "properties": {}}, {"type": "Feature", "geometry": {"type": "Point", "coordinates": [41.199365, 54.997158]}, "properties": {}}, {"type": "Feature", "geometry": {"type": "Point", "coordinates": [56.013754, 53.453071]}, "properties": {}}, {"type": "Feature", "geometry": {"type": "Point", "coordinates": [41.875428, 50.749197]}, "properties": {}}, {"type": "Feature", "geometry": {"type": "Point", "coordinates": [40.802283, 50.943424]}, "properties": {}}, {"type": "Feature", "geometry": {"type": "Point", "coordinates": [40.126492, 50.46411]}, "properties": {}}, {"type": "Feature", "geometry": {"type": "Point", "coordinates": [81.754037, 51.015177]}, "properties": {}}, {"type": "Feature", "geometry": {"type": "Point", "coordinates": [39.165933, 55.097774]}, "properties": {}}, {"type": "Feature", "geometry": {"type": "Point", "coordinates": [44.908195, 53.229637]}, "properties": {}}, {"type": "Feature", "geometry": {"type": "Point", "coordinates": [37.710713, 54.846752]}, "properties": {}}, {"type": "Feature", "geometry": {"type": "Point", "coordinates": [47.74619, 56.055554]}, "properties": {}}, {"type": "Feature", "geometry": {"type": "Point", "coordinates": [66.84089, 47.287792]}, "properties": {}}, {"type": "Feature", "geometry": {"type": "Point", "coordinates": [81.754282, 51.015127]}, "properties": {}}, {"type": "Feature", "geometry": {"type": "Point", "coordinates": [43.20848, 54.603877]}, "properties": {}}, {"type": "Feature", "geometry": {"type": "Point", "coordinates": [37.714854, 54.84398]}, "properties": {}}, {"type": "Feature", "geometry": {"type": "Point", "coordinates": [59.417679, 52.604421]}, "properties": {}}, {"type": "Feature", "geometry": {"type": "Point", "coordinates": [34.182154, 53.678017]}, "properties": {}}, {"type": "Feature", "geometry": {"type": "Point", "coordinates": [40.009643, 50.667778]}, "properties": {}}, {"type": "Feature", "geometry": {"type": "Point", "coordinates": [76.895836, 52.31496]}, "properties": {}}, {"type": "Feature", "geometry": {"type": "Point", "coordinates": [57.218314, 50.280114]}, "properties": {}}, {"type": "Feature", "geometry": {"type": "Point", "coordinates": [57.217614, 50.280974]}, "properties": {}}, {"type": "Feature", "geometry": {"type": "Point", "coordinates": [57.217439, 50.28111]}, "properties": {}}, {"type": "Feature", "geometry": {"type": "Point", "coordinates": [57.21815, 50.280544]}, "properties": {}}, {"type": "Feature", "geometry": {"type": "Point", "coordinates": [57.21755, 50.28115]}, "properties": {}}, {"type": "Feature", "geometry": {"type": "Point", "coordinates": [57.217331, 50.281379]}, "properties": {}}, {"type": "Feature", "geometry": {"type": "Point", "coordinates": [57.217676, 50.281359]}, "properties": {}}, {"type": "Feature", "geometry": {"type": "Point", "coordinates": [66.716489, 47.396305]}, "properties": {}}, {"type": "Feature", "geometry": {"type": "Point", "coordinates": [66.840994, 47.288]}, "properties": {}}, {"type": "Feature", "geometry": {"type": "Point", "coordinates": [48.78527, 51.013896]}, "properties": {}}, {"type": "Feature", "geometry": {"type": "Point", "coordinates": [43.9561, 56.318212]}, "properties": {}}, {"type": "Feature", "geometry": {"type": "Point", "coordinates": [29.43158, 50.41853]}, "properties": {}}, {"type": "Feature", "geometry": {"type": "Point", "coordinates": [37.718997, 54.844628]}, "properties": {}}, {"type": "Feature", "geometry": {"type": "Point", "coordinates": [37.723388, 54.841811]}, "properties": {}}, {"type": "Feature", "geometry": {"type": "Point", "coordinates": [81.753449, 51.015058]}, "properties": {}}, {"type": "Feature", "geometry": {"type": "Point", "coordinates": [43.404175, 52.380463]}, "properties": {}}, {"type": "Feature", "geometry": {"type": "Point", "coordinates": [45.023206, 52.442678]}, "properties": {}}, {"type": "Feature", "geometry": {"type": "Point", "coordinates": [57.439993, 48.45524]}, "properties": {}}, {"type": "Feature", "geometry": {"type": "Point", "coordinates": [45.72309, 53.947195]}, "properties": {}}, {"type": "Feature", "geometry": {"type": "Point", "coordinates": [39.030311, 54.942061]}, "properties": {}}, {"type": "Feature", "geometry": {"type": "Point", "coordinates": [13.73185, 55.69952]}, "properties": {}}, {"type": "Feature", "geometry": {"type": "Point", "coordinates": [50.568605, 53.598331]}, "properties": {}}, {"type": "Feature", "geometry": {"type": "Point", "coordinates": [43.913508, 56.225194]}, "properties": {}}, {"type": "Feature", "geometry": {"type": "Point", "coordinates": [50.568812, 53.598686]}, "properties": {}}, {"type": "Feature", "geometry": {"type": "Point", "coordinates": [12.13789, 57.52424]}, "properties": {}}, {"type": "Feature", "geometry": {"type": "Point", "coordinates": [37.962865, 54.841605]}, "properties": {}}, {"type": "Feature", "geometry": {"type": "Point", "coordinates": [51.30863, 53.816338]}, "properties": {}}, {"type": "Feature", "geometry": {"type": "Point", "coordinates": [38.01769, 54.842884]}, "properties": {}}, {"type": "Feature", "geometry": {"type": "Point", "coordinates": [40.410763, 51.26255]}, "properties": {}}, {"type": "Feature", "geometry": {"type": "Point", "coordinates": [67.03404, 48.645714]}, "properties": {}}, {"type": "Feature", "geometry": {"type": "Point", "coordinates": [51.307661, 53.881495]}, "properties": {}}, {"type": "Feature", "geometry": {"type": "Point", "coordinates": [37.713576, 54.84488]}, "properties": {}}, {"type": "Feature", "geometry": {"type": "Point", "coordinates": [44.173135, 56.234491]}, "properties": {}}, {"type": "Feature", "geometry": {"type": "Point", "coordinates": [44.173135, 56.234491]}, "properties": {}}, {"type": "Feature", "geometry": {"type": "Point", "coordinates": [42.818863, 55.444337]}, "properties": {}}, {"type": "Feature", "geometry": {"type": "Point", "coordinates": [37.901957, 54.851277]}, "properties": {}}, {"type": "Feature", "geometry": {"type": "Point", "coordinates": [67.033107, 48.646115]}, "properties": {}}, {"type": "Feature", "geometry": {"type": "Point", "coordinates": [46.112613, 55.831295]}, "properties": {}}, {"type": "Feature", "geometry": {"type": "Point", "coordinates": [42.802337, 51.558428]}, "properties": {}}, {"type": "Feature", "geometry": {"type": "Point", "coordinates": [42.67201, 51.587313]}, "properties": {}}, {"type": "Feature", "geometry": {"type": "Point", "coordinates": [83.669762, 53.343308]}, "properties": {}}, {"type": "Feature", "geometry": {"type": "Point", "coordinates": [45.147427, 52.804844]}, "properties": {}}, {"type": "Feature", "geometry": {"type": "Point", "coordinates": [44.499544, 56.098945]}, "properties": {}}, {"type": "Feature", "geometry": {"type": "Point", "coordinates": [38.596097, 56.589612]}, "properties": {}}, {"type": "Feature", "geometry": {"type": "Point", "coordinates": [47.578001, 56.110844]}, "properties": {}}, {"type": "Feature", "geometry": {"type": "Point", "coordinates": [42.565896, 51.506138]}, "properties": {}}, {"type": "Feature", "geometry": {"type": "Point", "coordinates": [42.569667, 51.539081]}, "properties": {}}, {"type": "Feature", "geometry": {"type": "Point", "coordinates": [42.888581, 51.558799]}, "properties": {}}, {"type": "Feature", "geometry": {"type": "Point", "coordinates": [12.1398, 57.52438]}, "properties": {}}, {"type": "Feature", "geometry": {"type": "Point", "coordinates": [67.005706, 48.652297]}, "properties": {}}, {"type": "Feature", "geometry": {"type": "Point", "coordinates": [43.143673, 51.559315]}, "properties": {}}, {"type": "Feature", "geometry": {"type": "Point", "coordinates": [45.816174, 53.107311]}, "properties": {}}, {"type": "Feature", "geometry": {"type": "Point", "coordinates": [69.255928, 55.646953]}, "properties": {}}, {"type": "Feature", "geometry": {"type": "Point", "coordinates": [67.049631, 48.954517]}, "properties": {}}, {"type": "Feature", "geometry": {"type": "Point", "coordinates": [58.794524, 52.490836]}, "properties": {}}, {"type": "Feature", "geometry": {"type": "Point", "coordinates": [65.59668, 57.149703]}, "properties": {}}, {"type": "Feature", "geometry": {"type": "Point", "coordinates": [44.017907, 56.332005]}, "properties": {}}, {"type": "Feature", "geometry": {"type": "Point", "coordinates": [60.026694, 52.095942]}, "properties": {}}, {"type": "Feature", "geometry": {"type": "Point", "coordinates": [58.794067, 52.494621]}, "properties": {}}, {"type": "Feature", "geometry": {"type": "Point", "coordinates": [58.794792, 52.490943]}, "properties": {}}, {"type": "Feature", "geometry": {"type": "Point", "coordinates": [58.788937, 52.499866]}, "properties": {}}, {"type": "Feature", "geometry": {"type": "Point", "coordinates": [73.123801, 49.766998]}, "properties": {}}, {"type": "Feature", "geometry": {"type": "Point", "coordinates": [60.383533, 52.31235]}, "properties": {}}, {"type": "Feature", "geometry": {"type": "Point", "coordinates": [57.121528, 50.230594]}, "properties": {}}, {"type": "Feature", "geometry": {"type": "Point", "coordinates": [73.129242, 49.771124]}, "properties": {}}, {"type": "Feature", "geometry": {"type": "Point", "coordinates": [73.127874, 49.768145]}, "properties": {}}, {"type": "Feature", "geometry": {"type": "Point", "coordinates": [57.170551, 50.286093]}, "properties": {}}, {"type": "Feature", "geometry": {"type": "Point", "coordinates": [72.853968, 49.482688]}, "properties": {}}, {"type": "Feature", "geometry": {"type": "Point", "coordinates": [67.826363, 48.101015]}, "properties": {}}, {"type": "Feature", "geometry": {"type": "Point", "coordinates": [72.840773, 49.465953]}, "properties": {}}, {"type": "Feature", "geometry": {"type": "Point", "coordinates": [42.802304, 51.558373]}, "properties": {}}, {"type": "Feature", "geometry": {"type": "Point", "coordinates": [42.671339, 51.588524]}, "properties": {}}, {"type": "Feature", "geometry": {"type": "Point", "coordinates": [42.888425, 51.558825]}, "properties": {}}, {"type": "Feature", "geometry": {"type": "Point", "coordinates": [42.670932, 51.587623]}, "properties": {}}, {"type": "Feature", "geometry": {"type": "Point", "coordinates": [42.569087, 51.538919]}, "properties": {}}, {"type": "Feature", "geometry": {"type": "Point", "coordinates": [43.003939, 51.527653]}, "properties": {}}, {"type": "Feature", "geometry": {"type": "Point", "coordinates": [77.739204, 54.09341]}, "properties": {}}, {"type": "Feature", "geometry": {"type": "Point", "coordinates": [44.014856, 56.350522]}, "properties": {}}, {"type": "Feature", "geometry": {"type": "Point", "coordinates": [59.06662, 52.413971]}, "properties": {}}, {"type": "Feature", "geometry": {"type": "Point", "coordinates": [60.031681, 52.083256]}, "properties": {}}, {"type": "Feature", "geometry": {"type": "Point", "coordinates": [60.070595, 52.124157]}, "properties": {}}, {"type": "Feature", "geometry": {"type": "Point", "coordinates": [37.744297, 54.84162]}, "properties": {}}, {"type": "Feature", "geometry": {"type": "Point", "coordinates": [50.568828, 53.597675]}, "properties": {}}, {"type": "Feature", "geometry": {"type": "Point", "coordinates": [50.568899, 53.5978]}, "properties": {}}, {"type": "Feature", "geometry": {"type": "Point", "coordinates": [60.363052, 52.321838]}, "properties": {}}, {"type": "Feature", "geometry": {"type": "Point", "coordinates": [43.868672, 56.377995]}, "properties": {}}, {"type": "Feature", "geometry": {"type": "Point", "coordinates": [56.004253, 54.778766]}, "properties": {}}, {"type": "Feature", "geometry": {"type": "Point", "coordinates": [58.795517, 52.490686]}, "properties": {}}, {"type": "Feature", "geometry": {"type": "Point", "coordinates": [58.821867, 52.495683]}, "properties": {}}, {"type": "Feature", "geometry": {"type": "Point", "coordinates": [42.888605, 51.559059]}, "properties": {}}, {"type": "Feature", "geometry": {"type": "Point", "coordinates": [38.127141, 54.837403]}, "properties": {}}, {"type": "Feature", "geometry": {"type": "Point", "coordinates": [42.671201, 51.587011]}, "properties": {}}, {"type": "Feature", "geometry": {"type": "Point", "coordinates": [38.70279, 56.804588]}, "properties": {}}, {"type": "Feature", "geometry": {"type": "Point", "coordinates": [38.695085, 56.808947]}, "properties": {}}, {"type": "Feature", "geometry": {"type": "Point", "coordinates": [38.677773, 56.819103]}, "properties": {}}, {"type": "Feature", "geometry": {"type": "Point", "coordinates": [48.056939, 55.984031]}, "properties": {}}, {"type": "Feature", "geometry": {"type": "Point", "coordinates": [39.324385, 51.730969]}, "properties": {}}, {"type": "Feature", "geometry": {"type": "Point", "coordinates": [0.008545, 50.796211]}, "properties": {}}, {"type": "Feature", "geometry": {"type": "Point", "coordinates": [41.04659, 51.333732]}, "properties": {}}, {"type": "Feature", "geometry": {"type": "Point", "coordinates": [42.833127, 50.333714]}, "properties": {}}, {"type": "Feature", "geometry": {"type": "Point", "coordinates": [60.343086, 52.411366]}, "properties": {}}, {"type": "Feature", "geometry": {"type": "Point", "coordinates": [45.963695, 51.297653]}, "properties": {}}, {"type": "Feature", "geometry": {"type": "Point", "coordinates": [43.367505, 52.276635]}, "properties": {}}, {"type": "Feature", "geometry": {"type": "Point", "coordinates": [30.454534, 52.351341]}, "properties": {}}, {"type": "Feature", "geometry": {"type": "Point", "coordinates": [38.080468, 54.831821]}, "properties": {}}, {"type": "Feature", "geometry": {"type": "Point", "coordinates": [38.101125, 54.82632]}, "properties": {}}, {"type": "Feature", "geometry": {"type": "Point", "coordinates": [46.409937, 55.471997]}, "properties": {}}, {"type": "Feature", "geometry": {"type": "Point", "coordinates": [30.560426, 50.377068]}, "properties": {}}, {"type": "Feature", "geometry": {"type": "Point", "coordinates": [30.868495, 53.124379]}, "properties": {}}, {"type": "Feature", "geometry": {"type": "Point", "coordinates": [37.154192, 54.58575]}, "properties": {}}, {"type": "Feature", "geometry": {"type": "Point", "coordinates": [45.121687, 57.189143]}, "properties": {}}, {"type": "Feature", "geometry": {"type": "Point", "coordinates": [49.995648, 53.118391]}, "properties": {}}, {"type": "Feature", "geometry": {"type": "Point", "coordinates": [44.173969, 56.178246]}, "properties": {}}, {"type": "Feature", "geometry": {"type": "Point", "coordinates": [44.471666, 56.087689]}, "properties": {}}, {"type": "Feature", "geometry": {"type": "Point", "coordinates": [39.718785, 54.660512]}, "properties": {}}, {"type": "Feature", "geometry": {"type": "Point", "coordinates": [45.138624, 57.174732]}, "properties": {}}, {"type": "Feature", "geometry": {"type": "Point", "coordinates": [41.716599, 51.200047]}, "properties": {}}, {"type": "Feature", "geometry": {"type": "Point", "coordinates": [44.081088, 56.317303]}, "properties": {}}, {"type": "Feature", "geometry": {"type": "Point", "coordinates": [46.268413, 51.576625]}, "properties": {}}, {"type": "Feature", "geometry": {"type": "Point", "coordinates": [69.529556, 56.089691]}, "properties": {}}, {"type": "Feature", "geometry": {"type": "Point", "coordinates": [73.705094, 50.04681]}, "properties": {}}, {"type": "Feature", "geometry": {"type": "Point", "coordinates": [44.082002, 56.316286]}, "properties": {}}, {"type": "Feature", "geometry": {"type": "Point", "coordinates": [37.621086, 54.845319]}, "properties": {}}, {"type": "Feature", "geometry": {"type": "Point", "coordinates": [39.740747, 54.66278]}, "properties": {}}, {"type": "Feature", "geometry": {"type": "Point", "coordinates": [38.00336, 54.842182]}, "properties": {}}, {"type": "Feature", "geometry": {"type": "Point", "coordinates": [44.472594, 56.088307]}, "properties": {}}, {"type": "Feature", "geometry": {"type": "Point", "coordinates": [50.18577, 53.276608]}, "properties": {}}, {"type": "Feature", "geometry": {"type": "Point", "coordinates": [42.011348, 55.306925]}, "properties": {}}, {"type": "Feature", "geometry": {"type": "Point", "coordinates": [51.430957, 53.2136]}, "properties": {}}, {"type": "Feature", "geometry": {"type": "Point", "coordinates": [57.205632, 50.287878]}, "properties": {}}, {"type": "Feature", "geometry": {"type": "Point", "coordinates": [40.077466, 50.458602]}, "properties": {}}, {"type": "Feature", "geometry": {"type": "Point", "coordinates": [57.164182, 50.282485]}, "properties": {}}, {"type": "Feature", "geometry": {"type": "Point", "coordinates": [45.803752, 53.99518]}, "properties": {}}, {"type": "Feature", "geometry": {"type": "Point", "coordinates": [43.697785, 52.240526]}, "properties": {}}, {"type": "Feature", "geometry": {"type": "Point", "coordinates": [31.0926, 52.604725]}, "properties": {}}, {"type": "Feature", "geometry": {"type": "Point", "coordinates": [45.064777, 53.264652]}, "properties": {}}, {"type": "Feature", "geometry": {"type": "Point", "coordinates": [43.203573, 51.563314]}, "properties": {}}, {"type": "Feature", "geometry": {"type": "Point", "coordinates": [59.980841, 52.492579]}, "properties": {}}, {"type": "Feature", "geometry": {"type": "Point", "coordinates": [50.568912, 53.598153]}, "properties": {}}, {"type": "Feature", "geometry": {"type": "Point", "coordinates": [57.054151, 50.292008]}, "properties": {}}, {"type": "Feature", "geometry": {"type": "Point", "coordinates": [45.803747, 53.995182]}, "properties": {}}, {"type": "Feature", "geometry": {"type": "Point", "coordinates": [44.919307, 53.1188]}, "properties": {}}, {"type": "Feature", "geometry": {"type": "Point", "coordinates": [56.026548, 53.697863]}, "properties": {}}, {"type": "Feature", "geometry": {"type": "Point", "coordinates": [37.416297, 55.810249]}, "properties": {}}, {"type": "Feature", "geometry": {"type": "Point", "coordinates": [45.119375, 57.191167]}, "properties": {}}, {"type": "Feature", "geometry": {"type": "Point", "coordinates": [45.122986, 57.588051]}, "properties": {}}, {"type": "Feature", "geometry": {"type": "Point", "coordinates": [43.966217, 56.296092]}, "properties": {}}, {"type": "Feature", "geometry": {"type": "Point", "coordinates": [44.337691, 52.033311]}, "properties": {}}, {"type": "Feature", "geometry": {"type": "Point", "coordinates": [44.452713, 52.821327]}, "properties": {}}, {"type": "Feature", "geometry": {"type": "Point", "coordinates": [45.452346, 56.842154]}, "properties": {}}, {"type": "Feature", "geometry": {"type": "Point", "coordinates": [38.11102, 54.830121]}, "properties": {}}, {"type": "Feature", "geometry": {"type": "Point", "coordinates": [41.681134, 51.191142]}, "properties": {}}, {"type": "Feature", "geometry": {"type": "Point", "coordinates": [47.818133, 56.119655]}, "properties": {}}, {"type": "Feature", "geometry": {"type": "Point", "coordinates": [37.152686, 54.587789]}, "properties": {}}, {"type": "Feature", "geometry": {"type": "Point", "coordinates": [38.008263, 54.84242]}, "properties": {}}, {"type": "Feature", "geometry": {"type": "Point", "coordinates": [47.491168, 56.14973]}, "properties": {}}, {"type": "Feature", "geometry": {"type": "Point", "coordinates": [47.49184, 56.149847]}, "properties": {}}, {"type": "Feature", "geometry": {"type": "Point", "coordinates": [43.915291, 56.22631]}, "properties": {}}, {"type": "Feature", "geometry": {"type": "Point", "coordinates": [30.868741, 53.124598]}, "properties": {}}, {"type": "Feature", "geometry": {"type": "Point", "coordinates": [29.538701, 51.788558]}, "properties": {}}, {"type": "Feature", "geometry": {"type": "Point", "coordinates": [30.868592, 53.125078]}, "properties": {}}, {"type": "Feature", "geometry": {"type": "Point", "coordinates": [45.094727, 57.578503]}, "properties": {}}, {"type": "Feature", "geometry": {"type": "Point", "coordinates": [39.372805, 51.966053]}, "properties": {}}, {"type": "Feature", "geometry": {"type": "Point", "coordinates": [42.46834, 51.53647]}, "properties": {}}, {"type": "Feature", "geometry": {"type": "Point", "coordinates": [40.83797, 50.60701]}, "properties": {}}, {"type": "Feature", "geometry": {"type": "Point", "coordinates": [41.17367, 50.75505]}, "properties": {}}, {"type": "Feature", "geometry": {"type": "Point", "coordinates": [70.69042, 50.023829]}, "properties": {}}, {"type": "Feature", "geometry": {"type": "Point", "coordinates": [31.092611, 52.604895]}, "properties": {}}, {"type": "Feature", "geometry": {"type": "Point", "coordinates": [69.8105, 50.360727]}, "properties": {}}, {"type": "Feature", "geometry": {"type": "Point", "coordinates": [37.606842, 54.852323]}, "properties": {}}, {"type": "Feature", "geometry": {"type": "Point", "coordinates": [39.148339, 55.11272]}, "properties": {}}, {"type": "Feature", "geometry": {"type": "Point", "coordinates": [42.058206, 55.593181]}, "properties": {}}, {"type": "Feature", "geometry": {"type": "Point", "coordinates": [42.058658, 55.600106]}, "properties": {}}, {"type": "Feature", "geometry": {"type": "Point", "coordinates": [42.096303, 55.533339]}, "properties": {}}, {"type": "Feature", "geometry": {"type": "Point", "coordinates": [42.09505, 55.534972]}, "properties": {}}, {"type": "Feature", "geometry": {"type": "Point", "coordinates": [40.752209, 56.149517]}, "properties": {}}, {"type": "Feature", "geometry": {"type": "Point", "coordinates": [69.45886, 55.98772]}, "properties": {}}, {"type": "Feature", "geometry": {"type": "Point", "coordinates": [44.161222, 56.253346]}, "properties": {}}, {"type": "Feature", "geometry": {"type": "Point", "coordinates": [12.13789, 57.52424]}, "properties": {}}, {"type": "Feature", "geometry": {"type": "Point", "coordinates": [46.256847, 51.580186]}, "properties": {}}, {"type": "Feature", "geometry": {"type": "Point", "coordinates": [38.060558, 50.146216]}, "properties": {}}, {"type": "Feature", "geometry": {"type": "Point", "coordinates": [45.1474, 52.804899]}, "properties": {}}, {"type": "Feature", "geometry": {"type": "Point", "coordinates": [46.259269, 51.579967]}, "properties": {}}, {"type": "Feature", "geometry": {"type": "Point", "coordinates": [46.259472, 51.581683]}, "properties": {}}, {"type": "Feature", "geometry": {"type": "Point", "coordinates": [38.052435, 50.130339]}, "properties": {}}, {"type": "Feature", "geometry": {"type": "Point", "coordinates": [45.151463, 52.807507]}, "properties": {}}, {"type": "Feature", "geometry": {"type": "Point", "coordinates": [38.182548, 54.869997]}, "properties": {}}, {"type": "Feature", "geometry": {"type": "Point", "coordinates": [50.568529, 53.598642]}, "properties": {}}, {"type": "Feature", "geometry": {"type": "Point", "coordinates": [44.907418, 53.000859]}, "properties": {}}, {"type": "Feature", "geometry": {"type": "Point", "coordinates": [30.561942, 50.375414]}, "properties": {}}, {"type": "Feature", "geometry": {"type": "Point", "coordinates": [40.023806, 50.495161]}, "properties": {}}, {"type": "Feature", "geometry": {"type": "Point", "coordinates": [45.095479, 57.482773]}, "properties": {}}, {"type": "Feature", "geometry": {"type": "Point", "coordinates": [40.009147, 50.669651]}, "properties": {}}, {"type": "Feature", "geometry": {"type": "Point", "coordinates": [29.722823, 51.653092]}, "properties": {}}, {"type": "Feature", "geometry": {"type": "Point", "coordinates": [45.101008, 53.384338]}, "properties": {}}, {"type": "Feature", "geometry": {"type": "Point", "coordinates": [72.941767, 54.476584]}, "properties": {}}, {"type": "Feature", "geometry": {"type": "Point", "coordinates": [46.704552, 55.00571]}, "properties": {}}, {"type": "Feature", "geometry": {"type": "Point", "coordinates": [29.738815, 51.642046]}, "properties": {}}, {"type": "Feature", "geometry": {"type": "Point", "coordinates": [46.013997, 52.116475]}, "properties": {}}, {"type": "Feature", "geometry": {"type": "Point", "coordinates": [37.185295, 54.729522]}, "properties": {}}, {"type": "Feature", "geometry": {"type": "Point", "coordinates": [45.891792, 51.622367]}, "properties": {}}, {"type": "Feature", "geometry": {"type": "Point", "coordinates": [45.138044, 57.602076]}, "properties": {}}, {"type": "Feature", "geometry": {"type": "Point", "coordinates": [45.137908, 57.60208]}, "properties": {}}, {"type": "Feature", "geometry": {"type": "Point", "coordinates": [30.570238, 50.366218]}, "properties": {}}, {"type": "Feature", "geometry": {"type": "Point", "coordinates": [45.137531, 52.804916]}, "properties": {}}, {"type": "Feature", "geometry": {"type": "Point", "coordinates": [82.617005, 52.400867]}, "properties": {}}, {"type": "Feature", "geometry": {"type": "Point", "coordinates": [72.96676, 54.453963]}, "properties": {}}, {"type": "Feature", "geometry": {"type": "Point", "coordinates": [40.0262, 50.497877]}, "properties": {}}, {"type": "Feature", "geometry": {"type": "Point", "coordinates": [38.380113, 56.003894]}, "properties": {}}, {"type": "Feature", "geometry": {"type": "Point", "coordinates": [44.243633, 56.157765]}, "properties": {}}, {"type": "Feature", "geometry": {"type": "Point", "coordinates": [37.41104, 54.883541]}, "properties": {}}, {"type": "Feature", "geometry": {"type": "Point", "coordinates": [69.467087, 56.099083]}, "properties": {}}, {"type": "Feature", "geometry": {"type": "Point", "coordinates": [34.45, 53.238333]}, "properties": {}}, {"type": "Feature", "geometry": {"type": "Point", "coordinates": [51.255276, 53.913913]}, "properties": {}}, {"type": "Feature", "geometry": {"type": "Point", "coordinates": [83.963403, 53.338427]}, "properties": {}}]}