{"type": "FeatureCollection", "name": "Hedera helix", "features": [{"type": "Feature", "geometry": {"type": "Point", "coordinates": [4.41878, 51.19949]}, "properties": {}}, {"type": "Feature", "geometry": {"type": "Point", "coordinates": [8.917637, 52.312099]}, "properties": {}}, {"type": "Feature", "geometry": {"type": "Point", "coordinates": [10.151367, 52.537945]}, "properties": {}}, {"type": "Feature", "geometry": {"type": "Point", "coordinates": [12.271729, 54.217072]}, "properties": {}}, {"type": "Feature", "geometry": {"type": "Point", "coordinates": [8.661883, 50.126057]}, "properties": {}}, {"type": "Feature", "geometry": {"type": "Point", "coordinates": [8.973803, 47.741562]}, "properties": {}}, {"type": "Feature", "geometry": {"type": "Point", "coordinates": [8.645468, 50.12542]}, "properties": {}}, {"type": "Feature", "geometry": {"type": "Point", "coordinates": [8.9739, 47.741428]}, "properties": {}}, {"type": "Feature", "geometry": {"type": "Point", "coordinates": [8.973993, 47.741505]}, "properties": {}}, {"type": "Feature", "geometry": {"type": "Point", "coordinates": [7.07276, 51.098186]}, "properties": {}}, {"type": "Feature", "geometry": {"type": "Point", "coordinates": [8.967286, 47.745174]}, "properties": {}}, {"type": "Feature", "geometry": {"type": "Point", "coordinates": [8.491745, 49.483742]}, "properties": {}}, {"type": "Feature", "geometry": {"type": "Point", "coordinates": [10.567646, 52.949051]}, "properties": {}}, {"type": "Feature", "geometry": {"type": "Point", "coordinates": [11.542389, 47.841549]}, "properties": {}}, {"type": "Feature", "geometry": {"type": "Point", "coordinates": [8.638679, 49.350803]}, "properties": {}}, {"type": "Feature", "geometry": {"type": "Point", "coordinates": [8.544188, 49.334885]}, "properties": {}}, {"type": "Feature", "geometry": {"type": "Point", "coordinates": [12.119647, 54.083664]}, "properties": {}}, {"type": "Feature", "geometry": {"type": "Point", "coordinates": [8.973606, 47.741566]}, "properties": {}}, {"type": "Feature", "geometry": {"type": "Point", "coordinates": [18.032885, 48.884354]}, "properties": {}}, {"type": "Feature", "geometry": {"type": "Point", "coordinates": [-86.950656, 34.545815]}, "properties": {}}, {"type": "Feature", "geometry": {"type": "Point", "coordinates": [5.547295, 43.510634]}, "properties": {}}, {"type": "Feature", "geometry": {"type": "Point", "coordinates": [-1.10321, 53.96083]}, "properties": {}}, {"type": "Feature", "geometry": {"type": "Point", "coordinates": [6.831687, 43.63332]}, "properties": {}}, {"type": "Feature", "geometry": {"type": "Point", "coordinates": [-1.911375, 53.318562]}, "properties": {}}, {"type": "Feature", "geometry": {"type": "Point", "coordinates": [-1.107064, 52.955471]}, "properties": {}}, {"type": "Feature", "geometry": {"type": "Point", "coordinates": [14.484852, 48.951228]}, "properties": {}}, {"type": "Feature", "geometry": {"type": "Point", "coordinates": [-73.118512, 40.976619]}, "properties": {}}, {"type": "Feature", "geometry": {"type": "Point", "coordinates": [-1.462917, 52.801276]}, "properties": {}}, {"type": "Feature", "geometry": {"type": "Point", "coordinates": [8.795931, 45.742203]}, "properties": {}}, {"type": "Feature", "geometry": {"type": "Point", "coordinates": [-0.10512, 51.545276]}, "properties": {}}, {"type": "Feature", "geometry": {"type": "Point", "coordinates": [2.833366, 41.968225]}, "properties": {}}, {"type": "Feature", "geometry": {"type": "Point", "coordinates": [-2.145047, 51.348347]}, "properties": {}}, {"type": "Feature", "geometry": {"type": "Point", "coordinates": [2.492956, 45.138111]}, "properties": {}}, {"type": "Feature", "geometry": {"type": "Point", "coordinates": [173.936613, -41.218403]}, "properties": {}}, {"type": "Feature", "geometry": {"type": "Point", "coordinates": [8.320034, 46.165094]}, "properties": {}}, {"type": "Feature", "geometry": {"type": "Point", "coordinates": [3.322945, 43.800118]}, "properties": {}}, {"type": "Feature", "geometry": {"type": "Point", "coordinates": [1.704013, 48.515747]}, "properties": {}}, {"type": "Feature", "geometry": {"type": "Point", "coordinates": [-1.100165, 53.955395]}, "properties": {}}, {"type": "Feature", "geometry": {"type": "Point", "coordinates": [-81.848962, 41.354933]}, "properties": {}}, {"type": "Feature", "geometry": {"type": "Point", "coordinates": [-1.107017, 52.956073]}, "properties": {}}, {"type": "Feature", "geometry": {"type": "Point", "coordinates": [6.229586, 49.128539]}, "properties": {}}, {"type": "Feature", "geometry": {"type": "Point", "coordinates": [21.635011, 46.792128]}, "properties": {}}, {"type": "Feature", "geometry": {"type": "Point", "coordinates": [-78.614307, 38.407793]}, "properties": {}}, {"type": "Feature", "geometry": {"type": "Point", "coordinates": [15.532303, 46.726287]}, "properties": {}}, {"type": "Feature", "geometry": {"type": "Point", "coordinates": [18.966482, 48.457233]}, "properties": {}}, {"type": "Feature", "geometry": {"type": "Point", "coordinates": [44.796058, 41.713621]}, "properties": {}}, {"type": "Feature", "geometry": {"type": "Point", "coordinates": [-2.895103, 53.354794]}, "properties": {}}, {"type": "Feature", "geometry": {"type": "Point", "coordinates": [23.334462, 42.691608]}, "properties": {}}, {"type": "Feature", "geometry": {"type": "Point", "coordinates": [9.883792, 44.374869]}, "properties": {}}, {"type": "Feature", "geometry": {"type": "Point", "coordinates": [-77.688535, 39.32438]}, "properties": {}}, {"type": "Feature", "geometry": {"type": "Point", "coordinates": [-73.888709, 40.894355]}, "properties": {}}, {"type": "Feature", "geometry": {"type": "Point", "coordinates": [-73.889324, 40.893242]}, "properties": {}}, {"type": "Feature", "geometry": {"type": "Point", "coordinates": [14.656646, 49.629546]}, "properties": {}}, {"type": "Feature", "geometry": {"type": "Point", "coordinates": [-1.083728, 53.963742]}, "properties": {}}, {"type": "Feature", "geometry": {"type": "Point", "coordinates": [11.53755, 48.127162]}, "properties": {}}, {"type": "Feature", "geometry": {"type": "Point", "coordinates": [16.317883, 47.356145]}, "properties": {}}, {"type": "Feature", "geometry": {"type": "Point", "coordinates": [11.343666, 44.480787]}, "properties": {}}, {"type": "Feature", "geometry": {"type": "Point", "coordinates": [-1.13296, 53.996236]}, "properties": {}}, {"type": "Feature", "geometry": {"type": "Point", "coordinates": [1.065657, 52.762988]}, "properties": {}}, {"type": "Feature", "geometry": {"type": "Point", "coordinates": [4.019694, 45.042728]}, "properties": {}}, {"type": "Feature", "geometry": {"type": "Point", "coordinates": [13.826596, 50.273796]}, "properties": {}}, {"type": "Feature", "geometry": {"type": "Point", "coordinates": [2.329413, 48.814133]}, "properties": {}}, {"type": "Feature", "geometry": {"type": "Point", "coordinates": [-75.857733, 39.693947]}, "properties": {}}, {"type": "Feature", "geometry": {"type": "Point", "coordinates": [-84.373899, 33.748841]}, "properties": {}}, {"type": "Feature", "geometry": {"type": "Point", "coordinates": [-1.938197, 53.316825]}, "properties": {}}, {"type": "Feature", "geometry": {"type": "Point", "coordinates": [3.037162, 43.158206]}, "properties": {}}, {"type": "Feature", "geometry": {"type": "Point", "coordinates": [-3.225279, 54.768164]}, "properties": {}}, {"type": "Feature", "geometry": {"type": "Point", "coordinates": [0.416266, 51.632354]}, "properties": {}}, {"type": "Feature", "geometry": {"type": "Point", "coordinates": [-2.762513, 52.388343]}, "properties": {}}, {"type": "Feature", "geometry": {"type": "Point", "coordinates": [-9.49482, 52.634969]}, "properties": {}}, {"type": "Feature", "geometry": {"type": "Point", "coordinates": [-1.132683, 53.996384]}, "properties": {}}, {"type": "Feature", "geometry": {"type": "Point", "coordinates": [5.718718, 45.252921]}, "properties": {}}, {"type": "Feature", "geometry": {"type": "Point", "coordinates": [-94.589655, 39.070757]}, "properties": {}}, {"type": "Feature", "geometry": {"type": "Point", "coordinates": [9.20274, 45.530011]}, "properties": {}}, {"type": "Feature", "geometry": {"type": "Point", "coordinates": [12.15987, 47.578155]}, "properties": {}}, {"type": "Feature", "geometry": {"type": "Point", "coordinates": [10.965308, 55.663595]}, "properties": {}}, {"type": "Feature", "geometry": {"type": "Point", "coordinates": [7.446648, 44.30837]}, "properties": {}}, {"type": "Feature", "geometry": {"type": "Point", "coordinates": [2.976694, 43.130328]}, "properties": {}}, {"type": "Feature", "geometry": {"type": "Point", "coordinates": [171.050781, -44.72879]}, "properties": {}}, {"type": "Feature", "geometry": {"type": "Point", "coordinates": [-1.945017, 53.3171]}, "properties": {}}, {"type": "Feature", "geometry": {"type": "Point", "coordinates": [6.141204, 46.257044]}, "properties": {}}, {"type": "Feature", "geometry": {"type": "Point", "coordinates": [7.857658, 47.993556]}, "properties": {}}, {"type": "Feature", "geometry": {"type": "Point", "coordinates": [44.787477, 41.72327]}, "properties": {}}, {"type": "Feature", "geometry": {"type": "Point", "coordinates": [16.61248, 47.56488]}, "properties": {}}, {"type": "Feature", "geometry": {"type": "Point", "coordinates": [-2.780699, 54.345514]}, "properties": {}}, {"type": "Feature", "geometry": {"type": "Point", "coordinates": [6.142354, 46.256345]}, "properties": {}}, {"type": "Feature", "geometry": {"type": "Point", "coordinates": [11.5727, 55.412083]}, "properties": {}}, {"type": "Feature", "geometry": {"type": "Point", "coordinates": [19.934591, 50.118007]}, "properties": {}}, {"type": "Feature", "geometry": {"type": "Point", "coordinates": [11.037161, 48.101563]}, "properties": {}}, {"type": "Feature", "geometry": {"type": "Point", "coordinates": [11.649032, 48.100162]}, "properties": {}}, {"type": "Feature", "geometry": {"type": "Point", "coordinates": [6.773979, 50.655275]}, "properties": {}}, {"type": "Feature", "geometry": {"type": "Point", "coordinates": [-2.895459, 53.354602]}, "properties": {}}, {"type": "Feature", "geometry": {"type": "Point", "coordinates": [16.006047, 45.852975]}, "properties": {}}, {"type": "Feature", "geometry": {"type": "Point", "coordinates": [-2.911516, 54.781463]}, "properties": {}}, {"type": "Feature", "geometry": {"type": "Point", "coordinates": [11.648758, 48.099986]}, "properties": {}}, {"type": "Feature", "geometry": {"type": "Point", "coordinates": [-123.230152, 49.256757]}, "properties": {}}, {"type": "Feature", "geometry": {"type": "Point", "coordinates": [-73.890647, 40.899004]}, "properties": {}}, {"type": "Feature", "geometry": {"type": "Point", "coordinates": [-0.446642, 51.310828]}, "properties": {}}, {"type": "Feature", "geometry": {"type": "Point", "coordinates": [16.612475, 47.564847]}, "properties": {}}, {"type": "Feature", "geometry": {"type": "Point", "coordinates": [11.259816, 48.188161]}, "properties": {}}, {"type": "Feature", "geometry": {"type": "Point", "coordinates": [7.700678, 44.499416]}, "properties": {}}, {"type": "Feature", "geometry": {"type": "Point", "coordinates": [2.334138, 48.819425]}, "properties": {}}, {"type": "Feature", "geometry": {"type": "Point", "coordinates": [16.883608, 43.145147]}, "properties": {}}, {"type": "Feature", "geometry": {"type": "Point", "coordinates": [13.477575, 52.488308]}, "properties": {}}, {"type": "Feature", "geometry": {"type": "Point", "coordinates": [15.740733, 47.139742]}, "properties": {}}, {"type": "Feature", "geometry": {"type": "Point", "coordinates": [16.608063, 47.562095]}, "properties": {}}, {"type": "Feature", "geometry": {"type": "Point", "coordinates": [-1.13381, 53.996056]}, "properties": {}}, {"type": "Feature", "geometry": {"type": "Point", "coordinates": [-0.935344, 53.839605]}, "properties": {}}, {"type": "Feature", "geometry": {"type": "Point", "coordinates": [7.877447, 45.49635]}, "properties": {}}, {"type": "Feature", "geometry": {"type": "Point", "coordinates": [16.265741, 47.999447]}, "properties": {}}, {"type": "Feature", "geometry": {"type": "Point", "coordinates": [7.240146, 44.837569]}, "properties": {}}, {"type": "Feature", "geometry": {"type": "Point", "coordinates": [11.53519, 48.12646]}, "properties": {}}, {"type": "Feature", "geometry": {"type": "Point", "coordinates": [12.491067, 41.878087]}, "properties": {}}, {"type": "Feature", "geometry": {"type": "Point", "coordinates": [10.730203, 45.35336]}, "properties": {}}, {"type": "Feature", "geometry": {"type": "Point", "coordinates": [-73.889279, 40.894069]}, "properties": {}}, {"type": "Feature", "geometry": {"type": "Point", "coordinates": [-3.424715, 51.705956]}, "properties": {}}, {"type": "Feature", "geometry": {"type": "Point", "coordinates": [-0.661187, 45.797648]}, "properties": {}}, {"type": "Feature", "geometry": {"type": "Point", "coordinates": [2.964156, 50.573922]}, "properties": {}}, {"type": "Feature", "geometry": {"type": "Point", "coordinates": [-1.55757, 54.800404]}, "properties": {}}, {"type": "Feature", "geometry": {"type": "Point", "coordinates": [-2.762545, 52.388601]}, "properties": {}}, {"type": "Feature", "geometry": {"type": "Point", "coordinates": [-124.058257, 44.639575]}, "properties": {}}, {"type": "Feature", "geometry": {"type": "Point", "coordinates": [11.53582, 48.126675]}, "properties": {}}, {"type": "Feature", "geometry": {"type": "Point", "coordinates": [-76.787866, 39.072811]}, "properties": {}}, {"type": "Feature", "geometry": {"type": "Point", "coordinates": [11.535434, 48.126546]}, "properties": {}}, {"type": "Feature", "geometry": {"type": "Point", "coordinates": [-82.353753, 34.391869]}, "properties": {}}, {"type": "Feature", "geometry": {"type": "Point", "coordinates": [38.224822, 44.472208]}, "properties": {}}, {"type": "Feature", "geometry": {"type": "Point", "coordinates": [12.369614, 51.355599]}, "properties": {}}, {"type": "Feature", "geometry": {"type": "Point", "coordinates": [-6.371152, 52.352127]}, "properties": {}}, {"type": "Feature", "geometry": {"type": "Point", "coordinates": [-1.598239, 54.998155]}, "properties": {}}, {"type": "Feature", "geometry": {"type": "Point", "coordinates": [172.775762, -43.583525]}, "properties": {}}, {"type": "Feature", "geometry": {"type": "Point", "coordinates": [8.794567, 45.855565]}, "properties": {}}, {"type": "Feature", "geometry": {"type": "Point", "coordinates": [-2.084452, 53.346447]}, "properties": {}}, {"type": "Feature", "geometry": {"type": "Point", "coordinates": [20.154531, 54.934962]}, "properties": {}}, {"type": "Feature", "geometry": {"type": "Point", "coordinates": [11.537144, 48.126618]}, "properties": {}}, {"type": "Feature", "geometry": {"type": "Point", "coordinates": [6.14195, 46.270123]}, "properties": {}}, {"type": "Feature", "geometry": {"type": "Point", "coordinates": [10.963182, 52.157902]}, "properties": {}}, {"type": "Feature", "geometry": {"type": "Point", "coordinates": [-122.313339, 47.640429]}, "properties": {}}, {"type": "Feature", "geometry": {"type": "Point", "coordinates": [-2.627672, 51.442193]}, "properties": {}}, {"type": "Feature", "geometry": {"type": "Point", "coordinates": [-73.888709, 40.894355]}, "properties": {}}, {"type": "Feature", "geometry": {"type": "Point", "coordinates": [-1.075673, 53.936497]}, "properties": {}}, {"type": "Feature", "geometry": {"type": "Point", "coordinates": [11.545241, 48.128123]}, "properties": {}}, {"type": "Feature", "geometry": {"type": "Point", "coordinates": [10.153643, 53.70818]}, "properties": {}}, {"type": "Feature", "geometry": {"type": "Point", "coordinates": [-2.894953, 53.35515]}, "properties": {}}, {"type": "Feature", "geometry": {"type": "Point", "coordinates": [11.46876, 52.880301]}, "properties": {}}, {"type": "Feature", "geometry": {"type": "Point", "coordinates": [16.272204, 48.004619]}, "properties": {}}, {"type": "Feature", "geometry": {"type": "Point", "coordinates": [10.108581, 55.547806]}, "properties": {}}, {"type": "Feature", "geometry": {"type": "Point", "coordinates": [6.154376, 46.263283]}, "properties": {}}, {"type": "Feature", "geometry": {"type": "Point", "coordinates": [-124.058067, 44.63955]}, "properties": {}}, {"type": "Feature", "geometry": {"type": "Point", "coordinates": [4.829053, 43.922987]}, "properties": {}}, {"type": "Feature", "geometry": {"type": "Point", "coordinates": [11.534876, 48.12636]}, "properties": {}}, {"type": "Feature", "geometry": {"type": "Point", "coordinates": [11.53398, 48.125687]}, "properties": {}}, {"type": "Feature", "geometry": {"type": "Point", "coordinates": [16.47477, 56.44043]}, "properties": {}}, {"type": "Feature", "geometry": {"type": "Point", "coordinates": [12.11385, 57.42568]}, "properties": {}}, {"type": "Feature", "geometry": {"type": "Point", "coordinates": [12.66639, 56.08667]}, "properties": {}}, {"type": "Feature", "geometry": {"type": "Point", "coordinates": [12.86053, 56.74055]}, "properties": {}}, {"type": "Feature", "geometry": {"type": "Point", "coordinates": [16.41726, 56.58559]}, "properties": {}}, {"type": "Feature", "geometry": {"type": "Point", "coordinates": [9.833444, 58.972299]}, "properties": {}}, {"type": "Feature", "geometry": {"type": "Point", "coordinates": [7.452891, 58.03047]}, "properties": {}}, {"type": "Feature", "geometry": {"type": "Point", "coordinates": [10.549141, 59.912889]}, "properties": {}}, {"type": "Feature", "geometry": {"type": "Point", "coordinates": [7.848635, 58.139593]}, "properties": {}}, {"type": "Feature", "geometry": {"type": "Point", "coordinates": [14.736832, 55.099735]}, "properties": {}}, {"type": "Feature", "geometry": {"type": "Point", "coordinates": [11.9035, 54.720897]}, "properties": {}}, {"type": "Feature", "geometry": {"type": "Point", "coordinates": [10.46467, 55.392392]}, "properties": {}}, {"type": "Feature", "geometry": {"type": "Point", "coordinates": [10.196384, 56.16468]}, "properties": {}}, {"type": "Feature", "geometry": {"type": "Point", "coordinates": [12.523912, 55.814695]}, "properties": {}}, {"type": "Feature", "geometry": {"type": "Point", "coordinates": [12.218023, 54.938061]}, "properties": {}}, {"type": "Feature", "geometry": {"type": "Point", "coordinates": [12.485486, 55.677744]}, "properties": {}}, {"type": "Feature", "geometry": {"type": "Point", "coordinates": [9.587717, 48.904919]}, "properties": {}}, {"type": "Feature", "geometry": {"type": "Point", "coordinates": [10.151367, 52.537945]}, "properties": {}}, {"type": "Feature", "geometry": {"type": "Point", "coordinates": [8.561525, 50.00069]}, "properties": {}}, {"type": "Feature", "geometry": {"type": "Point", "coordinates": [8.753611, 52.090557]}, "properties": {}}, {"type": "Feature", "geometry": {"type": "Point", "coordinates": [9.612191, 48.876671]}, "properties": {}}, {"type": "Feature", "geometry": {"type": "Point", "coordinates": [9.600506, 48.876431]}, "properties": {}}, {"type": "Feature", "geometry": {"type": "Point", "coordinates": [4.765534, 53.098095]}, "properties": {}}, {"type": "Feature", "geometry": {"type": "Point", "coordinates": [7.745533, 48.446171]}, "properties": {}}, {"type": "Feature", "geometry": {"type": "Point", "coordinates": [8.480959, 49.463188]}, "properties": {}}, {"type": "Feature", "geometry": {"type": "Point", "coordinates": [9.593922, 48.908081]}, "properties": {}}, {"type": "Feature", "geometry": {"type": "Point", "coordinates": [8.753611, 52.090557]}, "properties": {}}, {"type": "Feature", "geometry": {"type": "Point", "coordinates": [18.29841, 57.64593]}, "properties": {}}, {"type": "Feature", "geometry": {"type": "Point", "coordinates": [16.41496, 56.58631]}, "properties": {}}, {"type": "Feature", "geometry": {"type": "Point", "coordinates": [11.94145, 58.34649]}, "properties": {}}, {"type": "Feature", "geometry": {"type": "Point", "coordinates": [16.25273, 56.67406]}, "properties": {}}, {"type": "Feature", "geometry": {"type": "Point", "coordinates": [16.64104, 57.74162]}, "properties": {}}, {"type": "Feature", "geometry": {"type": "Point", "coordinates": [11.754273, 55.234498]}, "properties": {}}, {"type": "Feature", "geometry": {"type": "Point", "coordinates": [11.964767, 55.320387]}, "properties": {}}, {"type": "Feature", "geometry": {"type": "Point", "coordinates": [6.696167, 51.544735]}, "properties": {}}, {"type": "Feature", "geometry": {"type": "Point", "coordinates": [7.130322, 50.671555]}, "properties": {}}, {"type": "Feature", "geometry": {"type": "Point", "coordinates": [10.734638, 53.893925]}, "properties": {}}, {"type": "Feature", "geometry": {"type": "Point", "coordinates": [8.480959, 49.463188]}, "properties": {}}, {"type": "Feature", "geometry": {"type": "Point", "coordinates": [8.4378, 49.985435]}, "properties": {}}, {"type": "Feature", "geometry": {"type": "Point", "coordinates": [6.489229, 50.735531]}, "properties": {}}, {"type": "Feature", "geometry": {"type": "Point", "coordinates": [15.87894, 56.74457]}, "properties": {}}, {"type": "Feature", "geometry": {"type": "Point", "coordinates": [11.81395, 58.33439]}, "properties": {}}, {"type": "Feature", "geometry": {"type": "Point", "coordinates": [11.92552, 57.72397]}, "properties": {}}, {"type": "Feature", "geometry": {"type": "Point", "coordinates": [16.3665, 56.68471]}, "properties": {}}, {"type": "Feature", "geometry": {"type": "Point", "coordinates": [16.66282, 56.63719]}, "properties": {}}, {"type": "Feature", "geometry": {"type": "Point", "coordinates": [13.1903, 55.7088]}, "properties": {}}, {"type": "Feature", "geometry": {"type": "Point", "coordinates": [17.6133, 59.80844]}, "properties": {}}, {"type": "Feature", "geometry": {"type": "Point", "coordinates": [9.36504, 55.216168]}, "properties": {}}, {"type": "Feature", "geometry": {"type": "Point", "coordinates": [9.363163, 55.218595]}, "properties": {}}, {"type": "Feature", "geometry": {"type": "Point", "coordinates": [11.968275, 55.325205]}, "properties": {}}, {"type": "Feature", "geometry": {"type": "Point", "coordinates": [10.487503, 55.355541]}, "properties": {}}, {"type": "Feature", "geometry": {"type": "Point", "coordinates": [10.997389, 55.723735]}, "properties": {}}, {"type": "Feature", "geometry": {"type": "Point", "coordinates": [11.968112, 55.321128]}, "properties": {}}, {"type": "Feature", "geometry": {"type": "Point", "coordinates": [12.604637, 55.665605]}, "properties": {}}, {"type": "Feature", "geometry": {"type": "Point", "coordinates": [9.976245, 55.487137]}, "properties": {}}, {"type": "Feature", "geometry": {"type": "Point", "coordinates": [9.663215, 55.638009]}, "properties": {}}, {"type": "Feature", "geometry": {"type": "Point", "coordinates": [11.751725, 55.195812]}, "properties": {}}, {"type": "Feature", "geometry": {"type": "Point", "coordinates": [7.3545, 51.521885]}, "properties": {}}, {"type": "Feature", "geometry": {"type": "Point", "coordinates": [8.480959, 49.463188]}, "properties": {}}, {"type": "Feature", "geometry": {"type": "Point", "coordinates": [10.230675, 52.530006]}, "properties": {}}, {"type": "Feature", "geometry": {"type": "Point", "coordinates": [6.965421, 51.432602]}, "properties": {}}, {"type": "Feature", "geometry": {"type": "Point", "coordinates": [10.18364, 52.581722]}, "properties": {}}, {"type": "Feature", "geometry": {"type": "Point", "coordinates": [8.673503, 49.419388]}, "properties": {}}, {"type": "Feature", "geometry": {"type": "Point", "coordinates": [10.215268, 50.091072]}, "properties": {}}, {"type": "Feature", "geometry": {"type": "Point", "coordinates": [12.85048, 56.68054]}, "properties": {}}, {"type": "Feature", "geometry": {"type": "Point", "coordinates": [12.85159, 56.68084]}, "properties": {}}, {"type": "Feature", "geometry": {"type": "Point", "coordinates": [12.85236, 56.68093]}, "properties": {}}, {"type": "Feature", "geometry": {"type": "Point", "coordinates": [12.85353, 56.68111]}, "properties": {}}, {"type": "Feature", "geometry": {"type": "Point", "coordinates": [12.89349, 56.73078]}, "properties": {}}, {"type": "Feature", "geometry": {"type": "Point", "coordinates": [12.85169, 56.68281]}, "properties": {}}, {"type": "Feature", "geometry": {"type": "Point", "coordinates": [11.64851, 57.72369]}, "properties": {}}, {"type": "Feature", "geometry": {"type": "Point", "coordinates": [12.85556, 56.68182]}, "properties": {}}, {"type": "Feature", "geometry": {"type": "Point", "coordinates": [12.85395, 56.68133]}, "properties": {}}, {"type": "Feature", "geometry": {"type": "Point", "coordinates": [12.85549, 56.6831]}, "properties": {}}, {"type": "Feature", "geometry": {"type": "Point", "coordinates": [8.46913, 47.59861]}, "properties": {}}, {"type": "Feature", "geometry": {"type": "Point", "coordinates": [9.02829, 46.28775]}, "properties": {}}, {"type": "Feature", "geometry": {"type": "Point", "coordinates": [7.20788, 47.15324]}, "properties": {}}, {"type": "Feature", "geometry": {"type": "Point", "coordinates": [8.89015, 45.97471]}, "properties": {}}, {"type": "Feature", "geometry": {"type": "Point", "coordinates": [8.89015, 45.97471]}, "properties": {}}, {"type": "Feature", "geometry": {"type": "Point", "coordinates": [8.71555, 46.78653]}, "properties": {}}, {"type": "Feature", "geometry": {"type": "Point", "coordinates": [6.42784, 46.56428]}, "properties": {}}, {"type": "Feature", "geometry": {"type": "Point", "coordinates": [8.46913, 47.59861]}, "properties": {}}, {"type": "Feature", "geometry": {"type": "Point", "coordinates": [8.46913, 47.59861]}, "properties": {}}, {"type": "Feature", "geometry": {"type": "Point", "coordinates": [7.20865, 46.97334]}, "properties": {}}, {"type": "Feature", "geometry": {"type": "Point", "coordinates": [8.89015, 45.97471]}, "properties": {}}, {"type": "Feature", "geometry": {"type": "Point", "coordinates": [8.89015, 45.97471]}, "properties": {}}, {"type": "Feature", "geometry": {"type": "Point", "coordinates": [8.89015, 45.97471]}, "properties": {}}, {"type": "Feature", "geometry": {"type": "Point", "coordinates": [8.46913, 47.59861]}, "properties": {}}, {"type": "Feature", "geometry": {"type": "Point", "coordinates": [8.95714, 46.0638]}, "properties": {}}, {"type": "Feature", "geometry": {"type": "Point", "coordinates": [8.53375, 47.50807]}, "properties": {}}, {"type": "Feature", "geometry": {"type": "Point", "coordinates": [6.49305, 46.56484]}, "properties": {}}, {"type": "Feature", "geometry": {"type": "Point", "coordinates": [6.427, 46.60925]}, "properties": {}}, {"type": "Feature", "geometry": {"type": "Point", "coordinates": [6.88661, 46.34254]}, "properties": {}}, {"type": "Feature", "geometry": {"type": "Point", "coordinates": [8.95589, 46.01883]}, "properties": {}}, {"type": "Feature", "geometry": {"type": "Point", "coordinates": [8.1911, 46.74621]}, "properties": {}}, {"type": "Feature", "geometry": {"type": "Point", "coordinates": [8.95714, 46.0638]}, "properties": {}}, {"type": "Feature", "geometry": {"type": "Point", "coordinates": [8.46913, 47.59861]}, "properties": {}}, {"type": "Feature", "geometry": {"type": "Point", "coordinates": [8.53375, 47.50807]}, "properties": {}}, {"type": "Feature", "geometry": {"type": "Point", "coordinates": [6.42784, 46.56428]}, "properties": {}}, {"type": "Feature", "geometry": {"type": "Point", "coordinates": [8.95714, 46.0638]}, "properties": {}}, {"type": "Feature", "geometry": {"type": "Point", "coordinates": [8.95714, 46.0638]}, "properties": {}}, {"type": "Feature", "geometry": {"type": "Point", "coordinates": [8.95714, 46.0638]}, "properties": {}}, {"type": "Feature", "geometry": {"type": "Point", "coordinates": [8.95714, 46.0638]}, "properties": {}}, {"type": "Feature", "geometry": {"type": "Point", "coordinates": [8.53375, 47.50807]}, "properties": {}}, {"type": "Feature", "geometry": {"type": "Point", "coordinates": [6.49305, 46.56484]}, "properties": {}}, {"type": "Feature", "geometry": {"type": "Point", "coordinates": [8.95216, 45.88392]}, "properties": {}}, {"type": "Feature", "geometry": {"type": "Point", "coordinates": [8.1911, 46.74621]}, "properties": {}}, {"type": "Feature", "geometry": {"type": "Point", "coordinates": [6.55826, 46.56536]}, "properties": {}}, {"type": "Feature", "geometry": {"type": "Point", "coordinates": [11.327096, 50.722385]}, "properties": {}}, {"type": "Feature", "geometry": {"type": "Point", "coordinates": [7.701759, 48.283421]}, "properties": {}}, {"type": "Feature", "geometry": {"type": "Point", "coordinates": [10.151367, 52.537945]}, "properties": {}}, {"type": "Feature", "geometry": {"type": "Point", "coordinates": [9.053421, 49.344585]}, "properties": {}}, {"type": "Feature", "geometry": {"type": "Point", "coordinates": [10.230833, 50.061306]}, "properties": {}}, {"type": "Feature", "geometry": {"type": "Point", "coordinates": [8.753611, 52.090557]}, "properties": {}}, {"type": "Feature", "geometry": {"type": "Point", "coordinates": [8.638679, 49.350803]}, "properties": {}}, {"type": "Feature", "geometry": {"type": "Point", "coordinates": [8.91883, 48.931862]}, "properties": {}}, {"type": "Feature", "geometry": {"type": "Point", "coordinates": [-77.030617, 39.037883]}, "properties": {}}, {"type": "Feature", "geometry": {"type": "Point", "coordinates": [-3.193837, 51.489358]}, "properties": {}}, {"type": "Feature", "geometry": {"type": "Point", "coordinates": [-3.18897, 51.48498]}, "properties": {}}, {"type": "Feature", "geometry": {"type": "Point", "coordinates": [15.9411, 46.986888]}, "properties": {}}, {"type": "Feature", "geometry": {"type": "Point", "coordinates": [16.78446, 48.018327]}, "properties": {}}, {"type": "Feature", "geometry": {"type": "Point", "coordinates": [-77.309454, 39.047906]}, "properties": {}}, {"type": "Feature", "geometry": {"type": "Point", "coordinates": [-77.02475, 39.001183]}, "properties": {}}, {"type": "Feature", "geometry": {"type": "Point", "coordinates": [-3.95264, 56.127376]}, "properties": {}}, {"type": "Feature", "geometry": {"type": "Point", "coordinates": [-77.009553, 39.041664]}, "properties": {}}, {"type": "Feature", "geometry": {"type": "Point", "coordinates": [11.640498, 48.100504]}, "properties": {}}, {"type": "Feature", "geometry": {"type": "Point", "coordinates": [14.023258, 48.152509]}, "properties": {}}, {"type": "Feature", "geometry": {"type": "Point", "coordinates": [-77.307129, 38.850636]}, "properties": {}}, {"type": "Feature", "geometry": {"type": "Point", "coordinates": [14.436967, 48.013985]}, "properties": {}}, {"type": "Feature", "geometry": {"type": "Point", "coordinates": [11.580365, 48.129779]}, "properties": {}}, {"type": "Feature", "geometry": {"type": "Point", "coordinates": [12.692897, 41.701946]}, "properties": {}}, {"type": "Feature", "geometry": {"type": "Point", "coordinates": [-2.731599, 53.355002]}, "properties": {}}, {"type": "Feature", "geometry": {"type": "Point", "coordinates": [-79.062885, 35.913828]}, "properties": {}}, {"type": "Feature", "geometry": {"type": "Point", "coordinates": [-122.213289, 47.997091]}, "properties": {}}, {"type": "Feature", "geometry": {"type": "Point", "coordinates": [-83.59723, 34.125691]}, "properties": {}}, {"type": "Feature", "geometry": {"type": "Point", "coordinates": [-123.292787, 48.459325]}, "properties": {}}, {"type": "Feature", "geometry": {"type": "Point", "coordinates": [-77.0103, 39.053908]}, "properties": {}}, {"type": "Feature", "geometry": {"type": "Point", "coordinates": [-4.821669, 55.984519]}, "properties": {}}, {"type": "Feature", "geometry": {"type": "Point", "coordinates": [11.580827, 48.129964]}, "properties": {}}, {"type": "Feature", "geometry": {"type": "Point", "coordinates": [-1.739793, 52.733875]}, "properties": {}}, {"type": "Feature", "geometry": {"type": "Point", "coordinates": [-77.012008, 39.051414]}, "properties": {}}, {"type": "Feature", "geometry": {"type": "Point", "coordinates": [5.388079, 43.822416]}, "properties": {}}, {"type": "Feature", "geometry": {"type": "Point", "coordinates": [2.148398, 48.676308]}, "properties": {}}, {"type": "Feature", "geometry": {"type": "Point", "coordinates": [-3.050338, 54.924782]}, "properties": {}}, {"type": "Feature", "geometry": {"type": "Point", "coordinates": [-2.956167, 53.326186]}, "properties": {}}, {"type": "Feature", "geometry": {"type": "Point", "coordinates": [-2.956065, 53.328343]}, "properties": {}}, {"type": "Feature", "geometry": {"type": "Point", "coordinates": [0.126936, 52.208295]}, "properties": {}}, {"type": "Feature", "geometry": {"type": "Point", "coordinates": [-1.087372, 53.953094]}, "properties": {}}, {"type": "Feature", "geometry": {"type": "Point", "coordinates": [3.62072, 50.780474]}, "properties": {}}]}