{"type": "FeatureCollection", "name": "Solanum nigrum", "features": [{"type": "Feature", "geometry": {"type": "Point", "coordinates": [-1.084728, 53.947805]}, "properties": {}}, {"type": "Feature", "geometry": {"type": "Point", "coordinates": [-9.234032, 38.644282]}, "properties": {}}, {"type": "Feature", "geometry": {"type": "Point", "coordinates": [-2.952625, 53.388919]}, "properties": {}}, {"type": "Feature", "geometry": {"type": "Point", "coordinates": [6.831687, 43.63332]}, "properties": {}}, {"type": "Feature", "geometry": {"type": "Point", "coordinates": [7.959317, 45.150501]}, "properties": {}}, {"type": "Feature", "geometry": {"type": "Point", "coordinates": [-124.176731, 49.471275]}, "properties": {}}, {"type": "Feature", "geometry": {"type": "Point", "coordinates": [-0.106673, 51.448588]}, "properties": {}}, {"type": "Feature", "geometry": {"type": "Point", "coordinates": [-8.194553, 40.339903]}, "properties": {}}, {"type": "Feature", "geometry": {"type": "Point", "coordinates": [-117.014091, 33.073226]}, "properties": {}}, {"type": "Feature", "geometry": {"type": "Point", "coordinates": [172.574805, -43.465364]}, "properties": {}}, {"type": "Feature", "geometry": {"type": "Point", "coordinates": [12.558326, 43.827213]}, "properties": {}}, {"type": "Feature", "geometry": {"type": "Point", "coordinates": [145.129328, -38.151684]}, "properties": {}}, {"type": "Feature", "geometry": {"type": "Point", "coordinates": [-1.16828, 52.956812]}, "properties": {}}, {"type": "Feature", "geometry": {"type": "Point", "coordinates": [31.267236, 29.96783]}, "properties": {}}, {"type": "Feature", "geometry": {"type": "Point", "coordinates": [-7.648154, 41.12511]}, "properties": {}}, {"type": "Feature", "geometry": {"type": "Point", "coordinates": [151.459475, -32.561549]}, "properties": {}}, {"type": "Feature", "geometry": {"type": "Point", "coordinates": [23.65425, 37.938675]}, "properties": {}}, {"type": "Feature", "geometry": {"type": "Point", "coordinates": [8.764455, 46.060723]}, "properties": {}}, {"type": "Feature", "geometry": {"type": "Point", "coordinates": [-5.682125, 43.523217]}, "properties": {}}, {"type": "Feature", "geometry": {"type": "Point", "coordinates": [175.1454, -41.097472]}, "properties": {}}, {"type": "Feature", "geometry": {"type": "Point", "coordinates": [2.327587, 48.82147]}, "properties": {}}, {"type": "Feature", "geometry": {"type": "Point", "coordinates": [85.014328, 25.609097]}, "properties": {}}, {"type": "Feature", "geometry": {"type": "Point", "coordinates": [44.803509, 41.703392]}, "properties": {}}, {"type": "Feature", "geometry": {"type": "Point", "coordinates": [-1.142017, 52.950733]}, "properties": {}}, {"type": "Feature", "geometry": {"type": "Point", "coordinates": [174.561036, -36.146964]}, "properties": {}}, {"type": "Feature", "geometry": {"type": "Point", "coordinates": [5.779595, 43.117093]}, "properties": {}}, {"type": "Feature", "geometry": {"type": "Point", "coordinates": [14.210999, 41.105556]}, "properties": {}}, {"type": "Feature", "geometry": {"type": "Point", "coordinates": [-3.242777, 50.678269]}, "properties": {}}, {"type": "Feature", "geometry": {"type": "Point", "coordinates": [-7.894048, 37.097826]}, "properties": {}}, {"type": "Feature", "geometry": {"type": "Point", "coordinates": [139.446472, 35.64894]}, "properties": {}}, {"type": "Feature", "geometry": {"type": "Point", "coordinates": [-17.865536, 28.661072]}, "properties": {}}, {"type": "Feature", "geometry": {"type": "Point", "coordinates": [-17.865707, 28.502905]}, "properties": {}}, {"type": "Feature", "geometry": {"type": "Point", "coordinates": [-17.794743, 28.613293]}, "properties": {}}, {"type": "Feature", "geometry": {"type": "Point", "coordinates": [-17.797716, 28.604389]}, "properties": {}}, {"type": "Feature", "geometry": {"type": "Point", "coordinates": [-17.79285, 28.583265]}, "properties": {}}, {"type": "Feature", "geometry": {"type": "Point", "coordinates": [-17.823299, 28.613686]}, "properties": {}}, {"type": "Feature", "geometry": {"type": "Point", "coordinates": [-17.835947, 28.594833]}, "properties": {}}, {"type": "Feature", "geometry": {"type": "Point", "coordinates": [-17.763498, 28.809954]}, "properties": {}}, {"type": "Feature", "geometry": {"type": "Point", "coordinates": [-17.792322, 28.621372]}, "properties": {}}, {"type": "Feature", "geometry": {"type": "Point", "coordinates": [-17.802229, 28.553455]}, "properties": {}}, {"type": "Feature", "geometry": {"type": "Point", "coordinates": [16.343916, 39.658437]}, "properties": {}}, {"type": "Feature", "geometry": {"type": "Point", "coordinates": [-8.562659, 40.026249]}, "properties": {}}, {"type": "Feature", "geometry": {"type": "Point", "coordinates": [-9.133333, 38.604469]}, "properties": {}}, {"type": "Feature", "geometry": {"type": "Point", "coordinates": [-0.74546, 41.299725]}, "properties": {}}, {"type": "Feature", "geometry": {"type": "Point", "coordinates": [-9.154008, 38.634785]}, "properties": {}}, {"type": "Feature", "geometry": {"type": "Point", "coordinates": [175.153957, -40.76331]}, "properties": {}}, {"type": "Feature", "geometry": {"type": "Point", "coordinates": [145.006863, -37.799534]}, "properties": {}}, {"type": "Feature", "geometry": {"type": "Point", "coordinates": [-7.18505, 37.225538]}, "properties": {}}, {"type": "Feature", "geometry": {"type": "Point", "coordinates": [-121.981721, 37.297442]}, "properties": {}}, {"type": "Feature", "geometry": {"type": "Point", "coordinates": [7.720982, 43.802506]}, "properties": {}}, {"type": "Feature", "geometry": {"type": "Point", "coordinates": [-118.402863, 33.880527]}, "properties": {}}, {"type": "Feature", "geometry": {"type": "Point", "coordinates": [134.765041, -32.916303]}, "properties": {}}, {"type": "Feature", "geometry": {"type": "Point", "coordinates": [139.444631, 35.648818]}, "properties": {}}, {"type": "Feature", "geometry": {"type": "Point", "coordinates": [18.86379, -33.940292]}, "properties": {}}, {"type": "Feature", "geometry": {"type": "Point", "coordinates": [-9.163501, 38.579768]}, "properties": {}}, {"type": "Feature", "geometry": {"type": "Point", "coordinates": [-122.23465, 47.488338]}, "properties": {}}, {"type": "Feature", "geometry": {"type": "Point", "coordinates": [145.169007, -37.854972]}, "properties": {}}, {"type": "Feature", "geometry": {"type": "Point", "coordinates": [-116.993659, 32.831131]}, "properties": {}}, {"type": "Feature", "geometry": {"type": "Point", "coordinates": [-6.407542, 36.713791]}, "properties": {}}, {"type": "Feature", "geometry": {"type": "Point", "coordinates": [-117.128991, 32.57636]}, "properties": {}}, {"type": "Feature", "geometry": {"type": "Point", "coordinates": [-121.948083, 39.128661]}, "properties": {}}, {"type": "Feature", "geometry": {"type": "Point", "coordinates": [-9.418596, 38.693672]}, "properties": {}}, {"type": "Feature", "geometry": {"type": "Point", "coordinates": [-118.356347, 34.1078]}, "properties": {}}, {"type": "Feature", "geometry": {"type": "Point", "coordinates": [-9.134635, 38.713171]}, "properties": {}}, {"type": "Feature", "geometry": {"type": "Point", "coordinates": [82.901714, 26.183347]}, "properties": {}}, {"type": "Feature", "geometry": {"type": "Point", "coordinates": [-122.322647, 47.62265]}, "properties": {}}, {"type": "Feature", "geometry": {"type": "Point", "coordinates": [170.1303, -46.176404]}, "properties": {}}, {"type": "Feature", "geometry": {"type": "Point", "coordinates": [149.108614, -35.408928]}, "properties": {}}, {"type": "Feature", "geometry": {"type": "Point", "coordinates": [-8.551997, 42.880155]}, "properties": {}}, {"type": "Feature", "geometry": {"type": "Point", "coordinates": [139.445225, 35.649137]}, "properties": {}}, {"type": "Feature", "geometry": {"type": "Point", "coordinates": [-122.261887, 37.873172]}, "properties": {}}, {"type": "Feature", "geometry": {"type": "Point", "coordinates": [9.270958, 45.597162]}, "properties": {}}, {"type": "Feature", "geometry": {"type": "Point", "coordinates": [-8.504261, 43.330208]}, "properties": {}}, {"type": "Feature", "geometry": {"type": "Point", "coordinates": [5.398941, 43.278801]}, "properties": {}}, {"type": "Feature", "geometry": {"type": "Point", "coordinates": [16.276352, 48.00102]}, "properties": {}}, {"type": "Feature", "geometry": {"type": "Point", "coordinates": [18.833875, -34.366151]}, "properties": {}}, {"type": "Feature", "geometry": {"type": "Point", "coordinates": [81.846528, 25.413314]}, "properties": {}}, {"type": "Feature", "geometry": {"type": "Point", "coordinates": [74.958747, 31.132656]}, "properties": {}}, {"type": "Feature", "geometry": {"type": "Point", "coordinates": [147.297195, -42.865845]}, "properties": {}}, {"type": "Feature", "geometry": {"type": "Point", "coordinates": [-1.402297, 38.209037]}, "properties": {}}, {"type": "Feature", "geometry": {"type": "Point", "coordinates": [173.283147, -41.254172]}, "properties": {}}, {"type": "Feature", "geometry": {"type": "Point", "coordinates": [-118.80908, 36.136328]}, "properties": {}}, {"type": "Feature", "geometry": {"type": "Point", "coordinates": [18.395683, -34.074617]}, "properties": {}}, {"type": "Feature", "geometry": {"type": "Point", "coordinates": [-1.401819, 38.209605]}, "properties": {}}, {"type": "Feature", "geometry": {"type": "Point", "coordinates": [28.017956, -26.084489]}, "properties": {}}, {"type": "Feature", "geometry": {"type": "Point", "coordinates": [-9.067812, 38.666713]}, "properties": {}}, {"type": "Feature", "geometry": {"type": "Point", "coordinates": [-0.092939, 51.480056]}, "properties": {}}, {"type": "Feature", "geometry": {"type": "Point", "coordinates": [-9.229864, 38.647915]}, "properties": {}}, {"type": "Feature", "geometry": {"type": "Point", "coordinates": [-117.710533, 33.53307]}, "properties": {}}, {"type": "Feature", "geometry": {"type": "Point", "coordinates": [-117.273281, 33.011592]}, "properties": {}}, {"type": "Feature", "geometry": {"type": "Point", "coordinates": [149.546389, -33.415278]}, "properties": {}}, {"type": "Feature", "geometry": {"type": "Point", "coordinates": [-117.018599, 33.07285]}, "properties": {}}, {"type": "Feature", "geometry": {"type": "Point", "coordinates": [139.445475, 35.649266]}, "properties": {}}, {"type": "Feature", "geometry": {"type": "Point", "coordinates": [144.963792, -37.80128]}, "properties": {}}, {"type": "Feature", "geometry": {"type": "Point", "coordinates": [28.28438, -25.745322]}, "properties": {}}, {"type": "Feature", "geometry": {"type": "Point", "coordinates": [-117.943623, 33.903715]}, "properties": {}}, {"type": "Feature", "geometry": {"type": "Point", "coordinates": [-118.312438, 33.715413]}, "properties": {}}, {"type": "Feature", "geometry": {"type": "Point", "coordinates": [-9.130403, 38.735868]}, "properties": {}}, {"type": "Feature", "geometry": {"type": "Point", "coordinates": [172.559722, -43.544849]}, "properties": {}}, {"type": "Feature", "geometry": {"type": "Point", "coordinates": [-7.73423, 41.128346]}, "properties": {}}, {"type": "Feature", "geometry": {"type": "Point", "coordinates": [-118.431458, 33.971212]}, "properties": {}}, {"type": "Feature", "geometry": {"type": "Point", "coordinates": [-9.134195, 38.602642]}, "properties": {}}, {"type": "Feature", "geometry": {"type": "Point", "coordinates": [-9.143893, 38.753595]}, "properties": {}}, {"type": "Feature", "geometry": {"type": "Point", "coordinates": [34.957308, 32.100006]}, "properties": {}}, {"type": "Feature", "geometry": {"type": "Point", "coordinates": [27.16189, -23.864398]}, "properties": {}}, {"type": "Feature", "geometry": {"type": "Point", "coordinates": [-124.049702, 44.622986]}, "properties": {}}, {"type": "Feature", "geometry": {"type": "Point", "coordinates": [5.085063, 43.331579]}, "properties": {}}, {"type": "Feature", "geometry": {"type": "Point", "coordinates": [-2.965055, 43.392003]}, "properties": {}}, {"type": "Feature", "geometry": {"type": "Point", "coordinates": [18.863142, -33.94062]}, "properties": {}}, {"type": "Feature", "geometry": {"type": "Point", "coordinates": [-9.16745, 38.580257]}, "properties": {}}, {"type": "Feature", "geometry": {"type": "Point", "coordinates": [-117.507144, 33.898419]}, "properties": {}}, {"type": "Feature", "geometry": {"type": "Point", "coordinates": [-7.641503, 41.15291]}, "properties": {}}, {"type": "Feature", "geometry": {"type": "Point", "coordinates": [-9.181425, 38.612072]}, "properties": {}}, {"type": "Feature", "geometry": {"type": "Point", "coordinates": [-8.170125, 43.605995]}, "properties": {}}, {"type": "Feature", "geometry": {"type": "Point", "coordinates": [-118.330322, 34.149636]}, "properties": {}}, {"type": "Feature", "geometry": {"type": "Point", "coordinates": [-16.925342, 32.684201]}, "properties": {}}, {"type": "Feature", "geometry": {"type": "Point", "coordinates": [-0.933817, 41.616043]}, "properties": {}}, {"type": "Feature", "geometry": {"type": "Point", "coordinates": [149.154647, -35.304175]}, "properties": {}}, {"type": "Feature", "geometry": {"type": "Point", "coordinates": [-9.170252, 38.574315]}, "properties": {}}, {"type": "Feature", "geometry": {"type": "Point", "coordinates": [-122.082761, 37.556571]}, "properties": {}}, {"type": "Feature", "geometry": {"type": "Point", "coordinates": [19.997196, -33.836781]}, "properties": {}}, {"type": "Feature", "geometry": {"type": "Point", "coordinates": [-118.1887, 34.100973]}, "properties": {}}, {"type": "Feature", "geometry": {"type": "Point", "coordinates": [145.315599, -38.034644]}, "properties": {}}, {"type": "Feature", "geometry": {"type": "Point", "coordinates": [-117.844208, 33.661446]}, "properties": {}}, {"type": "Feature", "geometry": {"type": "Point", "coordinates": [-7.690972, 41.104166]}, "properties": {}}, {"type": "Feature", "geometry": {"type": "Point", "coordinates": [-122.452777, 37.805738]}, "properties": {}}, {"type": "Feature", "geometry": {"type": "Point", "coordinates": [1.982397, 41.273647]}, "properties": {}}, {"type": "Feature", "geometry": {"type": "Point", "coordinates": [-16.83711, 32.676538]}, "properties": {}}, {"type": "Feature", "geometry": {"type": "Point", "coordinates": [-122.45276, 37.805746]}, "properties": {}}, {"type": "Feature", "geometry": {"type": "Point", "coordinates": [-16.2655, 28.566439]}, "properties": {}}, {"type": "Feature", "geometry": {"type": "Point", "coordinates": [-122.255845, 37.800113]}, "properties": {}}, {"type": "Feature", "geometry": {"type": "Point", "coordinates": [18.833849, -34.366109]}, "properties": {}}, {"type": "Feature", "geometry": {"type": "Point", "coordinates": [-117.138968, 32.631847]}, "properties": {}}, {"type": "Feature", "geometry": {"type": "Point", "coordinates": [-16.925479, 32.684215]}, "properties": {}}, {"type": "Feature", "geometry": {"type": "Point", "coordinates": [16.297652, 38.904975]}, "properties": {}}, {"type": "Feature", "geometry": {"type": "Point", "coordinates": [-122.591284, 37.769809]}, "properties": {}}, {"type": "Feature", "geometry": {"type": "Point", "coordinates": [139.44515, 35.649134]}, "properties": {}}, {"type": "Feature", "geometry": {"type": "Point", "coordinates": [-2.977486, 53.429272]}, "properties": {}}, {"type": "Feature", "geometry": {"type": "Point", "coordinates": [-16.893463, 32.661823]}, "properties": {}}, {"type": "Feature", "geometry": {"type": "Point", "coordinates": [-122.277802, 37.796687]}, "properties": {}}, {"type": "Feature", "geometry": {"type": "Point", "coordinates": [-121.425933, 38.54702]}, "properties": {}}, {"type": "Feature", "geometry": {"type": "Point", "coordinates": [175.161496, -40.661262]}, "properties": {}}, {"type": "Feature", "geometry": {"type": "Point", "coordinates": [-118.33065, 34.149258]}, "properties": {}}, {"type": "Feature", "geometry": {"type": "Point", "coordinates": [34.786576, 31.956695]}, "properties": {}}, {"type": "Feature", "geometry": {"type": "Point", "coordinates": [-121.764232, 38.541045]}, "properties": {}}, {"type": "Feature", "geometry": {"type": "Point", "coordinates": [-117.030967, 32.810808]}, "properties": {}}, {"type": "Feature", "geometry": {"type": "Point", "coordinates": [139.713214, 35.573017]}, "properties": {}}, {"type": "Feature", "geometry": {"type": "Point", "coordinates": [30.985, 1.892]}, "properties": {}}, {"type": "Feature", "geometry": {"type": "Point", "coordinates": [30.985, 1.892]}, "properties": {}}, {"type": "Feature", "geometry": {"type": "Point", "coordinates": [150.577303, -34.83428]}, "properties": {}}, {"type": "Feature", "geometry": {"type": "Point", "coordinates": [-118.145854, 34.182319]}, "properties": {}}, {"type": "Feature", "geometry": {"type": "Point", "coordinates": [-0.523888, 38.38438]}, "properties": {}}, {"type": "Feature", "geometry": {"type": "Point", "coordinates": [147.994422, -37.881178]}, "properties": {}}, {"type": "Feature", "geometry": {"type": "Point", "coordinates": [-117.249397, 32.876575]}, "properties": {}}, {"type": "Feature", "geometry": {"type": "Point", "coordinates": [-17.156676, 32.857064]}, "properties": {}}, {"type": "Feature", "geometry": {"type": "Point", "coordinates": [-117.249405, 32.876595]}, "properties": {}}, {"type": "Feature", "geometry": {"type": "Point", "coordinates": [-116.778325, 32.837728]}, "properties": {}}, {"type": "Feature", "geometry": {"type": "Point", "coordinates": [-17.049614, 32.784798]}, "properties": {}}, {"type": "Feature", "geometry": {"type": "Point", "coordinates": [139.474895, 35.298913]}, "properties": {}}, {"type": "Feature", "geometry": {"type": "Point", "coordinates": [18.888878, -33.940353]}, "properties": {}}, {"type": "Feature", "geometry": {"type": "Point", "coordinates": [-122.938747, 38.123183]}, "properties": {}}, {"type": "Feature", "geometry": {"type": "Point", "coordinates": [145.022506, -38.47857]}, "properties": {}}, {"type": "Feature", "geometry": {"type": "Point", "coordinates": [-117.247588, 32.9407]}, "properties": {}}, {"type": "Feature", "geometry": {"type": "Point", "coordinates": [34.981648, 29.605504]}, "properties": {}}, {"type": "Feature", "geometry": {"type": "Point", "coordinates": [-17.17278, 32.862388]}, "properties": {}}, {"type": "Feature", "geometry": {"type": "Point", "coordinates": [18.890511, -33.940702]}, "properties": {}}, {"type": "Feature", "geometry": {"type": "Point", "coordinates": [-118.508046, 34.247154]}, "properties": {}}, {"type": "Feature", "geometry": {"type": "Point", "coordinates": [18.583621, -33.965622]}, "properties": {}}, {"type": "Feature", "geometry": {"type": "Point", "coordinates": [-9.158425, 38.68103]}, "properties": {}}, {"type": "Feature", "geometry": {"type": "Point", "coordinates": [0.067679, 51.562672]}, "properties": {}}, {"type": "Feature", "geometry": {"type": "Point", "coordinates": [145.071381, -37.655163]}, "properties": {}}, {"type": "Feature", "geometry": {"type": "Point", "coordinates": [176.102188, -37.741875]}, "properties": {}}, {"type": "Feature", "geometry": {"type": "Point", "coordinates": [81.846528, 25.413314]}, "properties": {}}, {"type": "Feature", "geometry": {"type": "Point", "coordinates": [-117.249383, 32.876587]}, "properties": {}}, {"type": "Feature", "geometry": {"type": "Point", "coordinates": [-122.41495, 37.800221]}, "properties": {}}, {"type": "Feature", "geometry": {"type": "Point", "coordinates": [172.702134, -43.497959]}, "properties": {}}, {"type": "Feature", "geometry": {"type": "Point", "coordinates": [16.122185, 38.000699]}, "properties": {}}, {"type": "Feature", "geometry": {"type": "Point", "coordinates": [-118.323699, 34.100886]}, "properties": {}}, {"type": "Feature", "geometry": {"type": "Point", "coordinates": [-15.594438, 28.092498]}, "properties": {}}, {"type": "Feature", "geometry": {"type": "Point", "coordinates": [18.582848, -33.964077]}, "properties": {}}, {"type": "Feature", "geometry": {"type": "Point", "coordinates": [151.1864, -33.922783]}, "properties": {}}, {"type": "Feature", "geometry": {"type": "Point", "coordinates": [37.892222, 44.681295]}, "properties": {}}, {"type": "Feature", "geometry": {"type": "Point", "coordinates": [115.813187, -31.969297]}, "properties": {}}, {"type": "Feature", "geometry": {"type": "Point", "coordinates": [54.363742, 24.454733]}, "properties": {}}, {"type": "Feature", "geometry": {"type": "Point", "coordinates": [-118.040028, 33.74847]}, "properties": {}}, {"type": "Feature", "geometry": {"type": "Point", "coordinates": [-117.249397, 32.876605]}, "properties": {}}, {"type": "Feature", "geometry": {"type": "Point", "coordinates": [-118.145527, 34.183224]}, "properties": {}}, {"type": "Feature", "geometry": {"type": "Point", "coordinates": [-7.891355, 38.165809]}, "properties": {}}, {"type": "Feature", "geometry": {"type": "Point", "coordinates": [16.285681, 39.420648]}, "properties": {}}, {"type": "Feature", "geometry": {"type": "Point", "coordinates": [-117.875969, 34.125334]}, "properties": {}}, {"type": "Feature", "geometry": {"type": "Point", "coordinates": [-5.163936, 36.739997]}, "properties": {}}, {"type": "Feature", "geometry": {"type": "Point", "coordinates": [55.138389, 25.025206]}, "properties": {}}, {"type": "Feature", "geometry": {"type": "Point", "coordinates": [-2.977486, 53.429272]}, "properties": {}}, {"type": "Feature", "geometry": {"type": "Point", "coordinates": [-2.952625, 53.388919]}, "properties": {}}, {"type": "Feature", "geometry": {"type": "Point", "coordinates": [4.3, 52.05]}, "properties": {}}, {"type": "Feature", "geometry": {"type": "Point", "coordinates": [4.45, 52.15]}, "properties": {}}, {"type": "Feature", "geometry": {"type": "Point", "coordinates": [-1.088339, 44.731606]}, "properties": {}}, {"type": "Feature", "geometry": {"type": "Point", "coordinates": [-8.729318, 42.296309]}, "properties": {}}, {"type": "Feature", "geometry": {"type": "Point", "coordinates": [4.85, 52.35]}, "properties": {}}, {"type": "Feature", "geometry": {"type": "Point", "coordinates": [-17.12604, 32.827977]}, "properties": {}}, {"type": "Feature", "geometry": {"type": "Point", "coordinates": [-118.412075, 33.74511]}, "properties": {}}, {"type": "Feature", "geometry": {"type": "Point", "coordinates": [34.76139, 31.941886]}, "properties": {}}, {"type": "Feature", "geometry": {"type": "Point", "coordinates": [34.712474, 31.701407]}, "properties": {}}, {"type": "Feature", "geometry": {"type": "Point", "coordinates": [34.763281, 31.944634]}, "properties": {}}, {"type": "Feature", "geometry": {"type": "Point", "coordinates": [34.975054, 32.500064]}, "properties": {}}, {"type": "Feature", "geometry": {"type": "Point", "coordinates": [-25.0673, 17.1364]}, "properties": {}}, {"type": "Feature", "geometry": {"type": "Point", "coordinates": [-122.270124, 37.834819]}, "properties": {}}, {"type": "Feature", "geometry": {"type": "Point", "coordinates": [-122.320452, 47.65585]}, "properties": {}}, {"type": "Feature", "geometry": {"type": "Point", "coordinates": [-117.372692, 33.780634]}, "properties": {}}, {"type": "Feature", "geometry": {"type": "Point", "coordinates": [28.543491, -26.15337]}, "properties": {}}, {"type": "Feature", "geometry": {"type": "Point", "coordinates": [18.385797, -34.141073]}, "properties": {}}, {"type": "Feature", "geometry": {"type": "Point", "coordinates": [150.704306, -35.003806]}, "properties": {}}, {"type": "Feature", "geometry": {"type": "Point", "coordinates": [150.703028, -35.004222]}, "properties": {}}, {"type": "Feature", "geometry": {"type": "Point", "coordinates": [1.33175, 51.94804]}, "properties": {}}, {"type": "Feature", "geometry": {"type": "Point", "coordinates": [135.351986, 34.756932]}, "properties": {}}, {"type": "Feature", "geometry": {"type": "Point", "coordinates": [13.658522, 45.541164]}, "properties": {}}, {"type": "Feature", "geometry": {"type": "Point", "coordinates": [2.350385, 51.006184]}, "properties": {}}, {"type": "Feature", "geometry": {"type": "Point", "coordinates": [83.059993, 21.59699]}, "properties": {}}, {"type": "Feature", "geometry": {"type": "Point", "coordinates": [145.075972, -37.682188]}, "properties": {}}, {"type": "Feature", "geometry": {"type": "Point", "coordinates": [-0.051876, 35.304668]}, "properties": {}}, {"type": "Feature", "geometry": {"type": "Point", "coordinates": [23.487747, -31.254232]}, "properties": {}}, {"type": "Feature", "geometry": {"type": "Point", "coordinates": [150.790968, -34.525754]}, "properties": {}}, {"type": "Feature", "geometry": {"type": "Point", "coordinates": [150.777152, -34.648293]}, "properties": {}}, {"type": "Feature", "geometry": {"type": "Point", "coordinates": [-122.284162, 37.867491]}, "properties": {}}, {"type": "Feature", "geometry": {"type": "Point", "coordinates": [2.350385, 51.006184]}, "properties": {}}, {"type": "Feature", "geometry": {"type": "Point", "coordinates": [151.74634, -32.627282]}, "properties": {}}, {"type": "Feature", "geometry": {"type": "Point", "coordinates": [150.989862, -33.732711]}, "properties": {}}, {"type": "Feature", "geometry": {"type": "Point", "coordinates": [151.124672, -33.731246]}, "properties": {}}, {"type": "Feature", "geometry": {"type": "Point", "coordinates": [151.302905, -32.833653]}, "properties": {}}, {"type": "Feature", "geometry": {"type": "Point", "coordinates": [-7.693158, 41.137265]}, "properties": {}}, {"type": "Feature", "geometry": {"type": "Point", "coordinates": [-0.352935, 39.458263]}, "properties": {}}, {"type": "Feature", "geometry": {"type": "Point", "coordinates": [145.321273, -38.028263]}, "properties": {}}, {"type": "Feature", "geometry": {"type": "Point", "coordinates": [-0.352508, 39.457785]}, "properties": {}}, {"type": "Feature", "geometry": {"type": "Point", "coordinates": [126.433578, 33.23953]}, "properties": {}}, {"type": "Feature", "geometry": {"type": "Point", "coordinates": [138.564538, -35.072004]}, "properties": {}}, {"type": "Feature", "geometry": {"type": "Point", "coordinates": [18.847837, -33.943305]}, "properties": {}}, {"type": "Feature", "geometry": {"type": "Point", "coordinates": [-118.395307, 34.183611]}, "properties": {}}, {"type": "Feature", "geometry": {"type": "Point", "coordinates": [-118.024547, 33.683866]}, "properties": {}}, {"type": "Feature", "geometry": {"type": "Point", "coordinates": [0.1171, 38.721123]}, "properties": {}}, {"type": "Feature", "geometry": {"type": "Point", "coordinates": [139.390625, 35.575306]}, "properties": {}}, {"type": "Feature", "geometry": {"type": "Point", "coordinates": [175.846525, -40.447922]}, "properties": {}}, {"type": "Feature", "geometry": {"type": "Point", "coordinates": [-122.255784, 37.872313]}, "properties": {}}, {"type": "Feature", "geometry": {"type": "Point", "coordinates": [145.326888, -37.916145]}, "properties": {}}, {"type": "Feature", "geometry": {"type": "Point", "coordinates": [-118.606597, 34.223247]}, "properties": {}}, {"type": "Feature", "geometry": {"type": "Point", "coordinates": [-121.79683, 37.71498]}, "properties": {}}, {"type": "Feature", "geometry": {"type": "Point", "coordinates": [-117.182525, 32.746966]}, "properties": {}}, {"type": "Feature", "geometry": {"type": "Point", "coordinates": [3.284322, 42.292826]}, "properties": {}}, {"type": "Feature", "geometry": {"type": "Point", "coordinates": [-118.024395, 34.108197]}, "properties": {}}, {"type": "Feature", "geometry": {"type": "Point", "coordinates": [-122.261337, 37.572445]}, "properties": {}}, {"type": "Feature", "geometry": {"type": "Point", "coordinates": [88.701829, 22.684035]}, "properties": {}}, {"type": "Feature", "geometry": {"type": "Point", "coordinates": [-122.245722, 37.819597]}, "properties": {}}, {"type": "Feature", "geometry": {"type": "Point", "coordinates": [-117.143586, 32.842042]}, "properties": {}}, {"type": "Feature", "geometry": {"type": "Point", "coordinates": [-122.838845, 38.059658]}, "properties": {}}, {"type": "Feature", "geometry": {"type": "Point", "coordinates": [30.504517, -29.037602]}, "properties": {}}, {"type": "Feature", "geometry": {"type": "Point", "coordinates": [32.672205, 26.144786]}, "properties": {}}, {"type": "Feature", "geometry": {"type": "Point", "coordinates": [-118.105319, 34.100425]}, "properties": {}}, {"type": "Feature", "geometry": {"type": "Point", "coordinates": [172.334403, -43.628007]}, "properties": {}}, {"type": "Feature", "geometry": {"type": "Point", "coordinates": [145.324705, -38.036943]}, "properties": {}}, {"type": "Feature", "geometry": {"type": "Point", "coordinates": [-7.714245, 41.108066]}, "properties": {}}, {"type": "Feature", "geometry": {"type": "Point", "coordinates": [-8.766735, 40.564746]}, "properties": {}}, {"type": "Feature", "geometry": {"type": "Point", "coordinates": [18.857561, -33.941622]}, "properties": {}}, {"type": "Feature", "geometry": {"type": "Point", "coordinates": [27.879079, -26.134538]}, "properties": {}}, {"type": "Feature", "geometry": {"type": "Point", "coordinates": [-118.574958, 34.274303]}, "properties": {}}, {"type": "Feature", "geometry": {"type": "Point", "coordinates": [-0.250976, 39.825269]}, "properties": {}}, {"type": "Feature", "geometry": {"type": "Point", "coordinates": [77.48773, 27.180612]}, "properties": {}}, {"type": "Feature", "geometry": {"type": "Point", "coordinates": [75.825858, 26.823862]}, "properties": {}}, {"type": "Feature", "geometry": {"type": "Point", "coordinates": [-122.500452, 37.71645]}, "properties": {}}, {"type": "Feature", "geometry": {"type": "Point", "coordinates": [172.677688, -34.427292]}, "properties": {}}, {"type": "Feature", "geometry": {"type": "Point", "coordinates": [12.497612, 41.892842]}, "properties": {}}, {"type": "Feature", "geometry": {"type": "Point", "coordinates": [142.798784, -38.408337]}, "properties": {}}, {"type": "Feature", "geometry": {"type": "Point", "coordinates": [-122.236668, 37.79403]}, "properties": {}}, {"type": "Feature", "geometry": {"type": "Point", "coordinates": [4.85, 52.35]}, "properties": {}}, {"type": "Feature", "geometry": {"type": "Point", "coordinates": [4.45, 52.15]}, "properties": {}}, {"type": "Feature", "geometry": {"type": "Point", "coordinates": [5.2, 52.05]}, "properties": {}}, {"type": "Feature", "geometry": {"type": "Point", "coordinates": [-16.880171, 32.803702]}, "properties": {}}, {"type": "Feature", "geometry": {"type": "Point", "coordinates": [2.213589, 41.463807]}, "properties": {}}, {"type": "Feature", "geometry": {"type": "Point", "coordinates": [-118.109892, 34.035204]}, "properties": {}}, {"type": "Feature", "geometry": {"type": "Point", "coordinates": [116.032081, -32.123005]}, "properties": {}}, {"type": "Feature", "geometry": {"type": "Point", "coordinates": [138.622938, -34.966512]}, "properties": {}}, {"type": "Feature", "geometry": {"type": "Point", "coordinates": [-9.14142, 38.576834]}, "properties": {}}, {"type": "Feature", "geometry": {"type": "Point", "coordinates": [-16.992288, 32.674975]}, "properties": {}}, {"type": "Feature", "geometry": {"type": "Point", "coordinates": [-122.235426, 37.85972]}, "properties": {}}, {"type": "Feature", "geometry": {"type": "Point", "coordinates": [-118.153416, 34.061602]}, "properties": {}}, {"type": "Feature", "geometry": {"type": "Point", "coordinates": [-9.152622, 38.671827]}, "properties": {}}, {"type": "Feature", "geometry": {"type": "Point", "coordinates": [145.270344, -38.095455]}, "properties": {}}, {"type": "Feature", "geometry": {"type": "Point", "coordinates": [-118.199441, 34.033821]}, "properties": {}}, {"type": "Feature", "geometry": {"type": "Point", "coordinates": [-121.656337, 39.724842]}, "properties": {}}, {"type": "Feature", "geometry": {"type": "Point", "coordinates": [-122.252007, 37.862934]}, "properties": {}}, {"type": "Feature", "geometry": {"type": "Point", "coordinates": [-0.868853, 41.672353]}, "properties": {}}, {"type": "Feature", "geometry": {"type": "Point", "coordinates": [144.328249, -38.229051]}, "properties": {}}, {"type": "Feature", "geometry": {"type": "Point", "coordinates": [-117.705675, 34.078153]}, "properties": {}}, {"type": "Feature", "geometry": {"type": "Point", "coordinates": [23.483508, -31.229325]}, "properties": {}}, {"type": "Feature", "geometry": {"type": "Point", "coordinates": [115.982767, -31.99557]}, "properties": {}}, {"type": "Feature", "geometry": {"type": "Point", "coordinates": [175.591146, -37.154801]}, "properties": {}}, {"type": "Feature", "geometry": {"type": "Point", "coordinates": [121.081503, 24.884425]}, "properties": {}}, {"type": "Feature", "geometry": {"type": "Point", "coordinates": [-6.082163, 39.943118]}, "properties": {}}, {"type": "Feature", "geometry": {"type": "Point", "coordinates": [-24.341586, 16.619847]}, "properties": {}}, {"type": "Feature", "geometry": {"type": "Point", "coordinates": [-112.365581, 33.66202]}, "properties": {}}, {"type": "Feature", "geometry": {"type": "Point", "coordinates": [-117.124558, 32.573855]}, "properties": {}}, {"type": "Feature", "geometry": {"type": "Point", "coordinates": [-3.11283, 36.781864]}, "properties": {}}]}