{"type": "FeatureCollection", "name": "Cupressus sempervirens", "features": [{"type": "Feature", "geometry": {"type": "Point", "coordinates": [5.354975, 43.229105]}, "properties": {}}, {"type": "Feature", "geometry": {"type": "Point", "coordinates": [5.329518, 43.716493]}, "properties": {}}, {"type": "Feature", "geometry": {"type": "Point", "coordinates": [-17.802229, 28.553455]}, "properties": {}}, {"type": "Feature", "geometry": {"type": "Point", "coordinates": [-5.922652, 35.78915]}, "properties": {}}, {"type": "Feature", "geometry": {"type": "Point", "coordinates": [-0.584738, 35.708592]}, "properties": {}}, {"type": "Feature", "geometry": {"type": "Point", "coordinates": [5.396546, 43.238375]}, "properties": {}}, {"type": "Feature", "geometry": {"type": "Point", "coordinates": [-0.654416, 35.694244]}, "properties": {}}, {"type": "Feature", "geometry": {"type": "Point", "coordinates": [14.484675, 45.3175]}, "properties": {}}, {"type": "Feature", "geometry": {"type": "Point", "coordinates": [34.729968, 31.673508]}, "properties": {}}, {"type": "Feature", "geometry": {"type": "Point", "coordinates": [34.663441, 31.694797]}, "properties": {}}, {"type": "Feature", "geometry": {"type": "Point", "coordinates": [34.709716, 31.696382]}, "properties": {}}, {"type": "Feature", "geometry": {"type": "Point", "coordinates": [34.859779, 31.813727]}, "properties": {}}, {"type": "Feature", "geometry": {"type": "Point", "coordinates": [34.660491, 31.697796]}, "properties": {}}, {"type": "Feature", "geometry": {"type": "Point", "coordinates": [35.140238, 32.505181]}, "properties": {}}, {"type": "Feature", "geometry": {"type": "Point", "coordinates": [34.683159, 31.703536]}, "properties": {}}, {"type": "Feature", "geometry": {"type": "Point", "coordinates": [34.668804, 31.690256]}, "properties": {}}, {"type": "Feature", "geometry": {"type": "Point", "coordinates": [34.812307, 31.570218]}, "properties": {}}, {"type": "Feature", "geometry": {"type": "Point", "coordinates": [34.686165, 31.709293]}, "properties": {}}, {"type": "Feature", "geometry": {"type": "Point", "coordinates": [35.090339, 31.774444]}, "properties": {}}, {"type": "Feature", "geometry": {"type": "Point", "coordinates": [-46.63426, -23.702934]}, "properties": {}}, {"type": "Feature", "geometry": {"type": "Point", "coordinates": [-0.49391, 38.890245]}, "properties": {}}, {"type": "Feature", "geometry": {"type": "Point", "coordinates": [15.275583, 37.075432]}, "properties": {}}, {"type": "Feature", "geometry": {"type": "Point", "coordinates": [23.341469, 37.679947]}, "properties": {}}, {"type": "Feature", "geometry": {"type": "Point", "coordinates": [24.896011, 37.500019]}, "properties": {}}, {"type": "Feature", "geometry": {"type": "Point", "coordinates": [22.499684, 38.479676]}, "properties": {}}, {"type": "Feature", "geometry": {"type": "Point", "coordinates": [32.75623, 34.86417]}, "properties": {}}, {"type": "Feature", "geometry": {"type": "Point", "coordinates": [-65.410737, -23.594413]}, "properties": {}}, {"type": "Feature", "geometry": {"type": "Point", "coordinates": [-1.751413, 42.625442]}, "properties": {}}, {"type": "Feature", "geometry": {"type": "Point", "coordinates": [24.941416, 37.486988]}, "properties": {}}, {"type": "Feature", "geometry": {"type": "Point", "coordinates": [32.419308, 34.924933]}, "properties": {}}, {"type": "Feature", "geometry": {"type": "Point", "coordinates": [32.468192, 34.8345]}, "properties": {}}, {"type": "Feature", "geometry": {"type": "Point", "coordinates": [28.088717, 36.091981]}, "properties": {}}, {"type": "Feature", "geometry": {"type": "Point", "coordinates": [-43.199106, -20.888271]}, "properties": {}}, {"type": "Feature", "geometry": {"type": "Point", "coordinates": [23.727062, 37.97393]}, "properties": {}}, {"type": "Feature", "geometry": {"type": "Point", "coordinates": [32.405692, 34.938217]}, "properties": {}}, {"type": "Feature", "geometry": {"type": "Point", "coordinates": [15.275162, 37.075413]}, "properties": {}}, {"type": "Feature", "geometry": {"type": "Point", "coordinates": [-1.916798, 43.047486]}, "properties": {}}, {"type": "Feature", "geometry": {"type": "Point", "coordinates": [32.413492, 34.758913]}, "properties": {}}, {"type": "Feature", "geometry": {"type": "Point", "coordinates": [32.725197, 34.882692]}, "properties": {}}, {"type": "Feature", "geometry": {"type": "Point", "coordinates": [-52.228863, -29.42945]}, "properties": {}}, {"type": "Feature", "geometry": {"type": "Point", "coordinates": [-110.73349, 32.609413]}, "properties": {}}, {"type": "Feature", "geometry": {"type": "Point", "coordinates": [32.432688, 34.911545]}, "properties": {}}, {"type": "Feature", "geometry": {"type": "Point", "coordinates": [3.604172, 43.672042]}, "properties": {}}, {"type": "Feature", "geometry": {"type": "Point", "coordinates": [24.99279, 35.157559]}, "properties": {}}, {"type": "Feature", "geometry": {"type": "Point", "coordinates": [-78.662581, 35.780906]}, "properties": {}}, {"type": "Feature", "geometry": {"type": "Point", "coordinates": [36.227152, 34.979183]}, "properties": {}}, {"type": "Feature", "geometry": {"type": "Point", "coordinates": [23.721725, 37.972314]}, "properties": {}}, {"type": "Feature", "geometry": {"type": "Point", "coordinates": [2.911272, 43.161704]}, "properties": {}}, {"type": "Feature", "geometry": {"type": "Point", "coordinates": [31.993188, 36.531945]}, "properties": {}}, {"type": "Feature", "geometry": {"type": "Point", "coordinates": [3.868333, 43.641205]}, "properties": {}}, {"type": "Feature", "geometry": {"type": "Point", "coordinates": [29.649034, 36.194691]}, "properties": {}}, {"type": "Feature", "geometry": {"type": "Point", "coordinates": [-1.139418, 37.928126]}, "properties": {}}, {"type": "Feature", "geometry": {"type": "Point", "coordinates": [-72.410477, -36.755217]}, "properties": {}}, {"type": "Feature", "geometry": {"type": "Point", "coordinates": [4.830056, 44.167442]}, "properties": {}}, {"type": "Feature", "geometry": {"type": "Point", "coordinates": [-2.993025, 35.221183]}, "properties": {}}, {"type": "Feature", "geometry": {"type": "Point", "coordinates": [35.298666, 33.080579]}, "properties": {}}, {"type": "Feature", "geometry": {"type": "Point", "coordinates": [35.299124, 33.078279]}, "properties": {}}, {"type": "Feature", "geometry": {"type": "Point", "coordinates": [34.741279, 31.831162]}, "properties": {}}, {"type": "Feature", "geometry": {"type": "Point", "coordinates": [35.01084, 32.786617]}, "properties": {}}, {"type": "Feature", "geometry": {"type": "Point", "coordinates": [35.249905, 33.065656]}, "properties": {}}, {"type": "Feature", "geometry": {"type": "Point", "coordinates": [35.376526, 33.046512]}, "properties": {}}, {"type": "Feature", "geometry": {"type": "Point", "coordinates": [35.269284, 33.075079]}, "properties": {}}, {"type": "Feature", "geometry": {"type": "Point", "coordinates": [35.271845, 33.076638]}, "properties": {}}, {"type": "Feature", "geometry": {"type": "Point", "coordinates": [35.160383, 31.798142]}, "properties": {}}, {"type": "Feature", "geometry": {"type": "Point", "coordinates": [-2.414891, 43.032756]}, "properties": {}}, {"type": "Feature", "geometry": {"type": "Point", "coordinates": [29.428634, 40.772274]}, "properties": {}}, {"type": "Feature", "geometry": {"type": "Point", "coordinates": [3.912258, 43.564684]}, "properties": {}}, {"type": "Feature", "geometry": {"type": "Point", "coordinates": [15.154362, 44.094569]}, "properties": {}}, {"type": "Feature", "geometry": {"type": "Point", "coordinates": [-2.414788, 43.032682]}, "properties": {}}, {"type": "Feature", "geometry": {"type": "Point", "coordinates": [2.702588, 48.898071]}, "properties": {}}, {"type": "Feature", "geometry": {"type": "Point", "coordinates": [13.70524, 42.860908]}, "properties": {}}, {"type": "Feature", "geometry": {"type": "Point", "coordinates": [-16.49525, 28.353892]}, "properties": {}}, {"type": "Feature", "geometry": {"type": "Point", "coordinates": [-78.588277, 35.835197]}, "properties": {}}, {"type": "Feature", "geometry": {"type": "Point", "coordinates": [2.011522, 41.563298]}, "properties": {}}, {"type": "Feature", "geometry": {"type": "Point", "coordinates": [3.869642, 43.643383]}, "properties": {}}, {"type": "Feature", "geometry": {"type": "Point", "coordinates": [14.514785, 41.988565]}, "properties": {}}, {"type": "Feature", "geometry": {"type": "Point", "coordinates": [31.680033, 36.65979]}, "properties": {}}, {"type": "Feature", "geometry": {"type": "Point", "coordinates": [-2.414833, 43.032733]}, "properties": {}}, {"type": "Feature", "geometry": {"type": "Point", "coordinates": [31.99323, 36.535688]}, "properties": {}}, {"type": "Feature", "geometry": {"type": "Point", "coordinates": [-42.496937, -22.160353]}, "properties": {}}, {"type": "Feature", "geometry": {"type": "Point", "coordinates": [8.844995, 44.44281]}, "properties": {}}, {"type": "Feature", "geometry": {"type": "Point", "coordinates": [14.51722, 41.98898]}, "properties": {}}, {"type": "Feature", "geometry": {"type": "Point", "coordinates": [6.22536, 43.301725]}, "properties": {}}, {"type": "Feature", "geometry": {"type": "Point", "coordinates": [6.124224, 43.124203]}, "properties": {}}, {"type": "Feature", "geometry": {"type": "Point", "coordinates": [29.095529, 41.17846]}, "properties": {}}, {"type": "Feature", "geometry": {"type": "Point", "coordinates": [4.138703, 44.099953]}, "properties": {}}, {"type": "Feature", "geometry": {"type": "Point", "coordinates": [4.648378, 43.804253]}, "properties": {}}, {"type": "Feature", "geometry": {"type": "Point", "coordinates": [4.575821, 45.487088]}, "properties": {}}, {"type": "Feature", "geometry": {"type": "Point", "coordinates": [-75.052145, 6.156445]}, "properties": {}}, {"type": "Feature", "geometry": {"type": "Point", "coordinates": [11.65683, 45.750297]}, "properties": {}}, {"type": "Feature", "geometry": {"type": "Point", "coordinates": [3.861142, 43.633597]}, "properties": {}}, {"type": "Feature", "geometry": {"type": "Point", "coordinates": [12.315373, 37.928297]}, "properties": {}}, {"type": "Feature", "geometry": {"type": "Point", "coordinates": [32.342871, 34.923779]}, "properties": {}}, {"type": "Feature", "geometry": {"type": "Point", "coordinates": [-15.584497, 27.961328]}, "properties": {}}, {"type": "Feature", "geometry": {"type": "Point", "coordinates": [5.51303, 51.01205]}, "properties": {}}, {"type": "Feature", "geometry": {"type": "Point", "coordinates": [32.405624, 34.774723]}, "properties": {}}, {"type": "Feature", "geometry": {"type": "Point", "coordinates": [9.700465, 44.127864]}, "properties": {}}, {"type": "Feature", "geometry": {"type": "Point", "coordinates": [32.405743, 34.775478]}, "properties": {}}, {"type": "Feature", "geometry": {"type": "Point", "coordinates": [-1.541813, 37.861782]}, "properties": {}}, {"type": "Feature", "geometry": {"type": "Point", "coordinates": [29.091776, 41.177174]}, "properties": {}}, {"type": "Feature", "geometry": {"type": "Point", "coordinates": [3.867778, 43.642813]}, "properties": {}}, {"type": "Feature", "geometry": {"type": "Point", "coordinates": [3.869505, 43.643142]}, "properties": {}}, {"type": "Feature", "geometry": {"type": "Point", "coordinates": [3.717996, 43.566184]}, "properties": {}}, {"type": "Feature", "geometry": {"type": "Point", "coordinates": [34.814666, 32.167906]}, "properties": {}}, {"type": "Feature", "geometry": {"type": "Point", "coordinates": [28.140592, 36.259205]}, "properties": {}}, {"type": "Feature", "geometry": {"type": "Point", "coordinates": [5.448467, 43.677992]}, "properties": {}}, {"type": "Feature", "geometry": {"type": "Point", "coordinates": [-7.820155, 31.232937]}, "properties": {}}, {"type": "Feature", "geometry": {"type": "Point", "coordinates": [29.418208, 40.769987]}, "properties": {}}, {"type": "Feature", "geometry": {"type": "Point", "coordinates": [16.9908, 43.350877]}, "properties": {}}, {"type": "Feature", "geometry": {"type": "Point", "coordinates": [26.842045, 37.695068]}, "properties": {}}, {"type": "Feature", "geometry": {"type": "Point", "coordinates": [44.7122, 41.731588]}, "properties": {}}, {"type": "Feature", "geometry": {"type": "Point", "coordinates": [14.482193, 35.90408]}, "properties": {}}, {"type": "Feature", "geometry": {"type": "Point", "coordinates": [6.541277, 43.272147]}, "properties": {}}, {"type": "Feature", "geometry": {"type": "Point", "coordinates": [145.137389, -37.891945]}, "properties": {}}, {"type": "Feature", "geometry": {"type": "Point", "coordinates": [29.162041, 36.522458]}, "properties": {}}, {"type": "Feature", "geometry": {"type": "Point", "coordinates": [14.4825, 35.904278]}, "properties": {}}, {"type": "Feature", "geometry": {"type": "Point", "coordinates": [-72.27198, -36.755615]}, "properties": {}}, {"type": "Feature", "geometry": {"type": "Point", "coordinates": [3.032227, 43.381625]}, "properties": {}}, {"type": "Feature", "geometry": {"type": "Point", "coordinates": [33.36673, 35.331527]}, "properties": {}}, {"type": "Feature", "geometry": {"type": "Point", "coordinates": [23.155457, 37.629195]}, "properties": {}}, {"type": "Feature", "geometry": {"type": "Point", "coordinates": [14.482524, 35.904329]}, "properties": {}}, {"type": "Feature", "geometry": {"type": "Point", "coordinates": [-1.33531, 38.482111]}, "properties": {}}, {"type": "Feature", "geometry": {"type": "Point", "coordinates": [15.237571, 44.11272]}, "properties": {}}, {"type": "Feature", "geometry": {"type": "Point", "coordinates": [26.860849, 37.721169]}, "properties": {}}, {"type": "Feature", "geometry": {"type": "Point", "coordinates": [5.697522, 35.373386]}, "properties": {}}, {"type": "Feature", "geometry": {"type": "Point", "coordinates": [14.482541, 35.904371]}, "properties": {}}, {"type": "Feature", "geometry": {"type": "Point", "coordinates": [14.48257, 35.904346]}, "properties": {}}, {"type": "Feature", "geometry": {"type": "Point", "coordinates": [14.482419, 35.904352]}, "properties": {}}, {"type": "Feature", "geometry": {"type": "Point", "coordinates": [151.284856, -33.807422]}, "properties": {}}, {"type": "Feature", "geometry": {"type": "Point", "coordinates": [23.726996, 37.971218]}, "properties": {}}, {"type": "Feature", "geometry": {"type": "Point", "coordinates": [14.575417, 45.025944]}, "properties": {}}, {"type": "Feature", "geometry": {"type": "Point", "coordinates": [17.463581, 43.021009]}, "properties": {}}, {"type": "Feature", "geometry": {"type": "Point", "coordinates": [3.871257, 43.635197]}, "properties": {}}, {"type": "Feature", "geometry": {"type": "Point", "coordinates": [16.648225, 43.562287]}, "properties": {}}, {"type": "Feature", "geometry": {"type": "Point", "coordinates": [14.564278, 45.024411]}, "properties": {}}, {"type": "Feature", "geometry": {"type": "Point", "coordinates": [34.962384, 32.617806]}, "properties": {}}, {"type": "Feature", "geometry": {"type": "Point", "coordinates": [34.965778, 32.607515]}, "properties": {}}, {"type": "Feature", "geometry": {"type": "Point", "coordinates": [34.962075, 32.609942]}, "properties": {}}, {"type": "Feature", "geometry": {"type": "Point", "coordinates": [6.627252, 50.704868]}, "properties": {}}, {"type": "Feature", "geometry": {"type": "Point", "coordinates": [16.429848, 43.507305]}, "properties": {}}, {"type": "Feature", "geometry": {"type": "Point", "coordinates": [24.18881, 35.427788]}, "properties": {}}, {"type": "Feature", "geometry": {"type": "Point", "coordinates": [18.114861, 42.632976]}, "properties": {}}, {"type": "Feature", "geometry": {"type": "Point", "coordinates": [18.399044, 42.506351]}, "properties": {}}, {"type": "Feature", "geometry": {"type": "Point", "coordinates": [34.881882, 31.79004]}, "properties": {}}, {"type": "Feature", "geometry": {"type": "Point", "coordinates": [34.880402, 31.793544]}, "properties": {}}, {"type": "Feature", "geometry": {"type": "Point", "coordinates": [34.869845, 31.619551]}, "properties": {}}, {"type": "Feature", "geometry": {"type": "Point", "coordinates": [34.967719, 32.138039]}, "properties": {}}, {"type": "Feature", "geometry": {"type": "Point", "coordinates": [2.740173, 43.365383]}, "properties": {}}, {"type": "Feature", "geometry": {"type": "Point", "coordinates": [23.792388, 37.961382]}, "properties": {}}, {"type": "Feature", "geometry": {"type": "Point", "coordinates": [28.907437, -29.250505]}, "properties": {}}, {"type": "Feature", "geometry": {"type": "Point", "coordinates": [18.775253, 42.403525]}, "properties": {}}, {"type": "Feature", "geometry": {"type": "Point", "coordinates": [-1.660554, 42.797525]}, "properties": {}}, {"type": "Feature", "geometry": {"type": "Point", "coordinates": [29.047867, 41.015792]}, "properties": {}}, {"type": "Feature", "geometry": {"type": "Point", "coordinates": [-79.010445, -2.900705]}, "properties": {}}, {"type": "Feature", "geometry": {"type": "Point", "coordinates": [5.396639, 43.279406]}, "properties": {}}, {"type": "Feature", "geometry": {"type": "Point", "coordinates": [18.210144, 42.582104]}, "properties": {}}, {"type": "Feature", "geometry": {"type": "Point", "coordinates": [34.880221, 31.794013]}, "properties": {}}, {"type": "Feature", "geometry": {"type": "Point", "coordinates": [34.872481, 31.77317]}, "properties": {}}, {"type": "Feature", "geometry": {"type": "Point", "coordinates": [34.872285, 31.771924]}, "properties": {}}, {"type": "Feature", "geometry": {"type": "Point", "coordinates": [34.880337, 31.793815]}, "properties": {}}, {"type": "Feature", "geometry": {"type": "Point", "coordinates": [5.279142, 43.38005]}, "properties": {}}, {"type": "Feature", "geometry": {"type": "Point", "coordinates": [5.368037, 43.236364]}, "properties": {}}, {"type": "Feature", "geometry": {"type": "Point", "coordinates": [5.375007, 43.303117]}, "properties": {}}, {"type": "Feature", "geometry": {"type": "Point", "coordinates": [-106.733656, 32.307233]}, "properties": {}}, {"type": "Feature", "geometry": {"type": "Point", "coordinates": [172.455892, -43.649265]}, "properties": {}}, {"type": "Feature", "geometry": {"type": "Point", "coordinates": [5.443085, 43.233172]}, "properties": {}}, {"type": "Feature", "geometry": {"type": "Point", "coordinates": [5.386842, 43.340346]}, "properties": {}}, {"type": "Feature", "geometry": {"type": "Point", "coordinates": [5.431641, 43.230955]}, "properties": {}}, {"type": "Feature", "geometry": {"type": "Point", "coordinates": [13.829172, 44.902011]}, "properties": {}}, {"type": "Feature", "geometry": {"type": "Point", "coordinates": [17.822765, 43.338118]}, "properties": {}}, {"type": "Feature", "geometry": {"type": "Point", "coordinates": [5.424286, 43.248714]}, "properties": {}}, {"type": "Feature", "geometry": {"type": "Point", "coordinates": [6.137831, 43.839242]}, "properties": {}}, {"type": "Feature", "geometry": {"type": "Point", "coordinates": [23.924386, 35.331281]}, "properties": {}}, {"type": "Feature", "geometry": {"type": "Point", "coordinates": [3.844417, 43.648084]}, "properties": {}}, {"type": "Feature", "geometry": {"type": "Point", "coordinates": [14.393425, 44.655505]}, "properties": {}}, {"type": "Feature", "geometry": {"type": "Point", "coordinates": [15.970734, 43.521824]}, "properties": {}}, {"type": "Feature", "geometry": {"type": "Point", "coordinates": [5.632949, 43.783966]}, "properties": {}}, {"type": "Feature", "geometry": {"type": "Point", "coordinates": [35.098177, 31.341868]}, "properties": {}}, {"type": "Feature", "geometry": {"type": "Point", "coordinates": [34.965778, 32.607488]}, "properties": {}}, {"type": "Feature", "geometry": {"type": "Point", "coordinates": [34.962384, 32.609943]}, "properties": {}}, {"type": "Feature", "geometry": {"type": "Point", "coordinates": [3.949187, 43.644459]}, "properties": {}}, {"type": "Feature", "geometry": {"type": "Point", "coordinates": [32.651677, 39.885639]}, "properties": {}}, {"type": "Feature", "geometry": {"type": "Point", "coordinates": [19.09437, 42.095331]}, "properties": {}}, {"type": "Feature", "geometry": {"type": "Point", "coordinates": [17.731452, 43.134415]}, "properties": {}}, {"type": "Feature", "geometry": {"type": "Point", "coordinates": [18.596699, 42.435432]}, "properties": {}}, {"type": "Feature", "geometry": {"type": "Point", "coordinates": [35.005229, 32.592561]}, "properties": {}}, {"type": "Feature", "geometry": {"type": "Point", "coordinates": [35.0054, 32.592534]}, "properties": {}}, {"type": "Feature", "geometry": {"type": "Point", "coordinates": [35.077578, 32.726785]}, "properties": {}}, {"type": "Feature", "geometry": {"type": "Point", "coordinates": [35.018709, 32.590174]}, "properties": {}}, {"type": "Feature", "geometry": {"type": "Point", "coordinates": [34.160575, 44.486983]}, "properties": {}}, {"type": "Feature", "geometry": {"type": "Point", "coordinates": [-7.822968, 31.231076]}, "properties": {}}, {"type": "Feature", "geometry": {"type": "Point", "coordinates": [-5.272051, 35.170396]}, "properties": {}}, {"type": "Feature", "geometry": {"type": "Point", "coordinates": [7.279048, 43.718725]}, "properties": {}}, {"type": "Feature", "geometry": {"type": "Point", "coordinates": [12.449207, 41.925249]}, "properties": {}}, {"type": "Feature", "geometry": {"type": "Point", "coordinates": [-8.21516, 38.011438]}, "properties": {}}, {"type": "Feature", "geometry": {"type": "Point", "coordinates": [7.096897, 43.628456]}, "properties": {}}, {"type": "Feature", "geometry": {"type": "Point", "coordinates": [2.495097, 39.524435]}, "properties": {}}, {"type": "Feature", "geometry": {"type": "Point", "coordinates": [-0.984237, 37.612417]}, "properties": {}}, {"type": "Feature", "geometry": {"type": "Point", "coordinates": [2.877495, 41.890412]}, "properties": {}}, {"type": "Feature", "geometry": {"type": "Point", "coordinates": [4.76481, 45.735724]}, "properties": {}}, {"type": "Feature", "geometry": {"type": "Point", "coordinates": [4.763331, 45.740131]}, "properties": {}}, {"type": "Feature", "geometry": {"type": "Point", "coordinates": [2.809636, 41.738764]}, "properties": {}}, {"type": "Feature", "geometry": {"type": "Point", "coordinates": [4.753295, 43.536744]}, "properties": {}}, {"type": "Feature", "geometry": {"type": "Point", "coordinates": [-2.144526, 40.07545]}, "properties": {}}, {"type": "Feature", "geometry": {"type": "Point", "coordinates": [-9.177165, 38.733087]}, "properties": {}}, {"type": "Feature", "geometry": {"type": "Point", "coordinates": [-0.059645, 38.897129]}, "properties": {}}, {"type": "Feature", "geometry": {"type": "Point", "coordinates": [2.456597, 48.821957]}, "properties": {}}, {"type": "Feature", "geometry": {"type": "Point", "coordinates": [-17.806482, 28.637949]}, "properties": {}}, {"type": "Feature", "geometry": {"type": "Point", "coordinates": [35.148473, 31.795973]}, "properties": {}}, {"type": "Feature", "geometry": {"type": "Point", "coordinates": [35.103506, 33.051459]}, "properties": {}}, {"type": "Feature", "geometry": {"type": "Point", "coordinates": [35.105077, 33.044995]}, "properties": {}}, {"type": "Feature", "geometry": {"type": "Point", "coordinates": [35.632839, 33.165921]}, "properties": {}}, {"type": "Feature", "geometry": {"type": "Point", "coordinates": [35.104672, 31.757005]}, "properties": {}}, {"type": "Feature", "geometry": {"type": "Point", "coordinates": [35.151151, 31.802819]}, "properties": {}}, {"type": "Feature", "geometry": {"type": "Point", "coordinates": [35.105316, 31.756879]}, "properties": {}}, {"type": "Feature", "geometry": {"type": "Point", "coordinates": [35.151436, 31.802639]}, "properties": {}}, {"type": "Feature", "geometry": {"type": "Point", "coordinates": [35.161417, 31.798359]}, "properties": {}}, {"type": "Feature", "geometry": {"type": "Point", "coordinates": [35.172952, 32.590686]}, "properties": {}}, {"type": "Feature", "geometry": {"type": "Point", "coordinates": [35.15113, 31.80281]}, "properties": {}}, {"type": "Feature", "geometry": {"type": "Point", "coordinates": [150.423616, -33.71454]}, "properties": {}}, {"type": "Feature", "geometry": {"type": "Point", "coordinates": [-5.552739, 34.074788]}, "properties": {}}, {"type": "Feature", "geometry": {"type": "Point", "coordinates": [-0.728895, 52.670539]}, "properties": {}}, {"type": "Feature", "geometry": {"type": "Point", "coordinates": [3.918545, 43.65879]}, "properties": {}}, {"type": "Feature", "geometry": {"type": "Point", "coordinates": [-1.364663, 42.331037]}, "properties": {}}, {"type": "Feature", "geometry": {"type": "Point", "coordinates": [32.35169, 34.92649]}, "properties": {}}, {"type": "Feature", "geometry": {"type": "Point", "coordinates": [-70.833282, -33.196724]}, "properties": {}}, {"type": "Feature", "geometry": {"type": "Point", "coordinates": [-5.552642, 34.071997]}, "properties": {}}, {"type": "Feature", "geometry": {"type": "Point", "coordinates": [32.345055, 34.924052]}, "properties": {}}, {"type": "Feature", "geometry": {"type": "Point", "coordinates": [33.324759, 35.206103]}, "properties": {}}, {"type": "Feature", "geometry": {"type": "Point", "coordinates": [-3.608249, 37.193406]}, "properties": {}}, {"type": "Feature", "geometry": {"type": "Point", "coordinates": [-3.729207, 40.403137]}, "properties": {}}, {"type": "Feature", "geometry": {"type": "Point", "coordinates": [8.825378, 45.836048]}, "properties": {}}, {"type": "Feature", "geometry": {"type": "Point", "coordinates": [-3.659932, 40.423852]}, "properties": {}}, {"type": "Feature", "geometry": {"type": "Point", "coordinates": [-0.600261, 38.555702]}, "properties": {}}, {"type": "Feature", "geometry": {"type": "Point", "coordinates": [2.392841, 48.786067]}, "properties": {}}, {"type": "Feature", "geometry": {"type": "Point", "coordinates": [-4.131502, 40.58496]}, "properties": {}}, {"type": "Feature", "geometry": {"type": "Point", "coordinates": [11.110453, 46.112403]}, "properties": {}}, {"type": "Feature", "geometry": {"type": "Point", "coordinates": [5.167726, 44.053544]}, "properties": {}}, {"type": "Feature", "geometry": {"type": "Point", "coordinates": [33.203447, 34.909867]}, "properties": {}}, {"type": "Feature", "geometry": {"type": "Point", "coordinates": [2.444756, 48.837228]}, "properties": {}}, {"type": "Feature", "geometry": {"type": "Point", "coordinates": [3.029799, 42.932384]}, "properties": {}}, {"type": "Feature", "geometry": {"type": "Point", "coordinates": [-3.75037, 40.408237]}, "properties": {}}, {"type": "Feature", "geometry": {"type": "Point", "coordinates": [0.209658, 44.596805]}, "properties": {}}, {"type": "Feature", "geometry": {"type": "Point", "coordinates": [-2.140179, 40.074265]}, "properties": {}}, {"type": "Feature", "geometry": {"type": "Point", "coordinates": [16.253003, 38.919299]}, "properties": {}}, {"type": "Feature", "geometry": {"type": "Point", "coordinates": [2.444756, 48.837215]}, "properties": {}}, {"type": "Feature", "geometry": {"type": "Point", "coordinates": [23.724908, 37.971111]}, "properties": {}}, {"type": "Feature", "geometry": {"type": "Point", "coordinates": [23.728936, 37.969728]}, "properties": {}}, {"type": "Feature", "geometry": {"type": "Point", "coordinates": [23.725822, 37.972994]}, "properties": {}}, {"type": "Feature", "geometry": {"type": "Point", "coordinates": [29.123383, 37.926327]}, "properties": {}}, {"type": "Feature", "geometry": {"type": "Point", "coordinates": [28.095236, 36.404072]}, "properties": {}}, {"type": "Feature", "geometry": {"type": "Point", "coordinates": [29.103428, 37.961201]}, "properties": {}}, {"type": "Feature", "geometry": {"type": "Point", "coordinates": [35.124511, 31.725328]}, "properties": {}}, {"type": "Feature", "geometry": {"type": "Point", "coordinates": [151.102319, -33.692088]}, "properties": {}}, {"type": "Feature", "geometry": {"type": "Point", "coordinates": [4.048441, 36.700134]}, "properties": {}}, {"type": "Feature", "geometry": {"type": "Point", "coordinates": [4.080885, 43.729994]}, "properties": {}}, {"type": "Feature", "geometry": {"type": "Point", "coordinates": [15.081093, 44.127474]}, "properties": {}}, {"type": "Feature", "geometry": {"type": "Point", "coordinates": [40.237325, 43.350804]}, "properties": {}}, {"type": "Feature", "geometry": {"type": "Point", "coordinates": [15.072554, 44.134282]}, "properties": {}}, {"type": "Feature", "geometry": {"type": "Point", "coordinates": [13.894165, 44.816873]}, "properties": {}}, {"type": "Feature", "geometry": {"type": "Point", "coordinates": [-1.299697, 42.652266]}, "properties": {}}, {"type": "Feature", "geometry": {"type": "Point", "coordinates": [-0.757538, 37.867845]}, "properties": {}}, {"type": "Feature", "geometry": {"type": "Point", "coordinates": [35.163802, 32.919931]}, "properties": {}}, {"type": "Feature", "geometry": {"type": "Point", "coordinates": [145.067903, -37.747427]}, "properties": {}}, {"type": "Feature", "geometry": {"type": "Point", "coordinates": [14.438305, 35.903683]}, "properties": {}}, {"type": "Feature", "geometry": {"type": "Point", "coordinates": [14.43853, 35.90461]}, "properties": {}}, {"type": "Feature", "geometry": {"type": "Point", "coordinates": [19.126261, 42.089632]}, "properties": {}}, {"type": "Feature", "geometry": {"type": "Point", "coordinates": [33.602351, 35.321832]}, "properties": {}}, {"type": "Feature", "geometry": {"type": "Point", "coordinates": [33.268587, 35.304087]}, "properties": {}}, {"type": "Feature", "geometry": {"type": "Point", "coordinates": [4.532347, 43.946527]}, "properties": {}}, {"type": "Feature", "geometry": {"type": "Point", "coordinates": [16.611023, 43.187171]}, "properties": {}}, {"type": "Feature", "geometry": {"type": "Point", "coordinates": [20.654321, 38.404916]}, "properties": {}}, {"type": "Feature", "geometry": {"type": "Point", "coordinates": [33.411553, 35.285942]}, "properties": {}}, {"type": "Feature", "geometry": {"type": "Point", "coordinates": [16.611163, 43.187182]}, "properties": {}}, {"type": "Feature", "geometry": {"type": "Point", "coordinates": [16.595899, 43.144917]}, "properties": {}}, {"type": "Feature", "geometry": {"type": "Point", "coordinates": [22.233744, 36.891617]}, "properties": {}}, {"type": "Feature", "geometry": {"type": "Point", "coordinates": [19.747477, 39.679733]}, "properties": {}}, {"type": "Feature", "geometry": {"type": "Point", "coordinates": [3.88555, 43.630225]}, "properties": {}}, {"type": "Feature", "geometry": {"type": "Point", "coordinates": [35.322545, 36.997017]}, "properties": {}}, {"type": "Feature", "geometry": {"type": "Point", "coordinates": [27.070189, 38.469313]}, "properties": {}}, {"type": "Feature", "geometry": {"type": "Point", "coordinates": [-3.779653, 40.292428]}, "properties": {}}, {"type": "Feature", "geometry": {"type": "Point", "coordinates": [1.492723, 43.655882]}, "properties": {}}, {"type": "Feature", "geometry": {"type": "Point", "coordinates": [8.804136, 46.171376]}, "properties": {}}, {"type": "Feature", "geometry": {"type": "Point", "coordinates": [35.322545, 36.997017]}, "properties": {}}, {"type": "Feature", "geometry": {"type": "Point", "coordinates": [3.867284, 43.526975]}, "properties": {}}, {"type": "Feature", "geometry": {"type": "Point", "coordinates": [-0.56446, 39.604037]}, "properties": {}}, {"type": "Feature", "geometry": {"type": "Point", "coordinates": [32.344752, 35.055641]}, "properties": {}}, {"type": "Feature", "geometry": {"type": "Point", "coordinates": [9.628265, 40.993819]}, "properties": {}}, {"type": "Feature", "geometry": {"type": "Point", "coordinates": [-0.607928, 38.829073]}, "properties": {}}, {"type": "Feature", "geometry": {"type": "Point", "coordinates": [33.005199, 34.710426]}, "properties": {}}, {"type": "Feature", "geometry": {"type": "Point", "coordinates": [7.952708, 43.907012]}, "properties": {}}, {"type": "Feature", "geometry": {"type": "Point", "coordinates": [2.140049, 41.401936]}, "properties": {}}, {"type": "Feature", "geometry": {"type": "Point", "coordinates": [7.384332, 44.779755]}, "properties": {}}, {"type": "Feature", "geometry": {"type": "Point", "coordinates": [18.085772, 42.659313]}, "properties": {}}, {"type": "Feature", "geometry": {"type": "Point", "coordinates": [23.833748, 38.005934]}, "properties": {}}, {"type": "Feature", "geometry": {"type": "Point", "coordinates": [29.161889, 36.521696]}, "properties": {}}, {"type": "Feature", "geometry": {"type": "Point", "coordinates": [29.144119, 36.441022]}, "properties": {}}, {"type": "Feature", "geometry": {"type": "Point", "coordinates": [34.837836, 32.126998]}, "properties": {}}, {"type": "Feature", "geometry": {"type": "Point", "coordinates": [35.12694, 31.798406]}, "properties": {}}, {"type": "Feature", "geometry": {"type": "Point", "coordinates": [34.830138, 31.893644]}, "properties": {}}]}