{
    "type": "FeatureCollection",
    "name": "Arundo donax",
    "features": [
        {
            "type": "Feature",
            "geometry": {
                "type": "Point",
                "coordinates": [
                    -17.789206,
                    28.841251
                ]
            },
            "properties": {}
        },
        {
            "type": "Feature",
            "geometry": {
                "type": "Point",
                "coordinates": [
                    -17.781607,
                    28.809883
                ]
            },
            "properties": {}
        },
        {
            "type": "Feature",
            "geometry": {
                "type": "Point",
                "coordinates": [
                    -97.351354,
                    27.673517
                ]
            },
            "properties": {}
        },
        {
            "type": "Feature",
            "geometry": {
                "type": "Point",
                "coordinates": [
                    -98.43972,
                    29.408069
                ]
            },
            "properties": {}
        },
        {
            "type": "Feature",
            "geometry": {
                "type": "Point",
                "coordinates": [
                    2.047661,
                    41.347411
                ]
            },
            "properties": {}
        },
        {
            "type": "Feature",
            "geometry": {
                "type": "Point",
                "coordinates": [
                    -1.845344,
                    39.00634
                ]
            },
            "properties": {}
        },
        {
            "type": "Feature",
            "geometry": {
                "type": "Point",
                "coordinates": [
                    -3.77889,
                    37.79193
                ]
            },
            "properties": {}
        },
        {
            "type": "Feature",
            "geometry": {
                "type": "Point",
                "coordinates": [
                    3.008694,
                    43.201464
                ]
            },
            "properties": {}
        },
        {
            "type": "Feature",
            "geometry": {
                "type": "Point",
                "coordinates": [
                    -8.462398,
                    39.386236
                ]
            },
            "properties": {}
        },
        {
            "type": "Feature",
            "geometry": {
                "type": "Point",
                "coordinates": [
                    -97.697433,
                    30.244633
                ]
            },
            "properties": {}
        },
        {
            "type": "Feature",
            "geometry": {
                "type": "Point",
                "coordinates": [
                    2.068457,
                    41.345826
                ]
            },
            "properties": {}
        },
        {
            "type": "Feature",
            "geometry": {
                "type": "Point",
                "coordinates": [
                    -8.796706,
                    40.452446
                ]
            },
            "properties": {}
        },
        {
            "type": "Feature",
            "geometry": {
                "type": "Point",
                "coordinates": [
                    138.565045,
                    -35.02925
                ]
            },
            "properties": {}
        },
        {
            "type": "Feature",
            "geometry": {
                "type": "Point",
                "coordinates": [
                    -8.262675,
                    40.285386
                ]
            },
            "properties": {}
        },
        {
            "type": "Feature",
            "geometry": {
                "type": "Point",
                "coordinates": [
                    -9.424315,
                    38.997358
                ]
            },
            "properties": {}
        },
        {
            "type": "Feature",
            "geometry": {
                "type": "Point",
                "coordinates": [
                    5.484469,
                    43.478366
                ]
            },
            "properties": {}
        },
        {
            "type": "Feature",
            "geometry": {
                "type": "Point",
                "coordinates": [
                    -97.161758,
                    32.79385
                ]
            },
            "properties": {}
        },
        {
            "type": "Feature",
            "geometry": {
                "type": "Point",
                "coordinates": [
                    138.564032,
                    -35.029785
                ]
            },
            "properties": {}
        },
        {
            "type": "Feature",
            "geometry": {
                "type": "Point",
                "coordinates": [
                    -97.596397,
                    30.474909
                ]
            },
            "properties": {}
        },
        {
            "type": "Feature",
            "geometry": {
                "type": "Point",
                "coordinates": [
                    2.135966,
                    41.415342
                ]
            },
            "properties": {}
        },
        {
            "type": "Feature",
            "geometry": {
                "type": "Point",
                "coordinates": [
                    -98.819503,
                    29.966575
                ]
            },
            "properties": {}
        },
        {
            "type": "Feature",
            "geometry": {
                "type": "Point",
                "coordinates": [
                    -16.192219,
                    28.50648
                ]
            },
            "properties": {}
        },
        {
            "type": "Feature",
            "geometry": {
                "type": "Point",
                "coordinates": [
                    -7.748323,
                    40.993786
                ]
            },
            "properties": {}
        },
        {
            "type": "Feature",
            "geometry": {
                "type": "Point",
                "coordinates": [
                    0.844515,
                    40.722481
                ]
            },
            "properties": {}
        },
        {
            "type": "Feature",
            "geometry": {
                "type": "Point",
                "coordinates": [
                    12.649782,
                    41.700771
                ]
            },
            "properties": {}
        },
        {
            "type": "Feature",
            "geometry": {
                "type": "Point",
                "coordinates": [
                    3.015684,
                    43.178651
                ]
            },
            "properties": {}
        },
        {
            "type": "Feature",
            "geometry": {
                "type": "Point",
                "coordinates": [
                    -8.734844,
                    37.450591
                ]
            },
            "properties": {}
        },
        {
            "type": "Feature",
            "geometry": {
                "type": "Point",
                "coordinates": [
                    3.864907,
                    43.631266
                ]
            },
            "properties": {}
        },
        {
            "type": "Feature",
            "geometry": {
                "type": "Point",
                "coordinates": [
                    -7.739252,
                    41.07413
                ]
            },
            "properties": {}
        },
        {
            "type": "Feature",
            "geometry": {
                "type": "Point",
                "coordinates": [
                    -8.738186,
                    37.458438
                ]
            },
            "properties": {}
        },
        {
            "type": "Feature",
            "geometry": {
                "type": "Point",
                "coordinates": [
                    -58.442883,
                    -34.538142
                ]
            },
            "properties": {}
        },
        {
            "type": "Feature",
            "geometry": {
                "type": "Point",
                "coordinates": [
                    -25.469106,
                    37.723278
                ]
            },
            "properties": {}
        },
        {
            "type": "Feature",
            "geometry": {
                "type": "Point",
                "coordinates": [
                    -106.044672,
                    23.273477
                ]
            },
            "properties": {}
        },
        {
            "type": "Feature",
            "geometry": {
                "type": "Point",
                "coordinates": [
                    -98.231495,
                    29.550018
                ]
            },
            "properties": {}
        },
        {
            "type": "Feature",
            "geometry": {
                "type": "Point",
                "coordinates": [
                    -17.79285,
                    28.583265
                ]
            },
            "properties": {}
        },
        {
            "type": "Feature",
            "geometry": {
                "type": "Point",
                "coordinates": [
                    -17.79513,
                    28.686504
                ]
            },
            "properties": {}
        },
        {
            "type": "Feature",
            "geometry": {
                "type": "Point",
                "coordinates": [
                    -17.742189,
                    28.750315
                ]
            },
            "properties": {}
        },
        {
            "type": "Feature",
            "geometry": {
                "type": "Point",
                "coordinates": [
                    -17.73571,
                    28.757351
                ]
            },
            "properties": {}
        },
        {
            "type": "Feature",
            "geometry": {
                "type": "Point",
                "coordinates": [
                    -17.802229,
                    28.553455
                ]
            },
            "properties": {}
        },
        {
            "type": "Feature",
            "geometry": {
                "type": "Point",
                "coordinates": [
                    -3.784013,
                    37.793185
                ]
            },
            "properties": {}
        },
        {
            "type": "Feature",
            "geometry": {
                "type": "Point",
                "coordinates": [
                    1.981635,
                    41.275646
                ]
            },
            "properties": {}
        },
        {
            "type": "Feature",
            "geometry": {
                "type": "Point",
                "coordinates": [
                    -105.855508,
                    22.967016
                ]
            },
            "properties": {}
        },
        {
            "type": "Feature",
            "geometry": {
                "type": "Point",
                "coordinates": [
                    -81.28595,
                    29.885775
                ]
            },
            "properties": {}
        },
        {
            "type": "Feature",
            "geometry": {
                "type": "Point",
                "coordinates": [
                    17.829457,
                    40.543157
                ]
            },
            "properties": {}
        },
        {
            "type": "Feature",
            "geometry": {
                "type": "Point",
                "coordinates": [
                    -2.592007,
                    36.807262
                ]
            },
            "properties": {}
        },
        {
            "type": "Feature",
            "geometry": {
                "type": "Point",
                "coordinates": [
                    -96.32433,
                    30.617629
                ]
            },
            "properties": {}
        },
        {
            "type": "Feature",
            "geometry": {
                "type": "Point",
                "coordinates": [
                    -98.68325,
                    29.611825
                ]
            },
            "properties": {}
        },
        {
            "type": "Feature",
            "geometry": {
                "type": "Point",
                "coordinates": [
                    -97.9645,
                    29.69462
                ]
            },
            "properties": {}
        },
        {
            "type": "Feature",
            "geometry": {
                "type": "Point",
                "coordinates": [
                    -97.147031,
                    31.575402
                ]
            },
            "properties": {}
        },
        {
            "type": "Feature",
            "geometry": {
                "type": "Point",
                "coordinates": [
                    -8.720054,
                    42.501416
                ]
            },
            "properties": {}
        },
        {
            "type": "Feature",
            "geometry": {
                "type": "Point",
                "coordinates": [
                    1.983401,
                    41.275073
                ]
            },
            "properties": {}
        },
        {
            "type": "Feature",
            "geometry": {
                "type": "Point",
                "coordinates": [
                    15.964426,
                    43.805578
                ]
            },
            "properties": {}
        },
        {
            "type": "Feature",
            "geometry": {
                "type": "Point",
                "coordinates": [
                    -9.410955,
                    38.790861
                ]
            },
            "properties": {}
        },
        {
            "type": "Feature",
            "geometry": {
                "type": "Point",
                "coordinates": [
                    -0.321807,
                    39.3473
                ]
            },
            "properties": {}
        },
        {
            "type": "Feature",
            "geometry": {
                "type": "Point",
                "coordinates": [
                    -89.861345,
                    30.150847
                ]
            },
            "properties": {}
        },
        {
            "type": "Feature",
            "geometry": {
                "type": "Point",
                "coordinates": [
                    -7.693846,
                    41.105212
                ]
            },
            "properties": {}
        },
        {
            "type": "Feature",
            "geometry": {
                "type": "Point",
                "coordinates": [
                    -117.888776,
                    34.169429
                ]
            },
            "properties": {}
        },
        {
            "type": "Feature",
            "geometry": {
                "type": "Point",
                "coordinates": [
                    -97.969345,
                    29.56917
                ]
            },
            "properties": {}
        },
        {
            "type": "Feature",
            "geometry": {
                "type": "Point",
                "coordinates": [
                    -97.138088,
                    30.625607
                ]
            },
            "properties": {}
        },
        {
            "type": "Feature",
            "geometry": {
                "type": "Point",
                "coordinates": [
                    -97.146815,
                    31.575298
                ]
            },
            "properties": {}
        },
        {
            "type": "Feature",
            "geometry": {
                "type": "Point",
                "coordinates": [
                    -0.510013,
                    39.523475
                ]
            },
            "properties": {}
        },
        {
            "type": "Feature",
            "geometry": {
                "type": "Point",
                "coordinates": [
                    27.870737,
                    -29.211422
                ]
            },
            "properties": {}
        },
        {
            "type": "Feature",
            "geometry": {
                "type": "Point",
                "coordinates": [
                    -4.550121,
                    37.018999
                ]
            },
            "properties": {}
        },
        {
            "type": "Feature",
            "geometry": {
                "type": "Point",
                "coordinates": [
                    -7.780153,
                    41.145294
                ]
            },
            "properties": {}
        },
        {
            "type": "Feature",
            "geometry": {
                "type": "Point",
                "coordinates": [
                    27.870737,
                    -29.211422
                ]
            },
            "properties": {}
        },
        {
            "type": "Feature",
            "geometry": {
                "type": "Point",
                "coordinates": [
                    -9.437533,
                    38.750219
                ]
            },
            "properties": {}
        },
        {
            "type": "Feature",
            "geometry": {
                "type": "Point",
                "coordinates": [
                    -0.321818,
                    39.347394
                ]
            },
            "properties": {}
        },
        {
            "type": "Feature",
            "geometry": {
                "type": "Point",
                "coordinates": [
                    -100.454818,
                    25.773844
                ]
            },
            "properties": {}
        },
        {
            "type": "Feature",
            "geometry": {
                "type": "Point",
                "coordinates": [
                    3.045164,
                    41.78565
                ]
            },
            "properties": {}
        },
        {
            "type": "Feature",
            "geometry": {
                "type": "Point",
                "coordinates": [
                    -7.522373,
                    37.555192
                ]
            },
            "properties": {}
        },
        {
            "type": "Feature",
            "geometry": {
                "type": "Point",
                "coordinates": [
                    -97.789778,
                    30.404999
                ]
            },
            "properties": {}
        },
        {
            "type": "Feature",
            "geometry": {
                "type": "Point",
                "coordinates": [
                    -121.854538,
                    36.60272
                ]
            },
            "properties": {}
        },
        {
            "type": "Feature",
            "geometry": {
                "type": "Point",
                "coordinates": [
                    -116.28144,
                    33.82572
                ]
            },
            "properties": {}
        },
        {
            "type": "Feature",
            "geometry": {
                "type": "Point",
                "coordinates": [
                    -58.356066,
                    -34.613888
                ]
            },
            "properties": {}
        },
        {
            "type": "Feature",
            "geometry": {
                "type": "Point",
                "coordinates": [
                    -58.444813,
                    -34.537022
                ]
            },
            "properties": {}
        },
        {
            "type": "Feature",
            "geometry": {
                "type": "Point",
                "coordinates": [
                    -15.594812,
                    28.093821
                ]
            },
            "properties": {}
        },
        {
            "type": "Feature",
            "geometry": {
                "type": "Point",
                "coordinates": [
                    1.983372,
                    41.274676
                ]
            },
            "properties": {}
        },
        {
            "type": "Feature",
            "geometry": {
                "type": "Point",
                "coordinates": [
                    -96.335041,
                    30.591907
                ]
            },
            "properties": {}
        },
        {
            "type": "Feature",
            "geometry": {
                "type": "Point",
                "coordinates": [
                    -5.071245,
                    37.548838
                ]
            },
            "properties": {}
        },
        {
            "type": "Feature",
            "geometry": {
                "type": "Point",
                "coordinates": [
                    -99.25333,
                    18.954495
                ]
            },
            "properties": {}
        },
        {
            "type": "Feature",
            "geometry": {
                "type": "Point",
                "coordinates": [
                    1.799729,
                    41.319677
                ]
            },
            "properties": {}
        },
        {
            "type": "Feature",
            "geometry": {
                "type": "Point",
                "coordinates": [
                    -0.746112,
                    37.600208
                ]
            },
            "properties": {}
        },
        {
            "type": "Feature",
            "geometry": {
                "type": "Point",
                "coordinates": [
                    174.765051,
                    -36.62911
                ]
            },
            "properties": {}
        },
        {
            "type": "Feature",
            "geometry": {
                "type": "Point",
                "coordinates": [
                    -122.138002,
                    38.022905
                ]
            },
            "properties": {}
        },
        {
            "type": "Feature",
            "geometry": {
                "type": "Point",
                "coordinates": [
                    -97.767189,
                    30.222472
                ]
            },
            "properties": {}
        },
        {
            "type": "Feature",
            "geometry": {
                "type": "Point",
                "coordinates": [
                    -99.719456,
                    32.456331
                ]
            },
            "properties": {}
        },
        {
            "type": "Feature",
            "geometry": {
                "type": "Point",
                "coordinates": [
                    18.515522,
                    -33.950864
                ]
            },
            "properties": {}
        },
        {
            "type": "Feature",
            "geometry": {
                "type": "Point",
                "coordinates": [
                    -97.964775,
                    29.694537
                ]
            },
            "properties": {}
        },
        {
            "type": "Feature",
            "geometry": {
                "type": "Point",
                "coordinates": [
                    -97.745023,
                    30.260472
                ]
            },
            "properties": {}
        },
        {
            "type": "Feature",
            "geometry": {
                "type": "Point",
                "coordinates": [
                    -0.321886,
                    39.34744
                ]
            },
            "properties": {}
        },
        {
            "type": "Feature",
            "geometry": {
                "type": "Point",
                "coordinates": [
                    -117.252563,
                    32.883797
                ]
            },
            "properties": {}
        },
        {
            "type": "Feature",
            "geometry": {
                "type": "Point",
                "coordinates": [
                    9.19463,
                    45.528178
                ]
            },
            "properties": {}
        },
        {
            "type": "Feature",
            "geometry": {
                "type": "Point",
                "coordinates": [
                    -121.212261,
                    36.899923
                ]
            },
            "properties": {}
        },
        {
            "type": "Feature",
            "geometry": {
                "type": "Point",
                "coordinates": [
                    3.08064,
                    41.825116
                ]
            },
            "properties": {}
        },
        {
            "type": "Feature",
            "geometry": {
                "type": "Point",
                "coordinates": [
                    10.266429,
                    45.490282
                ]
            },
            "properties": {}
        },
        {
            "type": "Feature",
            "geometry": {
                "type": "Point",
                "coordinates": [
                    -107.358107,
                    24.815928
                ]
            },
            "properties": {}
        },
        {
            "type": "Feature",
            "geometry": {
                "type": "Point",
                "coordinates": [
                    -99.747742,
                    32.4338
                ]
            },
            "properties": {}
        },
        {
            "type": "Feature",
            "geometry": {
                "type": "Point",
                "coordinates": [
                    1.983733,
                    41.274928
                ]
            },
            "properties": {}
        },
        {
            "type": "Feature",
            "geometry": {
                "type": "Point",
                "coordinates": [
                    -16.970036,
                    32.722955
                ]
            },
            "properties": {}
        },
        {
            "type": "Feature",
            "geometry": {
                "type": "Point",
                "coordinates": [
                    -8.527518,
                    41.387203
                ]
            },
            "properties": {}
        },
        {
            "type": "Feature",
            "geometry": {
                "type": "Point",
                "coordinates": [
                    -98.433028,
                    29.085328
                ]
            },
            "properties": {}
        },
        {
            "type": "Feature",
            "geometry": {
                "type": "Point",
                "coordinates": [
                    -111.961113,
                    33.881813
                ]
            },
            "properties": {}
        },
        {
            "type": "Feature",
            "geometry": {
                "type": "Point",
                "coordinates": [
                    -8.603297,
                    42.32071
                ]
            },
            "properties": {}
        },
        {
            "type": "Feature",
            "geometry": {
                "type": "Point",
                "coordinates": [
                    -97.723166,
                    31.088581
                ]
            },
            "properties": {}
        },
        {
            "type": "Feature",
            "geometry": {
                "type": "Point",
                "coordinates": [
                    18.4359,
                    -34.026464
                ]
            },
            "properties": {}
        },
        {
            "type": "Feature",
            "geometry": {
                "type": "Point",
                "coordinates": [
                    -100.889585,
                    29.361632
                ]
            },
            "properties": {}
        },
        {
            "type": "Feature",
            "geometry": {
                "type": "Point",
                "coordinates": [
                    7.700678,
                    44.499416
                ]
            },
            "properties": {}
        },
        {
            "type": "Feature",
            "geometry": {
                "type": "Point",
                "coordinates": [
                    3.030177,
                    41.77193
                ]
            },
            "properties": {}
        },
        {
            "type": "Feature",
            "geometry": {
                "type": "Point",
                "coordinates": [
                    -97.537589,
                    26.198252
                ]
            },
            "properties": {}
        },
        {
            "type": "Feature",
            "geometry": {
                "type": "Point",
                "coordinates": [
                    -8.204474,
                    37.142833
                ]
            },
            "properties": {}
        },
        {
            "type": "Feature",
            "geometry": {
                "type": "Point",
                "coordinates": [
                    -7.742281,
                    41.143329
                ]
            },
            "properties": {}
        },
        {
            "type": "Feature",
            "geometry": {
                "type": "Point",
                "coordinates": [
                    -97.949675,
                    26.142236
                ]
            },
            "properties": {}
        },
        {
            "type": "Feature",
            "geometry": {
                "type": "Point",
                "coordinates": [
                    -8.839971,
                    38.52071
                ]
            },
            "properties": {}
        },
        {
            "type": "Feature",
            "geometry": {
                "type": "Point",
                "coordinates": [
                    152.055755,
                    -27.538753
                ]
            },
            "properties": {}
        },
        {
            "type": "Feature",
            "geometry": {
                "type": "Point",
                "coordinates": [
                    -119.723122,
                    36.983503
                ]
            },
            "properties": {}
        },
        {
            "type": "Feature",
            "geometry": {
                "type": "Point",
                "coordinates": [
                    -97.659047,
                    30.654445
                ]
            },
            "properties": {}
        },
        {
            "type": "Feature",
            "geometry": {
                "type": "Point",
                "coordinates": [
                    11.708353,
                    45.739178
                ]
            },
            "properties": {}
        },
        {
            "type": "Feature",
            "geometry": {
                "type": "Point",
                "coordinates": [
                    -97.546429,
                    30.516151
                ]
            },
            "properties": {}
        },
        {
            "type": "Feature",
            "geometry": {
                "type": "Point",
                "coordinates": [
                    -7.502462,
                    37.668594
                ]
            },
            "properties": {}
        },
        {
            "type": "Feature",
            "geometry": {
                "type": "Point",
                "coordinates": [
                    -2.59079,
                    36.806923
                ]
            },
            "properties": {}
        },
        {
            "type": "Feature",
            "geometry": {
                "type": "Point",
                "coordinates": [
                    -5.969183,
                    31.448956
                ]
            },
            "properties": {}
        },
        {
            "type": "Feature",
            "geometry": {
                "type": "Point",
                "coordinates": [
                    27.770893,
                    -25.792262
                ]
            },
            "properties": {}
        },
        {
            "type": "Feature",
            "geometry": {
                "type": "Point",
                "coordinates": [
                    -100.329994,
                    25.643806
                ]
            },
            "properties": {}
        },
        {
            "type": "Feature",
            "geometry": {
                "type": "Point",
                "coordinates": [
                    -97.188858,
                    30.585226
                ]
            },
            "properties": {}
        },
        {
            "type": "Feature",
            "geometry": {
                "type": "Point",
                "coordinates": [
                    -117.118856,
                    32.532547
                ]
            },
            "properties": {}
        },
        {
            "type": "Feature",
            "geometry": {
                "type": "Point",
                "coordinates": [
                    3.045834,
                    41.785547
                ]
            },
            "properties": {}
        },
        {
            "type": "Feature",
            "geometry": {
                "type": "Point",
                "coordinates": [
                    -98.265168,
                    30.528974
                ]
            },
            "properties": {}
        },
        {
            "type": "Feature",
            "geometry": {
                "type": "Point",
                "coordinates": [
                    -7.689732,
                    41.102874
                ]
            },
            "properties": {}
        },
        {
            "type": "Feature",
            "geometry": {
                "type": "Point",
                "coordinates": [
                    1.806516,
                    41.646257
                ]
            },
            "properties": {}
        },
        {
            "type": "Feature",
            "geometry": {
                "type": "Point",
                "coordinates": [
                    -97.727494,
                    26.142203
                ]
            },
            "properties": {}
        },
        {
            "type": "Feature",
            "geometry": {
                "type": "Point",
                "coordinates": [
                    -97.840705,
                    30.082738
                ]
            },
            "properties": {}
        },
        {
            "type": "Feature",
            "geometry": {
                "type": "Point",
                "coordinates": [
                    3.080752,
                    41.825353
                ]
            },
            "properties": {}
        },
        {
            "type": "Feature",
            "geometry": {
                "type": "Point",
                "coordinates": [
                    1.873999,
                    41.54517
                ]
            },
            "properties": {}
        },
        {
            "type": "Feature",
            "geometry": {
                "type": "Point",
                "coordinates": [
                    -97.360863,
                    18.32987
                ]
            },
            "properties": {}
        },
        {
            "type": "Feature",
            "geometry": {
                "type": "Point",
                "coordinates": [
                    -9.216548,
                    39.426788
                ]
            },
            "properties": {}
        },
        {
            "type": "Feature",
            "geometry": {
                "type": "Point",
                "coordinates": [
                    145.712495,
                    -41.045433
                ]
            },
            "properties": {}
        },
        {
            "type": "Feature",
            "geometry": {
                "type": "Point",
                "coordinates": [
                    14.36078,
                    35.964347
                ]
            },
            "properties": {}
        },
        {
            "type": "Feature",
            "geometry": {
                "type": "Point",
                "coordinates": [
                    -99.096323,
                    19.259729
                ]
            },
            "properties": {}
        },
        {
            "type": "Feature",
            "geometry": {
                "type": "Point",
                "coordinates": [
                    -89.874672,
                    30.137255
                ]
            },
            "properties": {}
        },
        {
            "type": "Feature",
            "geometry": {
                "type": "Point",
                "coordinates": [
                    1.891337,
                    41.54517
                ]
            },
            "properties": {}
        },
        {
            "type": "Feature",
            "geometry": {
                "type": "Point",
                "coordinates": [
                    -16.837772,
                    32.75478
                ]
            },
            "properties": {}
        },
        {
            "type": "Feature",
            "geometry": {
                "type": "Point",
                "coordinates": [
                    -7.920081,
                    37.03014
                ]
            },
            "properties": {}
        },
        {
            "type": "Feature",
            "geometry": {
                "type": "Point",
                "coordinates": [
                    1.965672,
                    41.270328
                ]
            },
            "properties": {}
        },
        {
            "type": "Feature",
            "geometry": {
                "type": "Point",
                "coordinates": [
                    24.96455,
                    37.409153
                ]
            },
            "properties": {}
        },
        {
            "type": "Feature",
            "geometry": {
                "type": "Point",
                "coordinates": [
                    -117.280678,
                    32.830097
                ]
            },
            "properties": {}
        },
        {
            "type": "Feature",
            "geometry": {
                "type": "Point",
                "coordinates": [
                    3.045512,
                    41.784021
                ]
            },
            "properties": {}
        },
        {
            "type": "Feature",
            "geometry": {
                "type": "Point",
                "coordinates": [
                    -103.616447,
                    29.16447
                ]
            },
            "properties": {}
        },
        {
            "type": "Feature",
            "geometry": {
                "type": "Point",
                "coordinates": [
                    21.797689,
                    -33.445286
                ]
            },
            "properties": {}
        },
        {
            "type": "Feature",
            "geometry": {
                "type": "Point",
                "coordinates": [
                    3.04557,
                    41.784111
                ]
            },
            "properties": {}
        },
        {
            "type": "Feature",
            "geometry": {
                "type": "Point",
                "coordinates": [
                    -99.719529,
                    32.456336
                ]
            },
            "properties": {}
        },
        {
            "type": "Feature",
            "geometry": {
                "type": "Point",
                "coordinates": [
                    -98.755157,
                    29.815453
                ]
            },
            "properties": {}
        },
        {
            "type": "Feature",
            "geometry": {
                "type": "Point",
                "coordinates": [
                    -103.611099,
                    29.166142
                ]
            },
            "properties": {}
        },
        {
            "type": "Feature",
            "geometry": {
                "type": "Point",
                "coordinates": [
                    -100.330106,
                    25.644138
                ]
            },
            "properties": {}
        },
        {
            "type": "Feature",
            "geometry": {
                "type": "Point",
                "coordinates": [
                    -121.90427,
                    37.34548
                ]
            },
            "properties": {}
        },
        {
            "type": "Feature",
            "geometry": {
                "type": "Point",
                "coordinates": [
                    3.817603,
                    43.730155
                ]
            },
            "properties": {}
        },
        {
            "type": "Feature",
            "geometry": {
                "type": "Point",
                "coordinates": [
                    138.576521,
                    -35.012071
                ]
            },
            "properties": {}
        },
        {
            "type": "Feature",
            "geometry": {
                "type": "Point",
                "coordinates": [
                    -97.966208,
                    29.667412
                ]
            },
            "properties": {}
        },
        {
            "type": "Feature",
            "geometry": {
                "type": "Point",
                "coordinates": [
                    -96.030437,
                    31.966227
                ]
            },
            "properties": {}
        },
        {
            "type": "Feature",
            "geometry": {
                "type": "Point",
                "coordinates": [
                    -9.026535,
                    38.905845
                ]
            },
            "properties": {}
        },
        {
            "type": "Feature",
            "geometry": {
                "type": "Point",
                "coordinates": [
                    18.710337,
                    -33.914685
                ]
            },
            "properties": {}
        },
        {
            "type": "Feature",
            "geometry": {
                "type": "Point",
                "coordinates": [
                    -9.442643,
                    38.751282
                ]
            },
            "properties": {}
        },
        {
            "type": "Feature",
            "geometry": {
                "type": "Point",
                "coordinates": [
                    -9.151155,
                    38.623125
                ]
            },
            "properties": {}
        },
        {
            "type": "Feature",
            "geometry": {
                "type": "Point",
                "coordinates": [
                    -97.777966,
                    30.28002
                ]
            },
            "properties": {}
        },
        {
            "type": "Feature",
            "geometry": {
                "type": "Point",
                "coordinates": [
                    -117.950047,
                    34.129745
                ]
            },
            "properties": {}
        },
        {
            "type": "Feature",
            "geometry": {
                "type": "Point",
                "coordinates": [
                    -100.330053,
                    25.644136
                ]
            },
            "properties": {}
        },
        {
            "type": "Feature",
            "geometry": {
                "type": "Point",
                "coordinates": [
                    -9.439343,
                    38.749957
                ]
            },
            "properties": {}
        },
        {
            "type": "Feature",
            "geometry": {
                "type": "Point",
                "coordinates": [
                    -97.748497,
                    31.425263
                ]
            },
            "properties": {}
        },
        {
            "type": "Feature",
            "geometry": {
                "type": "Point",
                "coordinates": [
                    -36.561692,
                    -6.554817
                ]
            },
            "properties": {}
        },
        {
            "type": "Feature",
            "geometry": {
                "type": "Point",
                "coordinates": [
                    -99.719495,
                    32.456376
                ]
            },
            "properties": {}
        },
        {
            "type": "Feature",
            "geometry": {
                "type": "Point",
                "coordinates": [
                    -1.405264,
                    38.203974
                ]
            },
            "properties": {}
        },
        {
            "type": "Feature",
            "geometry": {
                "type": "Point",
                "coordinates": [
                    -97.949808,
                    26.150761
                ]
            },
            "properties": {}
        },
        {
            "type": "Feature",
            "geometry": {
                "type": "Point",
                "coordinates": [
                    -97.604845,
                    26.165067
                ]
            },
            "properties": {}
        },
        {
            "type": "Feature",
            "geometry": {
                "type": "Point",
                "coordinates": [
                    2.530609,
                    41.813629
                ]
            },
            "properties": {}
        },
        {
            "type": "Feature",
            "geometry": {
                "type": "Point",
                "coordinates": [
                    -97.159784,
                    32.706219
                ]
            },
            "properties": {}
        },
        {
            "type": "Feature",
            "geometry": {
                "type": "Point",
                "coordinates": [
                    3.045557,
                    41.785467
                ]
            },
            "properties": {}
        },
        {
            "type": "Feature",
            "geometry": {
                "type": "Point",
                "coordinates": [
                    -121.736352,
                    36.93217
                ]
            },
            "properties": {}
        },
        {
            "type": "Feature",
            "geometry": {
                "type": "Point",
                "coordinates": [
                    -98.217108,
                    30.024442
                ]
            },
            "properties": {}
        },
        {
            "type": "Feature",
            "geometry": {
                "type": "Point",
                "coordinates": [
                    -7.730506,
                    41.127074
                ]
            },
            "properties": {}
        },
        {
            "type": "Feature",
            "geometry": {
                "type": "Point",
                "coordinates": [
                    -122.137972,
                    38.022892
                ]
            },
            "properties": {}
        },
        {
            "type": "Feature",
            "geometry": {
                "type": "Point",
                "coordinates": [
                    -15.596682,
                    27.744387
                ]
            },
            "properties": {}
        },
        {
            "type": "Feature",
            "geometry": {
                "type": "Point",
                "coordinates": [
                    -7.640597,
                    41.156306
                ]
            },
            "properties": {}
        },
        {
            "type": "Feature",
            "geometry": {
                "type": "Point",
                "coordinates": [
                    -97.842662,
                    30.092044
                ]
            },
            "properties": {}
        },
        {
            "type": "Feature",
            "geometry": {
                "type": "Point",
                "coordinates": [
                    -8.812787,
                    40.21246
                ]
            },
            "properties": {}
        },
        {
            "type": "Feature",
            "geometry": {
                "type": "Point",
                "coordinates": [
                    -3.688737,
                    40.27245
                ]
            },
            "properties": {}
        },
        {
            "type": "Feature",
            "geometry": {
                "type": "Point",
                "coordinates": [
                    -98.532172,
                    29.449362
                ]
            },
            "properties": {}
        },
        {
            "type": "Feature",
            "geometry": {
                "type": "Point",
                "coordinates": [
                    -100.45514,
                    25.773735
                ]
            },
            "properties": {}
        },
        {
            "type": "Feature",
            "geometry": {
                "type": "Point",
                "coordinates": [
                    1.98119,
                    41.274756
                ]
            },
            "properties": {}
        },
        {
            "type": "Feature",
            "geometry": {
                "type": "Point",
                "coordinates": [
                    -7.585977,
                    41.15039
                ]
            },
            "properties": {}
        },
        {
            "type": "Feature",
            "geometry": {
                "type": "Point",
                "coordinates": [
                    -97.612192,
                    27.862713
                ]
            },
            "properties": {}
        },
        {
            "type": "Feature",
            "geometry": {
                "type": "Point",
                "coordinates": [
                    -100.455677,
                    25.773968
                ]
            },
            "properties": {}
        },
        {
            "type": "Feature",
            "geometry": {
                "type": "Point",
                "coordinates": [
                    -100.454912,
                    25.77382
                ]
            },
            "properties": {}
        },
        {
            "type": "Feature",
            "geometry": {
                "type": "Point",
                "coordinates": [
                    -2.471117,
                    36.850315
                ]
            },
            "properties": {}
        },
        {
            "type": "Feature",
            "geometry": {
                "type": "Point",
                "coordinates": [
                    1.985576,
                    41.278193
                ]
            },
            "properties": {}
        },
        {
            "type": "Feature",
            "geometry": {
                "type": "Point",
                "coordinates": [
                    -99.086058,
                    19.27502
                ]
            },
            "properties": {}
        },
        {
            "type": "Feature",
            "geometry": {
                "type": "Point",
                "coordinates": [
                    18.92655,
                    -33.916905
                ]
            },
            "properties": {}
        },
        {
            "type": "Feature",
            "geometry": {
                "type": "Point",
                "coordinates": [
                    2.001225,
                    41.347693
                ]
            },
            "properties": {}
        },
        {
            "type": "Feature",
            "geometry": {
                "type": "Point",
                "coordinates": [
                    -100.45515,
                    25.773715
                ]
            },
            "properties": {}
        },
        {
            "type": "Feature",
            "geometry": {
                "type": "Point",
                "coordinates": [
                    -118.322769,
                    34.130883
                ]
            },
            "properties": {}
        },
        {
            "type": "Feature",
            "geometry": {
                "type": "Point",
                "coordinates": [
                    -15.482641,
                    27.934257
                ]
            },
            "properties": {}
        },
        {
            "type": "Feature",
            "geometry": {
                "type": "Point",
                "coordinates": [
                    -100.327679,
                    25.644227
                ]
            },
            "properties": {}
        },
        {
            "type": "Feature",
            "geometry": {
                "type": "Point",
                "coordinates": [
                    -94.866524,
                    29.250876
                ]
            },
            "properties": {}
        },
        {
            "type": "Feature",
            "geometry": {
                "type": "Point",
                "coordinates": [
                    27.768468,
                    -25.78579
                ]
            },
            "properties": {}
        },
        {
            "type": "Feature",
            "geometry": {
                "type": "Point",
                "coordinates": [
                    -95.92489,
                    29.933967
                ]
            },
            "properties": {}
        },
        {
            "type": "Feature",
            "geometry": {
                "type": "Point",
                "coordinates": [
                    -94.95359,
                    29.199819
                ]
            },
            "properties": {}
        },
        {
            "type": "Feature",
            "geometry": {
                "type": "Point",
                "coordinates": [
                    1.983838,
                    41.274958
                ]
            },
            "properties": {}
        },
        {
            "type": "Feature",
            "geometry": {
                "type": "Point",
                "coordinates": [
                    -96.328673,
                    30.613383
                ]
            },
            "properties": {}
        },
        {
            "type": "Feature",
            "geometry": {
                "type": "Point",
                "coordinates": [
                    -121.67648,
                    38.15549
                ]
            },
            "properties": {}
        },
        {
            "type": "Feature",
            "geometry": {
                "type": "Point",
                "coordinates": [
                    -1.404188,
                    38.21172
                ]
            },
            "properties": {}
        },
        {
            "type": "Feature",
            "geometry": {
                "type": "Point",
                "coordinates": [
                    -7.709118,
                    37.153861
                ]
            },
            "properties": {}
        },
        {
            "type": "Feature",
            "geometry": {
                "type": "Point",
                "coordinates": [
                    19.97446,
                    -33.825764
                ]
            },
            "properties": {}
        },
        {
            "type": "Feature",
            "geometry": {
                "type": "Point",
                "coordinates": [
                    27.769405,
                    -25.787815
                ]
            },
            "properties": {}
        },
        {
            "type": "Feature",
            "geometry": {
                "type": "Point",
                "coordinates": [
                    -16.956842,
                    32.642215
                ]
            },
            "properties": {}
        },
        {
            "type": "Feature",
            "geometry": {
                "type": "Point",
                "coordinates": [
                    -97.962643,
                    26.409058
                ]
            },
            "properties": {}
        },
        {
            "type": "Feature",
            "geometry": {
                "type": "Point",
                "coordinates": [
                    -97.270928,
                    32.74535
                ]
            },
            "properties": {}
        },
        {
            "type": "Feature",
            "geometry": {
                "type": "Point",
                "coordinates": [
                    -111.089367,
                    32.342427
                ]
            },
            "properties": {}
        },
        {
            "type": "Feature",
            "geometry": {
                "type": "Point",
                "coordinates": [
                    -16.231058,
                    28.55316
                ]
            },
            "properties": {}
        },
        {
            "type": "Feature",
            "geometry": {
                "type": "Point",
                "coordinates": [
                    -95.081986,
                    29.534603
                ]
            },
            "properties": {}
        },
        {
            "type": "Feature",
            "geometry": {
                "type": "Point",
                "coordinates": [
                    28.533525,
                    -26.149522
                ]
            },
            "properties": {}
        },
        {
            "type": "Feature",
            "geometry": {
                "type": "Point",
                "coordinates": [
                    -17.177836,
                    32.726494
                ]
            },
            "properties": {}
        },
        {
            "type": "Feature",
            "geometry": {
                "type": "Point",
                "coordinates": [
                    5.134413,
                    43.398367
                ]
            },
            "properties": {}
        },
        {
            "type": "Feature",
            "geometry": {
                "type": "Point",
                "coordinates": [
                    1.984181,
                    41.275145
                ]
            },
            "properties": {}
        },
        {
            "type": "Feature",
            "geometry": {
                "type": "Point",
                "coordinates": [
                    -117.049736,
                    32.70993
                ]
            },
            "properties": {}
        },
        {
            "type": "Feature",
            "geometry": {
                "type": "Point",
                "coordinates": [
                    -15.593882,
                    28.087544
                ]
            },
            "properties": {}
        },
        {
            "type": "Feature",
            "geometry": {
                "type": "Point",
                "coordinates": [
                    -97.69193,
                    33.866219
                ]
            },
            "properties": {}
        },
        {
            "type": "Feature",
            "geometry": {
                "type": "Point",
                "coordinates": [
                    -98.73688,
                    29.792155
                ]
            },
            "properties": {}
        },
        {
            "type": "Feature",
            "geometry": {
                "type": "Point",
                "coordinates": [
                    24.901829,
                    37.488842
                ]
            },
            "properties": {}
        },
        {
            "type": "Feature",
            "geometry": {
                "type": "Point",
                "coordinates": [
                    -78.419319,
                    -0.207569
                ]
            },
            "properties": {}
        },
        {
            "type": "Feature",
            "geometry": {
                "type": "Point",
                "coordinates": [
                    -98.741157,
                    30.224003
                ]
            },
            "properties": {}
        },
        {
            "type": "Feature",
            "geometry": {
                "type": "Point",
                "coordinates": [
                    -95.308808,
                    29.732625
                ]
            },
            "properties": {}
        },
        {
            "type": "Feature",
            "geometry": {
                "type": "Point",
                "coordinates": [
                    4.819836,
                    43.95272
                ]
            },
            "properties": {}
        },
        {
            "type": "Feature",
            "geometry": {
                "type": "Point",
                "coordinates": [
                    138.563446,
                    -35.024956
                ]
            },
            "properties": {}
        },
        {
            "type": "Feature",
            "geometry": {
                "type": "Point",
                "coordinates": [
                    138.563519,
                    -35.025148
                ]
            },
            "properties": {}
        },
        {
            "type": "Feature",
            "geometry": {
                "type": "Point",
                "coordinates": [
                    -100.217661,
                    25.678829
                ]
            },
            "properties": {}
        },
        {
            "type": "Feature",
            "geometry": {
                "type": "Point",
                "coordinates": [
                    22.037058,
                    -34.194945
                ]
            },
            "properties": {}
        },
        {
            "type": "Feature",
            "geometry": {
                "type": "Point",
                "coordinates": [
                    -96.965323,
                    30.846979
                ]
            },
            "properties": {}
        },
        {
            "type": "Feature",
            "geometry": {
                "type": "Point",
                "coordinates": [
                    -96.939338,
                    30.817445
                ]
            },
            "properties": {}
        },
        {
            "type": "Feature",
            "geometry": {
                "type": "Point",
                "coordinates": [
                    -97.660365,
                    33.867274
                ]
            },
            "properties": {}
        },
        {
            "type": "Feature",
            "geometry": {
                "type": "Point",
                "coordinates": [
                    -119.050692,
                    34.163465
                ]
            },
            "properties": {}
        },
        {
            "type": "Feature",
            "geometry": {
                "type": "Point",
                "coordinates": [
                    -97.079221,
                    33.046788
                ]
            },
            "properties": {}
        },
        {
            "type": "Feature",
            "geometry": {
                "type": "Point",
                "coordinates": [
                    -95.648242,
                    29.623338
                ]
            },
            "properties": {}
        },
        {
            "type": "Feature",
            "geometry": {
                "type": "Point",
                "coordinates": [
                    150.997387,
                    -34.640768
                ]
            },
            "properties": {}
        },
        {
            "type": "Feature",
            "geometry": {
                "type": "Point",
                "coordinates": [
                    -100.213323,
                    25.618846
                ]
            },
            "properties": {}
        },
        {
            "type": "Feature",
            "geometry": {
                "type": "Point",
                "coordinates": [
                    18.443001,
                    -34.043096
                ]
            },
            "properties": {}
        },
        {
            "type": "Feature",
            "geometry": {
                "type": "Point",
                "coordinates": [
                    -7.578508,
                    41.212793
                ]
            },
            "properties": {}
        },
        {
            "type": "Feature",
            "geometry": {
                "type": "Point",
                "coordinates": [
                    -97.474412,
                    26.07892
                ]
            },
            "properties": {}
        },
        {
            "type": "Feature",
            "geometry": {
                "type": "Point",
                "coordinates": [
                    138.53347,
                    -34.926705
                ]
            },
            "properties": {}
        },
        {
            "type": "Feature",
            "geometry": {
                "type": "Point",
                "coordinates": [
                    138.563512,
                    -35.025412
                ]
            },
            "properties": {}
        },
        {
            "type": "Feature",
            "geometry": {
                "type": "Point",
                "coordinates": [
                    -97.199781,
                    30.084896
                ]
            },
            "properties": {}
        },
        {
            "type": "Feature",
            "geometry": {
                "type": "Point",
                "coordinates": [
                    -15.586749,
                    28.110782
                ]
            },
            "properties": {}
        },
        {
            "type": "Feature",
            "geometry": {
                "type": "Point",
                "coordinates": [
                    -97.475722,
                    26.086022
                ]
            },
            "properties": {}
        },
        {
            "type": "Feature",
            "geometry": {
                "type": "Point",
                "coordinates": [
                    24.915928,
                    37.493206
                ]
            },
            "properties": {}
        },
        {
            "type": "Feature",
            "geometry": {
                "type": "Point",
                "coordinates": [
                    -117.053244,
                    32.710808
                ]
            },
            "properties": {}
        },
        {
            "type": "Feature",
            "geometry": {
                "type": "Point",
                "coordinates": [
                    -97.660026,
                    33.868758
                ]
            },
            "properties": {}
        },
        {
            "type": "Feature",
            "geometry": {
                "type": "Point",
                "coordinates": [
                    3.829072,
                    43.603127
                ]
            },
            "properties": {}
        },
        {
            "type": "Feature",
            "geometry": {
                "type": "Point",
                "coordinates": [
                    -7.682866,
                    41.17284
                ]
            },
            "properties": {}
        },
        {
            "type": "Feature",
            "geometry": {
                "type": "Point",
                "coordinates": [
                    -98.468613,
                    30.796913
                ]
            },
            "properties": {}
        },
        {
            "type": "Feature",
            "geometry": {
                "type": "Point",
                "coordinates": [
                    -3.525682,
                    40.321538
                ]
            },
            "properties": {}
        },
        {
            "type": "Feature",
            "geometry": {
                "type": "Point",
                "coordinates": [
                    18.890458,
                    -33.940618
                ]
            },
            "properties": {}
        },
        {
            "type": "Feature",
            "geometry": {
                "type": "Point",
                "coordinates": [
                    -17.156676,
                    32.857064
                ]
            },
            "properties": {}
        },
        {
            "type": "Feature",
            "geometry": {
                "type": "Point",
                "coordinates": [
                    -97.474533,
                    26.078958
                ]
            },
            "properties": {}
        },
        {
            "type": "Feature",
            "geometry": {
                "type": "Point",
                "coordinates": [
                    -97.697349,
                    33.866608
                ]
            },
            "properties": {}
        },
        {
            "type": "Feature",
            "geometry": {
                "type": "Point",
                "coordinates": [
                    -7.736069,
                    41.14633
                ]
            },
            "properties": {}
        },
        {
            "type": "Feature",
            "geometry": {
                "type": "Point",
                "coordinates": [
                    -3.522571,
                    40.139353
                ]
            },
            "properties": {}
        },
        {
            "type": "Feature",
            "geometry": {
                "type": "Point",
                "coordinates": [
                    -9.118353,
                    38.720642
                ]
            },
            "properties": {}
        },
        {
            "type": "Feature",
            "geometry": {
                "type": "Point",
                "coordinates": [
                    -99.209988,
                    19.320581
                ]
            },
            "properties": {}
        },
        {
            "type": "Feature",
            "geometry": {
                "type": "Point",
                "coordinates": [
                    -100.329794,
                    25.643732
                ]
            },
            "properties": {}
        },
        {
            "type": "Feature",
            "geometry": {
                "type": "Point",
                "coordinates": [
                    -100.217656,
                    25.678799
                ]
            },
            "properties": {}
        },
        {
            "type": "Feature",
            "geometry": {
                "type": "Point",
                "coordinates": [
                    -95.557573,
                    29.762232
                ]
            },
            "properties": {}
        },
        {
            "type": "Feature",
            "geometry": {
                "type": "Point",
                "coordinates": [
                    -97.859586,
                    30.558599
                ]
            },
            "properties": {}
        },
        {
            "type": "Feature",
            "geometry": {
                "type": "Point",
                "coordinates": [
                    27.779175,
                    -25.541197
                ]
            },
            "properties": {}
        },
        {
            "type": "Feature",
            "geometry": {
                "type": "Point",
                "coordinates": [
                    -7.695251,
                    41.138122
                ]
            },
            "properties": {}
        },
        {
            "type": "Feature",
            "geometry": {
                "type": "Point",
                "coordinates": [
                    -8.772955,
                    42.222758
                ]
            },
            "properties": {}
        },
        {
            "type": "Feature",
            "geometry": {
                "type": "Point",
                "coordinates": [
                    -17.256163,
                    32.809368
                ]
            },
            "properties": {}
        },
        {
            "type": "Feature",
            "geometry": {
                "type": "Point",
                "coordinates": [
                    150.96,
                    -33.31
                ]
            },
            "properties": {}
        },
        {
            "type": "Feature",
            "geometry": {
                "type": "Point",
                "coordinates": [
                    150.8,
                    -33.95
                ]
            },
            "properties": {}
        },
        {
            "type": "Feature",
            "geometry": {
                "type": "Point",
                "coordinates": [
                    150.96,
                    -33.31
                ]
            },
            "properties": {}
        },
        {
            "type": "Feature",
            "geometry": {
                "type": "Point",
                "coordinates": [
                    150.74,
                    -33.94
                ]
            },
            "properties": {}
        },
        {
            "type": "Feature",
            "geometry": {
                "type": "Point",
                "coordinates": [
                    150.7,
                    -33.7
                ]
            },
            "properties": {}
        },
        {
            "type": "Feature",
            "geometry": {
                "type": "Point",
                "coordinates": [
                    153.16,
                    -30.17
                ]
            },
            "properties": {}
        },
        {
            "type": "Feature",
            "geometry": {
                "type": "Point",
                "coordinates": [
                    153.15,
                    -30.18
                ]
            },
            "properties": {}
        },
        {
            "type": "Feature",
            "geometry": {
                "type": "Point",
                "coordinates": [
                    153.16,
                    -30.17
                ]
            },
            "properties": {}
        },
        {
            "type": "Feature",
            "geometry": {
                "type": "Point",
                "coordinates": [
                    153.15,
                    -30.18
                ]
            },
            "properties": {}
        },
        {
            "type": "Feature",
            "geometry": {
                "type": "Point",
                "coordinates": [
                    150.96,
                    -33.31
                ]
            },
            "properties": {}
        },
        {
            "type": "Feature",
            "geometry": {
                "type": "Point",
                "coordinates": [
                    152.91,
                    -31.43
                ]
            },
            "properties": {}
        },
        {
            "type": "Feature",
            "geometry": {
                "type": "Point",
                "coordinates": [
                    150.96,
                    -33.31
                ]
            },
            "properties": {}
        },
        {
            "type": "Feature",
            "geometry": {
                "type": "Point",
                "coordinates": [
                    -98.23686,
                    29.507412
                ]
            },
            "properties": {}
        },
        {
            "type": "Feature",
            "geometry": {
                "type": "Point",
                "coordinates": [
                    4.918272,
                    44.214838
                ]
            },
            "properties": {}
        },
        {
            "type": "Feature",
            "geometry": {
                "type": "Point",
                "coordinates": [
                    -64.603616,
                    -37.378759
                ]
            },
            "properties": {}
        },
        {
            "type": "Feature",
            "geometry": {
                "type": "Point",
                "coordinates": [
                    -98.73718,
                    29.792513
                ]
            },
            "properties": {}
        },
        {
            "type": "Feature",
            "geometry": {
                "type": "Point",
                "coordinates": [
                    -96.72452,
                    32.804385
                ]
            },
            "properties": {}
        },
        {
            "type": "Feature",
            "geometry": {
                "type": "Point",
                "coordinates": [
                    -80.609468,
                    25.382631
                ]
            },
            "properties": {}
        },
        {
            "type": "Feature",
            "geometry": {
                "type": "Point",
                "coordinates": [
                    -91.830278,
                    18.640323
                ]
            },
            "properties": {}
        },
        {
            "type": "Feature",
            "geometry": {
                "type": "Point",
                "coordinates": [
                    -5.294329,
                    35.897678
                ]
            },
            "properties": {}
        },
        {
            "type": "Feature",
            "geometry": {
                "type": "Point",
                "coordinates": [
                    -3.331777,
                    40.233689
                ]
            },
            "properties": {}
        },
        {
            "type": "Feature",
            "geometry": {
                "type": "Point",
                "coordinates": [
                    -111.338203,
                    25.769196
                ]
            },
            "properties": {}
        },
        {
            "type": "Feature",
            "geometry": {
                "type": "Point",
                "coordinates": [
                    -3.518231,
                    40.140268
                ]
            },
            "properties": {}
        },
        {
            "type": "Feature",
            "geometry": {
                "type": "Point",
                "coordinates": [
                    -99.719477,
                    32.45645
                ]
            },
            "properties": {}
        },
        {
            "type": "Feature",
            "geometry": {
                "type": "Point",
                "coordinates": [
                    -103.598161,
                    29.155239
                ]
            },
            "properties": {}
        },
        {
            "type": "Feature",
            "geometry": {
                "type": "Point",
                "coordinates": [
                    -5.700439,
                    36.063351
                ]
            },
            "properties": {}
        },
        {
            "type": "Feature",
            "geometry": {
                "type": "Point",
                "coordinates": [
                    -5.286052,
                    35.894993
                ]
            },
            "properties": {}
        }
    ]
}