{"type": "FeatureCollection", "name": "Sambucus nigra", "features": [{"type": "Feature", "geometry": {"type": "Point", "coordinates": [8.660528, 50.132664]}, "properties": {}}, {"type": "Feature", "geometry": {"type": "Point", "coordinates": [11.174855, 53.871609]}, "properties": {}}, {"type": "Feature", "geometry": {"type": "Point", "coordinates": [8.499362, 49.452267]}, "properties": {}}, {"type": "Feature", "geometry": {"type": "Point", "coordinates": [1.127733, 51.076489]}, "properties": {}}, {"type": "Feature", "geometry": {"type": "Point", "coordinates": [8.638238, 40.194427]}, "properties": {}}, {"type": "Feature", "geometry": {"type": "Point", "coordinates": [-3.382558, 51.537693]}, "properties": {}}, {"type": "Feature", "geometry": {"type": "Point", "coordinates": [14.375856, 50.037008]}, "properties": {}}, {"type": "Feature", "geometry": {"type": "Point", "coordinates": [-1.945167, 53.317038]}, "properties": {}}, {"type": "Feature", "geometry": {"type": "Point", "coordinates": [19.157638, 49.29579]}, "properties": {}}, {"type": "Feature", "geometry": {"type": "Point", "coordinates": [171.050668, -44.728999]}, "properties": {}}, {"type": "Feature", "geometry": {"type": "Point", "coordinates": [172.998789, -41.163505]}, "properties": {}}, {"type": "Feature", "geometry": {"type": "Point", "coordinates": [15.532543, 46.727977]}, "properties": {}}, {"type": "Feature", "geometry": {"type": "Point", "coordinates": [9.20274, 45.530011]}, "properties": {}}, {"type": "Feature", "geometry": {"type": "Point", "coordinates": [12.530097, 55.668524]}, "properties": {}}, {"type": "Feature", "geometry": {"type": "Point", "coordinates": [-8.266269, 40.281624]}, "properties": {}}, {"type": "Feature", "geometry": {"type": "Point", "coordinates": [-0.042463, 51.494902]}, "properties": {}}, {"type": "Feature", "geometry": {"type": "Point", "coordinates": [172.590055, -43.527163]}, "properties": {}}, {"type": "Feature", "geometry": {"type": "Point", "coordinates": [15.530257, 46.72764]}, "properties": {}}, {"type": "Feature", "geometry": {"type": "Point", "coordinates": [170.403008, -45.881188]}, "properties": {}}, {"type": "Feature", "geometry": {"type": "Point", "coordinates": [-0.124397, 48.414641]}, "properties": {}}, {"type": "Feature", "geometry": {"type": "Point", "coordinates": [170.39831, -45.88236]}, "properties": {}}, {"type": "Feature", "geometry": {"type": "Point", "coordinates": [170.398336, -45.882358]}, "properties": {}}, {"type": "Feature", "geometry": {"type": "Point", "coordinates": [-3.451726, 51.466204]}, "properties": {}}, {"type": "Feature", "geometry": {"type": "Point", "coordinates": [12.11701, 57.42649]}, "properties": {}}, {"type": "Feature", "geometry": {"type": "Point", "coordinates": [16.41517, 56.58641]}, "properties": {}}, {"type": "Feature", "geometry": {"type": "Point", "coordinates": [12.66817, 56.08523]}, "properties": {}}, {"type": "Feature", "geometry": {"type": "Point", "coordinates": [12.61543, 56.79054]}, "properties": {}}, {"type": "Feature", "geometry": {"type": "Point", "coordinates": [17.63041, 62.65527]}, "properties": {}}, {"type": "Feature", "geometry": {"type": "Point", "coordinates": [10.54173, 59.898407]}, "properties": {}}, {"type": "Feature", "geometry": {"type": "Point", "coordinates": [12.521562, 55.816003]}, "properties": {}}, {"type": "Feature", "geometry": {"type": "Point", "coordinates": [12.634724, 55.662837]}, "properties": {}}, {"type": "Feature", "geometry": {"type": "Point", "coordinates": [12.486584, 55.68084]}, "properties": {}}, {"type": "Feature", "geometry": {"type": "Point", "coordinates": [10.562053, 52.954266]}, "properties": {}}, {"type": "Feature", "geometry": {"type": "Point", "coordinates": [9.609389, 48.922218]}, "properties": {}}, {"type": "Feature", "geometry": {"type": "Point", "coordinates": [9.612191, 48.876671]}, "properties": {}}, {"type": "Feature", "geometry": {"type": "Point", "coordinates": [9.610634, 48.911446]}, "properties": {}}, {"type": "Feature", "geometry": {"type": "Point", "coordinates": [8.488827, 49.960388]}, "properties": {}}, {"type": "Feature", "geometry": {"type": "Point", "coordinates": [9.587717, 48.904919]}, "properties": {}}, {"type": "Feature", "geometry": {"type": "Point", "coordinates": [8.509169, 49.979488]}, "properties": {}}, {"type": "Feature", "geometry": {"type": "Point", "coordinates": [11.82853, 58.35259]}, "properties": {}}, {"type": "Feature", "geometry": {"type": "Point", "coordinates": [17.66534, 59.81005]}, "properties": {}}, {"type": "Feature", "geometry": {"type": "Point", "coordinates": [13.63998, 55.88852]}, "properties": {}}, {"type": "Feature", "geometry": {"type": "Point", "coordinates": [18.29841, 57.64593]}, "properties": {}}, {"type": "Feature", "geometry": {"type": "Point", "coordinates": [11.747094, 55.243243]}, "properties": {}}, {"type": "Feature", "geometry": {"type": "Point", "coordinates": [9.851662, 56.187313]}, "properties": {}}, {"type": "Feature", "geometry": {"type": "Point", "coordinates": [6.696167, 51.544735]}, "properties": {}}, {"type": "Feature", "geometry": {"type": "Point", "coordinates": [8.67939, 49.459076]}, "properties": {}}, {"type": "Feature", "geometry": {"type": "Point", "coordinates": [16.53134, 56.34356]}, "properties": {}}, {"type": "Feature", "geometry": {"type": "Point", "coordinates": [16.662, 56.63739]}, "properties": {}}, {"type": "Feature", "geometry": {"type": "Point", "coordinates": [13.1903, 55.7088]}, "properties": {}}, {"type": "Feature", "geometry": {"type": "Point", "coordinates": [17.91407, 59.33712]}, "properties": {}}, {"type": "Feature", "geometry": {"type": "Point", "coordinates": [10.487932, 55.355278]}, "properties": {}}, {"type": "Feature", "geometry": {"type": "Point", "coordinates": [10.839245, 53.896515]}, "properties": {}}, {"type": "Feature", "geometry": {"type": "Point", "coordinates": [16.80955, 59.04416]}, "properties": {}}, {"type": "Feature", "geometry": {"type": "Point", "coordinates": [6.42784, 46.56428]}, "properties": {}}, {"type": "Feature", "geometry": {"type": "Point", "coordinates": [6.42784, 46.56428]}, "properties": {}}, {"type": "Feature", "geometry": {"type": "Point", "coordinates": [6.49305, 46.56484]}, "properties": {}}, {"type": "Feature", "geometry": {"type": "Point", "coordinates": [6.42784, 46.56428]}, "properties": {}}, {"type": "Feature", "geometry": {"type": "Point", "coordinates": [6.49305, 46.56484]}, "properties": {}}, {"type": "Feature", "geometry": {"type": "Point", "coordinates": [13.740674, 51.087463]}, "properties": {}}, {"type": "Feature", "geometry": {"type": "Point", "coordinates": [15.796407, 46.902087]}, "properties": {}}, {"type": "Feature", "geometry": {"type": "Point", "coordinates": [-2.985467, 53.512745]}, "properties": {}}, {"type": "Feature", "geometry": {"type": "Point", "coordinates": [-1.126887, 53.942762]}, "properties": {}}, {"type": "Feature", "geometry": {"type": "Point", "coordinates": [5.416808, 51.899921]}, "properties": {}}, {"type": "Feature", "geometry": {"type": "Point", "coordinates": [16.27304, 48.001587]}, "properties": {}}, {"type": "Feature", "geometry": {"type": "Point", "coordinates": [14.459238, 50.085923]}, "properties": {}}, {"type": "Feature", "geometry": {"type": "Point", "coordinates": [15.873498, 46.833902]}, "properties": {}}, {"type": "Feature", "geometry": {"type": "Point", "coordinates": [168.311143, -45.987449]}, "properties": {}}, {"type": "Feature", "geometry": {"type": "Point", "coordinates": [168.80867, -44.990154]}, "properties": {}}, {"type": "Feature", "geometry": {"type": "Point", "coordinates": [-0.659863, 52.936069]}, "properties": {}}, {"type": "Feature", "geometry": {"type": "Point", "coordinates": [171.295604, -44.137177]}, "properties": {}}, {"type": "Feature", "geometry": {"type": "Point", "coordinates": [-1.752073, 52.734281]}, "properties": {}}, {"type": "Feature", "geometry": {"type": "Point", "coordinates": [16.237905, 47.232822]}, "properties": {}}, {"type": "Feature", "geometry": {"type": "Point", "coordinates": [-2.63058, 53.771103]}, "properties": {}}, {"type": "Feature", "geometry": {"type": "Point", "coordinates": [170.869613, -44.111653]}, "properties": {}}, {"type": "Feature", "geometry": {"type": "Point", "coordinates": [9.187961, 45.53004]}, "properties": {}}, {"type": "Feature", "geometry": {"type": "Point", "coordinates": [172.768641, -43.784416]}, "properties": {}}, {"type": "Feature", "geometry": {"type": "Point", "coordinates": [16.426507, 47.454298]}, "properties": {}}, {"type": "Feature", "geometry": {"type": "Point", "coordinates": [-2.730991, 53.355185]}, "properties": {}}, {"type": "Feature", "geometry": {"type": "Point", "coordinates": [-1.12794, 53.94243]}, "properties": {}}, {"type": "Feature", "geometry": {"type": "Point", "coordinates": [23.784974, 52.0921]}, "properties": {}}, {"type": "Feature", "geometry": {"type": "Point", "coordinates": [7.333336, 47.740467]}, "properties": {}}, {"type": "Feature", "geometry": {"type": "Point", "coordinates": [0.007458, 50.873551]}, "properties": {}}, {"type": "Feature", "geometry": {"type": "Point", "coordinates": [25.94218, 45.828931]}, "properties": {}}, {"type": "Feature", "geometry": {"type": "Point", "coordinates": [-7.652748, 41.112753]}, "properties": {}}, {"type": "Feature", "geometry": {"type": "Point", "coordinates": [-7.755286, 41.308455]}, "properties": {}}, {"type": "Feature", "geometry": {"type": "Point", "coordinates": [15.880582, 46.806102]}, "properties": {}}, {"type": "Feature", "geometry": {"type": "Point", "coordinates": [17.10029, 47.997489]}, "properties": {}}, {"type": "Feature", "geometry": {"type": "Point", "coordinates": [-2.811296, 54.043124]}, "properties": {}}, {"type": "Feature", "geometry": {"type": "Point", "coordinates": [-1.803372, 51.059889]}, "properties": {}}, {"type": "Feature", "geometry": {"type": "Point", "coordinates": [15.308343, 46.89305]}, "properties": {}}, {"type": "Feature", "geometry": {"type": "Point", "coordinates": [167.68939, -46.109007]}, "properties": {}}, {"type": "Feature", "geometry": {"type": "Point", "coordinates": [-3.189625, 51.491683]}, "properties": {}}, {"type": "Feature", "geometry": {"type": "Point", "coordinates": [16.274292, 48.001343]}, "properties": {}}, {"type": "Feature", "geometry": {"type": "Point", "coordinates": [15.866852, 46.849603]}, "properties": {}}, {"type": "Feature", "geometry": {"type": "Point", "coordinates": [-1.798578, 51.059135]}, "properties": {}}, {"type": "Feature", "geometry": {"type": "Point", "coordinates": [15.306123, 46.917367]}, "properties": {}}, {"type": "Feature", "geometry": {"type": "Point", "coordinates": [-8.506312, 43.328256]}, "properties": {}}, {"type": "Feature", "geometry": {"type": "Point", "coordinates": [-7.701483, 41.103581]}, "properties": {}}, {"type": "Feature", "geometry": {"type": "Point", "coordinates": [-2.893659, 53.415149]}, "properties": {}}, {"type": "Feature", "geometry": {"type": "Point", "coordinates": [0.275672, 52.39712]}, "properties": {}}, {"type": "Feature", "geometry": {"type": "Point", "coordinates": [-3.464215, 51.465399]}, "properties": {}}, {"type": "Feature", "geometry": {"type": "Point", "coordinates": [-7.748317, 40.99531]}, "properties": {}}, {"type": "Feature", "geometry": {"type": "Point", "coordinates": [-1.087672, 53.953072]}, "properties": {}}, {"type": "Feature", "geometry": {"type": "Point", "coordinates": [-0.024997, 51.408683]}, "properties": {}}, {"type": "Feature", "geometry": {"type": "Point", "coordinates": [-0.178491, 51.463086]}, "properties": {}}, {"type": "Feature", "geometry": {"type": "Point", "coordinates": [172.867703, -41.199653]}, "properties": {}}, {"type": "Feature", "geometry": {"type": "Point", "coordinates": [-2.729301, 53.355289]}, "properties": {}}, {"type": "Feature", "geometry": {"type": "Point", "coordinates": [15.756378, 47.148682]}, "properties": {}}, {"type": "Feature", "geometry": {"type": "Point", "coordinates": [-7.756236, 41.308095]}, "properties": {}}, {"type": "Feature", "geometry": {"type": "Point", "coordinates": [-2.202525, 51.429468]}, "properties": {}}, {"type": "Feature", "geometry": {"type": "Point", "coordinates": [170.398145, -45.882395]}, "properties": {}}, {"type": "Feature", "geometry": {"type": "Point", "coordinates": [-1.738711, 52.733835]}, "properties": {}}, {"type": "Feature", "geometry": {"type": "Point", "coordinates": [0.126922, 52.208203]}, "properties": {}}, {"type": "Feature", "geometry": {"type": "Point", "coordinates": [-2.278136, 51.788651]}, "properties": {}}, {"type": "Feature", "geometry": {"type": "Point", "coordinates": [-3.453571, 51.460588]}, "properties": {}}, {"type": "Feature", "geometry": {"type": "Point", "coordinates": [-7.734693, 41.128548]}, "properties": {}}, {"type": "Feature", "geometry": {"type": "Point", "coordinates": [15.524402, 46.728927]}, "properties": {}}, {"type": "Feature", "geometry": {"type": "Point", "coordinates": [15.310007, 46.913857]}, "properties": {}}, {"type": "Feature", "geometry": {"type": "Point", "coordinates": [-0.121147, 52.330667]}, "properties": {}}, {"type": "Feature", "geometry": {"type": "Point", "coordinates": [15.774882, 46.844438]}, "properties": {}}, {"type": "Feature", "geometry": {"type": "Point", "coordinates": [15.36413, 46.787998]}, "properties": {}}, {"type": "Feature", "geometry": {"type": "Point", "coordinates": [-2.926835, 50.921471]}, "properties": {}}, {"type": "Feature", "geometry": {"type": "Point", "coordinates": [17.113117, 47.989384]}, "properties": {}}, {"type": "Feature", "geometry": {"type": "Point", "coordinates": [172.791024, -43.76894]}, "properties": {}}, {"type": "Feature", "geometry": {"type": "Point", "coordinates": [-7.689392, 41.103743]}, "properties": {}}, {"type": "Feature", "geometry": {"type": "Point", "coordinates": [-1.657346, 54.976329]}, "properties": {}}, {"type": "Feature", "geometry": {"type": "Point", "coordinates": [170.546284, -45.866093]}, "properties": {}}, {"type": "Feature", "geometry": {"type": "Point", "coordinates": [-2.956685, 53.327625]}, "properties": {}}, {"type": "Feature", "geometry": {"type": "Point", "coordinates": [-0.058255, 51.47264]}, "properties": {}}, {"type": "Feature", "geometry": {"type": "Point", "coordinates": [17.111755, 47.990299]}, "properties": {}}, {"type": "Feature", "geometry": {"type": "Point", "coordinates": [9.20274, 45.530011]}, "properties": {}}, {"type": "Feature", "geometry": {"type": "Point", "coordinates": [13.232413, 55.714842]}, "properties": {}}, {"type": "Feature", "geometry": {"type": "Point", "coordinates": [16.474303, 47.416358]}, "properties": {}}, {"type": "Feature", "geometry": {"type": "Point", "coordinates": [11.404324, 47.259753]}, "properties": {}}, {"type": "Feature", "geometry": {"type": "Point", "coordinates": [13.484218, 51.356502]}, "properties": {}}, {"type": "Feature", "geometry": {"type": "Point", "coordinates": [172.738711, -43.587179]}, "properties": {}}, {"type": "Feature", "geometry": {"type": "Point", "coordinates": [-0.099878, 51.594352]}, "properties": {}}, {"type": "Feature", "geometry": {"type": "Point", "coordinates": [-3.45502, 51.457923]}, "properties": {}}, {"type": "Feature", "geometry": {"type": "Point", "coordinates": [-3.440082, 51.464223]}, "properties": {}}, {"type": "Feature", "geometry": {"type": "Point", "coordinates": [-0.089005, 51.590982]}, "properties": {}}, {"type": "Feature", "geometry": {"type": "Point", "coordinates": [7.593148, 45.064683]}, "properties": {}}, {"type": "Feature", "geometry": {"type": "Point", "coordinates": [173.921044, -41.222227]}, "properties": {}}, {"type": "Feature", "geometry": {"type": "Point", "coordinates": [153.237394, -28.602415]}, "properties": {}}, {"type": "Feature", "geometry": {"type": "Point", "coordinates": [16.882819, 48.008915]}, "properties": {}}, {"type": "Feature", "geometry": {"type": "Point", "coordinates": [171.71738, -43.878331]}, "properties": {}}, {"type": "Feature", "geometry": {"type": "Point", "coordinates": [-2.93823, 53.385241]}, "properties": {}}, {"type": "Feature", "geometry": {"type": "Point", "coordinates": [17.439122, 59.20126]}, "properties": {}}, {"type": "Feature", "geometry": {"type": "Point", "coordinates": [16.074853, 47.006747]}, "properties": {}}, {"type": "Feature", "geometry": {"type": "Point", "coordinates": [172.559061, -43.577257]}, "properties": {}}, {"type": "Feature", "geometry": {"type": "Point", "coordinates": [16.273122, 48.002237]}, "properties": {}}, {"type": "Feature", "geometry": {"type": "Point", "coordinates": [-3.449854, 51.463461]}, "properties": {}}, {"type": "Feature", "geometry": {"type": "Point", "coordinates": [173.101436, -41.389689]}, "properties": {}}, {"type": "Feature", "geometry": {"type": "Point", "coordinates": [153.168733, -28.7748]}, "properties": {}}, {"type": "Feature", "geometry": {"type": "Point", "coordinates": [-0.889765, 52.762279]}, "properties": {}}, {"type": "Feature", "geometry": {"type": "Point", "coordinates": [-74.055411, 4.604176]}, "properties": {}}, {"type": "Feature", "geometry": {"type": "Point", "coordinates": [3.594104, 50.546906]}, "properties": {}}, {"type": "Feature", "geometry": {"type": "Point", "coordinates": [-8.691756, 42.157306]}, "properties": {}}, {"type": "Feature", "geometry": {"type": "Point", "coordinates": [-1.887728, 53.333988]}, "properties": {}}, {"type": "Feature", "geometry": {"type": "Point", "coordinates": [-1.801467, 51.07244]}, "properties": {}}, {"type": "Feature", "geometry": {"type": "Point", "coordinates": [-0.026619, 51.440306]}, "properties": {}}, {"type": "Feature", "geometry": {"type": "Point", "coordinates": [16.766296, 47.919047]}, "properties": {}}, {"type": "Feature", "geometry": {"type": "Point", "coordinates": [16.273953, 48.005418]}, "properties": {}}, {"type": "Feature", "geometry": {"type": "Point", "coordinates": [16.361525, 47.00956]}, "properties": {}}, {"type": "Feature", "geometry": {"type": "Point", "coordinates": [6.982918, 50.212505]}, "properties": {}}, {"type": "Feature", "geometry": {"type": "Point", "coordinates": [18.952672, 47.515264]}, "properties": {}}, {"type": "Feature", "geometry": {"type": "Point", "coordinates": [9.957796, 51.692648]}, "properties": {}}, {"type": "Feature", "geometry": {"type": "Point", "coordinates": [18.959614, 46.745325]}, "properties": {}}, {"type": "Feature", "geometry": {"type": "Point", "coordinates": [-1.558657, 52.426359]}, "properties": {}}, {"type": "Feature", "geometry": {"type": "Point", "coordinates": [11.033928, 48.104694]}, "properties": {}}, {"type": "Feature", "geometry": {"type": "Point", "coordinates": [-2.274679, 53.067434]}, "properties": {}}, {"type": "Feature", "geometry": {"type": "Point", "coordinates": [17.039242, 52.486458]}, "properties": {}}, {"type": "Feature", "geometry": {"type": "Point", "coordinates": [-1.572791, 53.092127]}, "properties": {}}, {"type": "Feature", "geometry": {"type": "Point", "coordinates": [16.299999, 38.905171]}, "properties": {}}, {"type": "Feature", "geometry": {"type": "Point", "coordinates": [29.984949, -23.858468]}, "properties": {}}, {"type": "Feature", "geometry": {"type": "Point", "coordinates": [16.765165, 47.91913]}, "properties": {}}, {"type": "Feature", "geometry": {"type": "Point", "coordinates": [16.765782, 47.919295]}, "properties": {}}, {"type": "Feature", "geometry": {"type": "Point", "coordinates": [17.148527, 52.096962]}, "properties": {}}, {"type": "Feature", "geometry": {"type": "Point", "coordinates": [-7.736293, 41.298702]}, "properties": {}}, {"type": "Feature", "geometry": {"type": "Point", "coordinates": [5.589291, 58.912209]}, "properties": {}}, {"type": "Feature", "geometry": {"type": "Point", "coordinates": [-2.985467, 53.512745]}, "properties": {}}, {"type": "Feature", "geometry": {"type": "Point", "coordinates": [0.139873, 50.789873]}, "properties": {}}, {"type": "Feature", "geometry": {"type": "Point", "coordinates": [-1.803372, 51.059889]}, "properties": {}}, {"type": "Feature", "geometry": {"type": "Point", "coordinates": [-1.60905, 53.26855]}, "properties": {}}, {"type": "Feature", "geometry": {"type": "Point", "coordinates": [-0.722514, 50.837983]}, "properties": {}}, {"type": "Feature", "geometry": {"type": "Point", "coordinates": [-0.753593, 50.95073]}, "properties": {}}, {"type": "Feature", "geometry": {"type": "Point", "coordinates": [0.138088, 50.791165]}, "properties": {}}, {"type": "Feature", "geometry": {"type": "Point", "coordinates": [-0.505198, 54.246909]}, "properties": {}}, {"type": "Feature", "geometry": {"type": "Point", "coordinates": [-0.95524, 53.55424]}, "properties": {}}, {"type": "Feature", "geometry": {"type": "Point", "coordinates": [-2.997585, 52.580104]}, "properties": {}}, {"type": "Feature", "geometry": {"type": "Point", "coordinates": [-2.202525, 51.429468]}, "properties": {}}, {"type": "Feature", "geometry": {"type": "Point", "coordinates": [-0.550906, 54.256456]}, "properties": {}}, {"type": "Feature", "geometry": {"type": "Point", "coordinates": [0.347234, 50.871732]}, "properties": {}}, {"type": "Feature", "geometry": {"type": "Point", "coordinates": [0.333869, 50.870246]}, "properties": {}}, {"type": "Feature", "geometry": {"type": "Point", "coordinates": [-1.945167, 53.317038]}, "properties": {}}, {"type": "Feature", "geometry": {"type": "Point", "coordinates": [0.128619, 50.784188]}, "properties": {}}, {"type": "Feature", "geometry": {"type": "Point", "coordinates": [-2.730991, 53.355185]}, "properties": {}}, {"type": "Feature", "geometry": {"type": "Point", "coordinates": [-1.798578, 51.059135]}, "properties": {}}, {"type": "Feature", "geometry": {"type": "Point", "coordinates": [4.6, 52.5]}, "properties": {}}, {"type": "Feature", "geometry": {"type": "Point", "coordinates": [5.15, 51.65]}, "properties": {}}, {"type": "Feature", "geometry": {"type": "Point", "coordinates": [5.65, 52.05]}, "properties": {}}, {"type": "Feature", "geometry": {"type": "Point", "coordinates": [6.8, 53.1]}, "properties": {}}, {"type": "Feature", "geometry": {"type": "Point", "coordinates": [5.5, 52.0]}, "properties": {}}, {"type": "Feature", "geometry": {"type": "Point", "coordinates": [5.35, 51.6]}, "properties": {}}, {"type": "Feature", "geometry": {"type": "Point", "coordinates": [4.05, 51.9]}, "properties": {}}, {"type": "Feature", "geometry": {"type": "Point", "coordinates": [5.75, 51.4]}, "properties": {}}, {"type": "Feature", "geometry": {"type": "Point", "coordinates": [5.3, 53.35]}, "properties": {}}, {"type": "Feature", "geometry": {"type": "Point", "coordinates": [4.95, 52.45]}, "properties": {}}, {"type": "Feature", "geometry": {"type": "Point", "coordinates": [5.05, 52.0]}, "properties": {}}, {"type": "Feature", "geometry": {"type": "Point", "coordinates": [4.5, 52.25]}, "properties": {}}, {"type": "Feature", "geometry": {"type": "Point", "coordinates": [4.8, 52.3]}, "properties": {}}, {"type": "Feature", "geometry": {"type": "Point", "coordinates": [5.65, 52.0]}, "properties": {}}, {"type": "Feature", "geometry": {"type": "Point", "coordinates": [5.05, 51.55]}, "properties": {}}, {"type": "Feature", "geometry": {"type": "Point", "coordinates": [6.05, 50.85]}, "properties": {}}, {"type": "Feature", "geometry": {"type": "Point", "coordinates": [7.292476, 51.189807]}, "properties": {}}, {"type": "Feature", "geometry": {"type": "Point", "coordinates": [5.6, 51.65]}, "properties": {}}, {"type": "Feature", "geometry": {"type": "Point", "coordinates": [6.15, 53.05]}, "properties": {}}, {"type": "Feature", "geometry": {"type": "Point", "coordinates": [5.6, 52.2]}, "properties": {}}, {"type": "Feature", "geometry": {"type": "Point", "coordinates": [5.0, 51.5]}, "properties": {}}, {"type": "Feature", "geometry": {"type": "Point", "coordinates": [5.65, 51.95]}, "properties": {}}, {"type": "Feature", "geometry": {"type": "Point", "coordinates": [5.6, 51.9]}, "properties": {}}, {"type": "Feature", "geometry": {"type": "Point", "coordinates": [5.5, 51.6]}, "properties": {}}, {"type": "Feature", "geometry": {"type": "Point", "coordinates": [4.0, 51.35]}, "properties": {}}, {"type": "Feature", "geometry": {"type": "Point", "coordinates": [5.75, 51.75]}, "properties": {}}, {"type": "Feature", "geometry": {"type": "Point", "coordinates": [5.05, 51.55]}, "properties": {}}, {"type": "Feature", "geometry": {"type": "Point", "coordinates": [5.3, 51.7]}, "properties": {}}, {"type": "Feature", "geometry": {"type": "Point", "coordinates": [5.8, 52.5]}, "properties": {}}, {"type": "Feature", "geometry": {"type": "Point", "coordinates": [5.3, 51.7]}, "properties": {}}, {"type": "Feature", "geometry": {"type": "Point", "coordinates": [8.277338, 50.001917]}, "properties": {}}, {"type": "Feature", "geometry": {"type": "Point", "coordinates": [6.25, 53.05]}, "properties": {}}, {"type": "Feature", "geometry": {"type": "Point", "coordinates": [5.85, 51.6]}, "properties": {}}, {"type": "Feature", "geometry": {"type": "Point", "coordinates": [4.85, 52.85]}, "properties": {}}, {"type": "Feature", "geometry": {"type": "Point", "coordinates": [5.2, 52.3]}, "properties": {}}, {"type": "Feature", "geometry": {"type": "Point", "coordinates": [5.8, 51.7]}, "properties": {}}, {"type": "Feature", "geometry": {"type": "Point", "coordinates": [4.95, 51.45]}, "properties": {}}, {"type": "Feature", "geometry": {"type": "Point", "coordinates": [5.4, 52.45]}, "properties": {}}, {"type": "Feature", "geometry": {"type": "Point", "coordinates": [4.8, 51.55]}, "properties": {}}, {"type": "Feature", "geometry": {"type": "Point", "coordinates": [5.45, 51.95]}, "properties": {}}, {"type": "Feature", "geometry": {"type": "Point", "coordinates": [5.8, 50.8]}, "properties": {}}, {"type": "Feature", "geometry": {"type": "Point", "coordinates": [5.75, 50.85]}, "properties": {}}, {"type": "Feature", "geometry": {"type": "Point", "coordinates": [6.05, 50.85]}, "properties": {}}, {"type": "Feature", "geometry": {"type": "Point", "coordinates": [5.4, 52.6]}, "properties": {}}, {"type": "Feature", "geometry": {"type": "Point", "coordinates": [4.5, 51.8]}, "properties": {}}, {"type": "Feature", "geometry": {"type": "Point", "coordinates": [5.75, 52.25]}, "properties": {}}, {"type": "Feature", "geometry": {"type": "Point", "coordinates": [4.6, 52.35]}, "properties": {}}, {"type": "Feature", "geometry": {"type": "Point", "coordinates": [8.277329, 50.001917]}, "properties": {}}, {"type": "Feature", "geometry": {"type": "Point", "coordinates": [4.75, 51.75]}, "properties": {}}, {"type": "Feature", "geometry": {"type": "Point", "coordinates": [4.3, 52.0]}, "properties": {}}, {"type": "Feature", "geometry": {"type": "Point", "coordinates": [14.333178, 48.345049]}, "properties": {}}, {"type": "Feature", "geometry": {"type": "Point", "coordinates": [5.35, 51.9]}, "properties": {}}, {"type": "Feature", "geometry": {"type": "Point", "coordinates": [5.8, 51.7]}, "properties": {}}, {"type": "Feature", "geometry": {"type": "Point", "coordinates": [5.75, 51.7]}, "properties": {}}, {"type": "Feature", "geometry": {"type": "Point", "coordinates": [5.2, 52.35]}, "properties": {}}, {"type": "Feature", "geometry": {"type": "Point", "coordinates": [5.0, 51.55]}, "properties": {}}, {"type": "Feature", "geometry": {"type": "Point", "coordinates": [4.3, 51.85]}, "properties": {}}, {"type": "Feature", "geometry": {"type": "Point", "coordinates": [5.25, 52.4]}, "properties": {}}, {"type": "Feature", "geometry": {"type": "Point", "coordinates": [7.180892, 51.206037]}, "properties": {}}, {"type": "Feature", "geometry": {"type": "Point", "coordinates": [6.4, 52.2]}, "properties": {}}, {"type": "Feature", "geometry": {"type": "Point", "coordinates": [5.8, 51.7]}, "properties": {}}, {"type": "Feature", "geometry": {"type": "Point", "coordinates": [5.95, 51.95]}, "properties": {}}, {"type": "Feature", "geometry": {"type": "Point", "coordinates": [5.25, 51.7]}, "properties": {}}, {"type": "Feature", "geometry": {"type": "Point", "coordinates": [5.2, 52.35]}, "properties": {}}, {"type": "Feature", "geometry": {"type": "Point", "coordinates": [5.9, 51.8]}, "properties": {}}, {"type": "Feature", "geometry": {"type": "Point", "coordinates": [6.164971, 51.152395]}, "properties": {}}, {"type": "Feature", "geometry": {"type": "Point", "coordinates": [4.5, 52.15]}, "properties": {}}, {"type": "Feature", "geometry": {"type": "Point", "coordinates": [6.25, 52.5]}, "properties": {}}, {"type": "Feature", "geometry": {"type": "Point", "coordinates": [5.95, 51.3]}, "properties": {}}, {"type": "Feature", "geometry": {"type": "Point", "coordinates": [4.65, 51.8]}, "properties": {}}, {"type": "Feature", "geometry": {"type": "Point", "coordinates": [3.9, 51.65]}, "properties": {}}, {"type": "Feature", "geometry": {"type": "Point", "coordinates": [5.2, 51.7]}, "properties": {}}, {"type": "Feature", "geometry": {"type": "Point", "coordinates": [5.0, 51.55]}, "properties": {}}, {"type": "Feature", "geometry": {"type": "Point", "coordinates": [5.65, 51.95]}, "properties": {}}, {"type": "Feature", "geometry": {"type": "Point", "coordinates": [6.45, 52.35]}, "properties": {}}, {"type": "Feature", "geometry": {"type": "Point", "coordinates": [6.15, 51.15]}, "properties": {}}, {"type": "Feature", "geometry": {"type": "Point", "coordinates": [4.65, 51.85]}, "properties": {}}, {"type": "Feature", "geometry": {"type": "Point", "coordinates": [6.0, 51.9]}, "properties": {}}, {"type": "Feature", "geometry": {"type": "Point", "coordinates": [13.240582, 47.815726]}, "properties": {}}, {"type": "Feature", "geometry": {"type": "Point", "coordinates": [13.267048, 47.869869]}, "properties": {}}, {"type": "Feature", "geometry": {"type": "Point", "coordinates": [5.05, 51.55]}, "properties": {}}, {"type": "Feature", "geometry": {"type": "Point", "coordinates": [5.8, 51.7]}, "properties": {}}, {"type": "Feature", "geometry": {"type": "Point", "coordinates": [6.55, 52.3]}, "properties": {}}, {"type": "Feature", "geometry": {"type": "Point", "coordinates": [5.65, 50.75]}, "properties": {}}, {"type": "Feature", "geometry": {"type": "Point", "coordinates": [4.4, 52.0]}, "properties": {}}, {"type": "Feature", "geometry": {"type": "Point", "coordinates": [4.55, 52.45]}, "properties": {}}, {"type": "Feature", "geometry": {"type": "Point", "coordinates": [6.25, 52.5]}, "properties": {}}, {"type": "Feature", "geometry": {"type": "Point", "coordinates": [4.6, 52.5]}, "properties": {}}, {"type": "Feature", "geometry": {"type": "Point", "coordinates": [5.3, 51.65]}, "properties": {}}, {"type": "Feature", "geometry": {"type": "Point", "coordinates": [5.85, 51.75]}, "properties": {}}, {"type": "Feature", "geometry": {"type": "Point", "coordinates": [13.913054, 48.06745]}, "properties": {}}, {"type": "Feature", "geometry": {"type": "Point", "coordinates": [6.1, 53.1]}, "properties": {}}, {"type": "Feature", "geometry": {"type": "Point", "coordinates": [4.7, 51.95]}, "properties": {}}, {"type": "Feature", "geometry": {"type": "Point", "coordinates": [13.364378, 48.195502]}, "properties": {}}, {"type": "Feature", "geometry": {"type": "Point", "coordinates": [5.75, 51.7]}, "properties": {}}, {"type": "Feature", "geometry": {"type": "Point", "coordinates": [5.15, 52.1]}, "properties": {}}, {"type": "Feature", "geometry": {"type": "Point", "coordinates": [4.6, 52.35]}, "properties": {}}, {"type": "Feature", "geometry": {"type": "Point", "coordinates": [5.7, 51.75]}, "properties": {}}, {"type": "Feature", "geometry": {"type": "Point", "coordinates": [4.7, 51.75]}, "properties": {}}, {"type": "Feature", "geometry": {"type": "Point", "coordinates": [6.15, 52.25]}, "properties": {}}, {"type": "Feature", "geometry": {"type": "Point", "coordinates": [5.25, 51.55]}, "properties": {}}, {"type": "Feature", "geometry": {"type": "Point", "coordinates": [4.65, 51.75]}, "properties": {}}]}