{"type": "FeatureCollection", "name": "Vitex agnus-castus", "features": [{"type": "Feature", "geometry": {"type": "Point", "coordinates": [32.915688, 34.928597]}, "properties": {}}, {"type": "Feature", "geometry": {"type": "Point", "coordinates": [-95.409944, 29.580019]}, "properties": {}}, {"type": "Feature", "geometry": {"type": "Point", "coordinates": [-97.350327, 27.672424]}, "properties": {}}, {"type": "Feature", "geometry": {"type": "Point", "coordinates": [33.403237, 44.55971]}, "properties": {}}, {"type": "Feature", "geometry": {"type": "Point", "coordinates": [33.461604, 44.574472]}, "properties": {}}, {"type": "Feature", "geometry": {"type": "Point", "coordinates": [3.160309, 42.428406]}, "properties": {}}, {"type": "Feature", "geometry": {"type": "Point", "coordinates": [33.458553, 44.57405]}, "properties": {}}, {"type": "Feature", "geometry": {"type": "Point", "coordinates": [-98.535555, 29.452219]}, "properties": {}}, {"type": "Feature", "geometry": {"type": "Point", "coordinates": [-97.762824, 30.281447]}, "properties": {}}, {"type": "Feature", "geometry": {"type": "Point", "coordinates": [-97.773934, 26.026833]}, "properties": {}}, {"type": "Feature", "geometry": {"type": "Point", "coordinates": [-97.728471, 30.308713]}, "properties": {}}, {"type": "Feature", "geometry": {"type": "Point", "coordinates": [35.503414, 32.867662]}, "properties": {}}, {"type": "Feature", "geometry": {"type": "Point", "coordinates": [-97.60788, 30.464916]}, "properties": {}}, {"type": "Feature", "geometry": {"type": "Point", "coordinates": [-95.645317, 29.627487]}, "properties": {}}, {"type": "Feature", "geometry": {"type": "Point", "coordinates": [-97.310314, 30.103187]}, "properties": {}}, {"type": "Feature", "geometry": {"type": "Point", "coordinates": [-97.166691, 32.741696]}, "properties": {}}, {"type": "Feature", "geometry": {"type": "Point", "coordinates": [-98.469063, 30.796503]}, "properties": {}}, {"type": "Feature", "geometry": {"type": "Point", "coordinates": [-98.482383, 29.464937]}, "properties": {}}, {"type": "Feature", "geometry": {"type": "Point", "coordinates": [35.119826, 32.777919]}, "properties": {}}, {"type": "Feature", "geometry": {"type": "Point", "coordinates": [35.359456, 31.381024]}, "properties": {}}, {"type": "Feature", "geometry": {"type": "Point", "coordinates": [35.689154, 33.158213]}, "properties": {}}, {"type": "Feature", "geometry": {"type": "Point", "coordinates": [35.016599, 32.385666]}, "properties": {}}, {"type": "Feature", "geometry": {"type": "Point", "coordinates": [35.372868, 31.379816]}, "properties": {}}, {"type": "Feature", "geometry": {"type": "Point", "coordinates": [35.373908, 31.379346]}, "properties": {}}, {"type": "Feature", "geometry": {"type": "Point", "coordinates": [35.371847, 31.456]}, "properties": {}}, {"type": "Feature", "geometry": {"type": "Point", "coordinates": [35.685471, 33.153179]}, "properties": {}}, {"type": "Feature", "geometry": {"type": "Point", "coordinates": [34.762978, 31.585795]}, "properties": {}}, {"type": "Feature", "geometry": {"type": "Point", "coordinates": [-98.641317, 29.473638]}, "properties": {}}, {"type": "Feature", "geometry": {"type": "Point", "coordinates": [-98.642132, 29.473123]}, "properties": {}}, {"type": "Feature", "geometry": {"type": "Point", "coordinates": [-97.216367, 32.689656]}, "properties": {}}, {"type": "Feature", "geometry": {"type": "Point", "coordinates": [34.749828, 31.897323]}, "properties": {}}, {"type": "Feature", "geometry": {"type": "Point", "coordinates": [35.185097, 33.07349]}, "properties": {}}, {"type": "Feature", "geometry": {"type": "Point", "coordinates": [35.375467, 31.836038]}, "properties": {}}, {"type": "Feature", "geometry": {"type": "Point", "coordinates": [34.847284, 31.706852]}, "properties": {}}, {"type": "Feature", "geometry": {"type": "Point", "coordinates": [34.750048, 31.897739]}, "properties": {}}, {"type": "Feature", "geometry": {"type": "Point", "coordinates": [35.178179, 33.073533]}, "properties": {}}, {"type": "Feature", "geometry": {"type": "Point", "coordinates": [35.41126, 31.842018]}, "properties": {}}, {"type": "Feature", "geometry": {"type": "Point", "coordinates": [35.178533, 33.03267]}, "properties": {}}, {"type": "Feature", "geometry": {"type": "Point", "coordinates": [35.343796, 31.835743]}, "properties": {}}, {"type": "Feature", "geometry": {"type": "Point", "coordinates": [35.350279, 31.840669]}, "properties": {}}, {"type": "Feature", "geometry": {"type": "Point", "coordinates": [-97.593506, 33.403566]}, "properties": {}}, {"type": "Feature", "geometry": {"type": "Point", "coordinates": [-63.698272, -35.680978]}, "properties": {}}, {"type": "Feature", "geometry": {"type": "Point", "coordinates": [-98.33133, 29.54217]}, "properties": {}}, {"type": "Feature", "geometry": {"type": "Point", "coordinates": [5.392638, 43.281542]}, "properties": {}}, {"type": "Feature", "geometry": {"type": "Point", "coordinates": [-112.072379, 33.421654]}, "properties": {}}, {"type": "Feature", "geometry": {"type": "Point", "coordinates": [35.460881, 32.746731]}, "properties": {}}, {"type": "Feature", "geometry": {"type": "Point", "coordinates": [35.325839, 31.471934]}, "properties": {}}, {"type": "Feature", "geometry": {"type": "Point", "coordinates": [-97.963609, 30.389675]}, "properties": {}}, {"type": "Feature", "geometry": {"type": "Point", "coordinates": [14.699744, 44.950261]}, "properties": {}}, {"type": "Feature", "geometry": {"type": "Point", "coordinates": [-97.233394, 32.605938]}, "properties": {}}, {"type": "Feature", "geometry": {"type": "Point", "coordinates": [-98.498612, 29.390587]}, "properties": {}}, {"type": "Feature", "geometry": {"type": "Point", "coordinates": [-97.757347, 30.417948]}, "properties": {}}, {"type": "Feature", "geometry": {"type": "Point", "coordinates": [-96.911426, 33.118327]}, "properties": {}}, {"type": "Feature", "geometry": {"type": "Point", "coordinates": [-97.902817, 29.899275]}, "properties": {}}, {"type": "Feature", "geometry": {"type": "Point", "coordinates": [14.613342, 45.187625]}, "properties": {}}, {"type": "Feature", "geometry": {"type": "Point", "coordinates": [-98.725023, 29.508108]}, "properties": {}}, {"type": "Feature", "geometry": {"type": "Point", "coordinates": [-96.911402, 33.117908]}, "properties": {}}, {"type": "Feature", "geometry": {"type": "Point", "coordinates": [14.612708, 45.187606]}, "properties": {}}, {"type": "Feature", "geometry": {"type": "Point", "coordinates": [14.700117, 44.950457]}, "properties": {}}, {"type": "Feature", "geometry": {"type": "Point", "coordinates": [-97.951353, 29.601147]}, "properties": {}}, {"type": "Feature", "geometry": {"type": "Point", "coordinates": [-9.471244, 30.464595]}, "properties": {}}, {"type": "Feature", "geometry": {"type": "Point", "coordinates": [-97.615125, 30.462057]}, "properties": {}}, {"type": "Feature", "geometry": {"type": "Point", "coordinates": [-97.928537, 29.893842]}, "properties": {}}, {"type": "Feature", "geometry": {"type": "Point", "coordinates": [-97.607637, 30.466193]}, "properties": {}}, {"type": "Feature", "geometry": {"type": "Point", "coordinates": [-97.784875, 32.732063]}, "properties": {}}, {"type": "Feature", "geometry": {"type": "Point", "coordinates": [30.562788, 36.73972]}, "properties": {}}, {"type": "Feature", "geometry": {"type": "Point", "coordinates": [-98.883287, 29.345447]}, "properties": {}}, {"type": "Feature", "geometry": {"type": "Point", "coordinates": [-98.471932, 29.602906]}, "properties": {}}, {"type": "Feature", "geometry": {"type": "Point", "coordinates": [-112.032559, 33.416073]}, "properties": {}}, {"type": "Feature", "geometry": {"type": "Point", "coordinates": [-112.041861, 33.416319]}, "properties": {}}, {"type": "Feature", "geometry": {"type": "Point", "coordinates": [-115.129203, 36.182862]}, "properties": {}}, {"type": "Feature", "geometry": {"type": "Point", "coordinates": [35.040853, 32.566607]}, "properties": {}}, {"type": "Feature", "geometry": {"type": "Point", "coordinates": [35.016485, 32.55825]}, "properties": {}}, {"type": "Feature", "geometry": {"type": "Point", "coordinates": [-98.369859, 30.260537]}, "properties": {}}, {"type": "Feature", "geometry": {"type": "Point", "coordinates": [-95.011592, 29.367964]}, "properties": {}}, {"type": "Feature", "geometry": {"type": "Point", "coordinates": [-96.586105, 33.011642]}, "properties": {}}, {"type": "Feature", "geometry": {"type": "Point", "coordinates": [-98.174597, 30.429171]}, "properties": {}}, {"type": "Feature", "geometry": {"type": "Point", "coordinates": [35.074743, 32.569874]}, "properties": {}}, {"type": "Feature", "geometry": {"type": "Point", "coordinates": [-7.978331, 29.734555]}, "properties": {}}, {"type": "Feature", "geometry": {"type": "Point", "coordinates": [-97.607826, 30.465274]}, "properties": {}}, {"type": "Feature", "geometry": {"type": "Point", "coordinates": [-89.813408, 35.004776]}, "properties": {}}, {"type": "Feature", "geometry": {"type": "Point", "coordinates": [-97.350328, 27.672427]}, "properties": {}}, {"type": "Feature", "geometry": {"type": "Point", "coordinates": [30.559554, 36.741327]}, "properties": {}}, {"type": "Feature", "geometry": {"type": "Point", "coordinates": [-106.74321, 32.323539]}, "properties": {}}, {"type": "Feature", "geometry": {"type": "Point", "coordinates": [35.395854, 31.341102]}, "properties": {}}, {"type": "Feature", "geometry": {"type": "Point", "coordinates": [35.39576, 31.341093]}, "properties": {}}, {"type": "Feature", "geometry": {"type": "Point", "coordinates": [34.822113, 31.804529]}, "properties": {}}, {"type": "Feature", "geometry": {"type": "Point", "coordinates": [35.445955, 32.497183]}, "properties": {}}, {"type": "Feature", "geometry": {"type": "Point", "coordinates": [35.445966, 32.497372]}, "properties": {}}, {"type": "Feature", "geometry": {"type": "Point", "coordinates": [35.445944, 32.497282]}, "properties": {}}, {"type": "Feature", "geometry": {"type": "Point", "coordinates": [35.445859, 32.497093]}, "properties": {}}, {"type": "Feature", "geometry": {"type": "Point", "coordinates": [35.446125, 32.497056]}, "properties": {}}, {"type": "Feature", "geometry": {"type": "Point", "coordinates": [34.814492, 31.798843]}, "properties": {}}, {"type": "Feature", "geometry": {"type": "Point", "coordinates": [-97.756304, 30.232839]}, "properties": {}}, {"type": "Feature", "geometry": {"type": "Point", "coordinates": [-111.907518, 33.433609]}, "properties": {}}, {"type": "Feature", "geometry": {"type": "Point", "coordinates": [-100.934217, 29.554237]}, "properties": {}}, {"type": "Feature", "geometry": {"type": "Point", "coordinates": [-97.872202, 29.85281]}, "properties": {}}, {"type": "Feature", "geometry": {"type": "Point", "coordinates": [-97.158976, 31.495526]}, "properties": {}}, {"type": "Feature", "geometry": {"type": "Point", "coordinates": [-98.218228, 32.21599]}, "properties": {}}, {"type": "Feature", "geometry": {"type": "Point", "coordinates": [-111.834723, 33.86151]}, "properties": {}}, {"type": "Feature", "geometry": {"type": "Point", "coordinates": [-96.525375, 31.513867]}, "properties": {}}, {"type": "Feature", "geometry": {"type": "Point", "coordinates": [35.473252, 32.865971]}, "properties": {}}, {"type": "Feature", "geometry": {"type": "Point", "coordinates": [23.93173, 35.477478]}, "properties": {}}, {"type": "Feature", "geometry": {"type": "Point", "coordinates": [-97.218599, 31.374204]}, "properties": {}}, {"type": "Feature", "geometry": {"type": "Point", "coordinates": [13.762466, 44.908076]}, "properties": {}}, {"type": "Feature", "geometry": {"type": "Point", "coordinates": [-98.484147, 29.404005]}, "properties": {}}, {"type": "Feature", "geometry": {"type": "Point", "coordinates": [-95.121813, 29.563089]}, "properties": {}}, {"type": "Feature", "geometry": {"type": "Point", "coordinates": [-112.0801, 33.420462]}, "properties": {}}, {"type": "Feature", "geometry": {"type": "Point", "coordinates": [-96.781753, 33.227795]}, "properties": {}}, {"type": "Feature", "geometry": {"type": "Point", "coordinates": [-95.496147, 29.615928]}, "properties": {}}, {"type": "Feature", "geometry": {"type": "Point", "coordinates": [-98.544363, 29.453092]}, "properties": {}}, {"type": "Feature", "geometry": {"type": "Point", "coordinates": [-98.517267, 29.3658]}, "properties": {}}, {"type": "Feature", "geometry": {"type": "Point", "coordinates": [23.896654, 37.77802]}, "properties": {}}, {"type": "Feature", "geometry": {"type": "Point", "coordinates": [-111.676693, 33.306095]}, "properties": {}}, {"type": "Feature", "geometry": {"type": "Point", "coordinates": [-97.200707, 32.712852]}, "properties": {}}, {"type": "Feature", "geometry": {"type": "Point", "coordinates": [-97.815987, 30.230991]}, "properties": {}}, {"type": "Feature", "geometry": {"type": "Point", "coordinates": [-98.466815, 29.46651]}, "properties": {}}, {"type": "Feature", "geometry": {"type": "Point", "coordinates": [5.397818, 43.306952]}, "properties": {}}, {"type": "Feature", "geometry": {"type": "Point", "coordinates": [-115.053432, 36.047258]}, "properties": {}}, {"type": "Feature", "geometry": {"type": "Point", "coordinates": [-98.48442, 29.404107]}, "properties": {}}, {"type": "Feature", "geometry": {"type": "Point", "coordinates": [-95.542035, 30.169833]}, "properties": {}}, {"type": "Feature", "geometry": {"type": "Point", "coordinates": [-98.5685, 29.449944]}, "properties": {}}, {"type": "Feature", "geometry": {"type": "Point", "coordinates": [-97.785221, 30.366106]}, "properties": {}}, {"type": "Feature", "geometry": {"type": "Point", "coordinates": [-97.228091, 31.522235]}, "properties": {}}, {"type": "Feature", "geometry": {"type": "Point", "coordinates": [-96.736651, 33.115378]}, "properties": {}}, {"type": "Feature", "geometry": {"type": "Point", "coordinates": [-97.474575, 32.653929]}, "properties": {}}, {"type": "Feature", "geometry": {"type": "Point", "coordinates": [-97.708773, 26.161701]}, "properties": {}}, {"type": "Feature", "geometry": {"type": "Point", "coordinates": [-98.523139, 29.303497]}, "properties": {}}, {"type": "Feature", "geometry": {"type": "Point", "coordinates": [-97.967303, 29.566584]}, "properties": {}}, {"type": "Feature", "geometry": {"type": "Point", "coordinates": [-98.621506, 29.483052]}, "properties": {}}, {"type": "Feature", "geometry": {"type": "Point", "coordinates": [-112.066146, 33.42059]}, "properties": {}}, {"type": "Feature", "geometry": {"type": "Point", "coordinates": [23.579371, 35.500289]}, "properties": {}}, {"type": "Feature", "geometry": {"type": "Point", "coordinates": [26.25637, 35.10077]}, "properties": {}}, {"type": "Feature", "geometry": {"type": "Point", "coordinates": [-99.140704, 30.044465]}, "properties": {}}, {"type": "Feature", "geometry": {"type": "Point", "coordinates": [-95.259256, 32.321533]}, "properties": {}}, {"type": "Feature", "geometry": {"type": "Point", "coordinates": [-97.495199, 31.130002]}, "properties": {}}, {"type": "Feature", "geometry": {"type": "Point", "coordinates": [-97.515507, 25.978282]}, "properties": {}}, {"type": "Feature", "geometry": {"type": "Point", "coordinates": [-98.481553, 29.444283]}, "properties": {}}, {"type": "Feature", "geometry": {"type": "Point", "coordinates": [-97.047425, 30.857097]}, "properties": {}}, {"type": "Feature", "geometry": {"type": "Point", "coordinates": [-98.49987, 29.555571]}, "properties": {}}, {"type": "Feature", "geometry": {"type": "Point", "coordinates": [35.361682, 31.843181]}, "properties": {}}, {"type": "Feature", "geometry": {"type": "Point", "coordinates": [34.840253, 31.705534]}, "properties": {}}, {"type": "Feature", "geometry": {"type": "Point", "coordinates": [34.854276, 31.707341]}, "properties": {}}, {"type": "Feature", "geometry": {"type": "Point", "coordinates": [34.8561, 31.704784]}, "properties": {}}, {"type": "Feature", "geometry": {"type": "Point", "coordinates": [-98.976401, 29.681189]}, "properties": {}}, {"type": "Feature", "geometry": {"type": "Point", "coordinates": [-97.465422, 31.198347]}, "properties": {}}, {"type": "Feature", "geometry": {"type": "Point", "coordinates": [-98.564788, 29.44937]}, "properties": {}}, {"type": "Feature", "geometry": {"type": "Point", "coordinates": [-96.633721, 33.185335]}, "properties": {}}, {"type": "Feature", "geometry": {"type": "Point", "coordinates": [-97.837386, 30.090469]}, "properties": {}}, {"type": "Feature", "geometry": {"type": "Point", "coordinates": [-111.959883, 33.436212]}, "properties": {}}, {"type": "Feature", "geometry": {"type": "Point", "coordinates": [-98.482284, 29.438577]}, "properties": {}}, {"type": "Feature", "geometry": {"type": "Point", "coordinates": [-98.558503, 29.510562]}, "properties": {}}, {"type": "Feature", "geometry": {"type": "Point", "coordinates": [-98.786058, 29.526134]}, "properties": {}}, {"type": "Feature", "geometry": {"type": "Point", "coordinates": [-97.140739, 33.186705]}, "properties": {}}, {"type": "Feature", "geometry": {"type": "Point", "coordinates": [-98.536693, 29.454592]}, "properties": {}}, {"type": "Feature", "geometry": {"type": "Point", "coordinates": [-112.154141, 33.564849]}, "properties": {}}, {"type": "Feature", "geometry": {"type": "Point", "coordinates": [-98.437417, 29.475675]}, "properties": {}}, {"type": "Feature", "geometry": {"type": "Point", "coordinates": [-98.893867, 29.358059]}, "properties": {}}, {"type": "Feature", "geometry": {"type": "Point", "coordinates": [-95.466858, 29.786615]}, "properties": {}}, {"type": "Feature", "geometry": {"type": "Point", "coordinates": [-98.784183, 29.84316]}, "properties": {}}, {"type": "Feature", "geometry": {"type": "Point", "coordinates": [-96.71268, 32.833522]}, "properties": {}}, {"type": "Feature", "geometry": {"type": "Point", "coordinates": [-96.699928, 33.106453]}, "properties": {}}, {"type": "Feature", "geometry": {"type": "Point", "coordinates": [-98.481426, 29.444076]}, "properties": {}}, {"type": "Feature", "geometry": {"type": "Point", "coordinates": [-98.510238, 29.671482]}, "properties": {}}, {"type": "Feature", "geometry": {"type": "Point", "coordinates": [-98.123083, 29.355237]}, "properties": {}}, {"type": "Feature", "geometry": {"type": "Point", "coordinates": [24.467658, 35.202928]}, "properties": {}}, {"type": "Feature", "geometry": {"type": "Point", "coordinates": [-99.133435, 30.027043]}, "properties": {}}, {"type": "Feature", "geometry": {"type": "Point", "coordinates": [-98.88327, 29.34542]}, "properties": {}}, {"type": "Feature", "geometry": {"type": "Point", "coordinates": [-98.730325, 29.457567]}, "properties": {}}, {"type": "Feature", "geometry": {"type": "Point", "coordinates": [-112.072002, 33.41904]}, "properties": {}}, {"type": "Feature", "geometry": {"type": "Point", "coordinates": [-95.5271, 30.249147]}, "properties": {}}, {"type": "Feature", "geometry": {"type": "Point", "coordinates": [-98.472733, 29.461275]}, "properties": {}}, {"type": "Feature", "geometry": {"type": "Point", "coordinates": [-97.200537, 32.712672]}, "properties": {}}, {"type": "Feature", "geometry": {"type": "Point", "coordinates": [-98.02607, 30.053221]}, "properties": {}}, {"type": "Feature", "geometry": {"type": "Point", "coordinates": [-98.707343, 29.469781]}, "properties": {}}, {"type": "Feature", "geometry": {"type": "Point", "coordinates": [-97.792844, 30.254472]}, "properties": {}}, {"type": "Feature", "geometry": {"type": "Point", "coordinates": [-112.066427, 33.420603]}, "properties": {}}, {"type": "Feature", "geometry": {"type": "Point", "coordinates": [-98.466626, 29.466378]}, "properties": {}}, {"type": "Feature", "geometry": {"type": "Point", "coordinates": [-98.478526, 29.601344]}, "properties": {}}, {"type": "Feature", "geometry": {"type": "Point", "coordinates": [-98.552783, 29.564732]}, "properties": {}}, {"type": "Feature", "geometry": {"type": "Point", "coordinates": [-97.884933, 30.413028]}, "properties": {}}, {"type": "Feature", "geometry": {"type": "Point", "coordinates": [-98.725522, 29.775511]}, "properties": {}}, {"type": "Feature", "geometry": {"type": "Point", "coordinates": [-97.149092, 33.24439]}, "properties": {}}, {"type": "Feature", "geometry": {"type": "Point", "coordinates": [-98.637288, 29.581236]}, "properties": {}}, {"type": "Feature", "geometry": {"type": "Point", "coordinates": [-97.120364, 33.238658]}, "properties": {}}, {"type": "Feature", "geometry": {"type": "Point", "coordinates": [-98.976313, 29.681095]}, "properties": {}}, {"type": "Feature", "geometry": {"type": "Point", "coordinates": [-98.466786, 29.466494]}, "properties": {}}, {"type": "Feature", "geometry": {"type": "Point", "coordinates": [34.803867, 32.128728]}, "properties": {}}, {"type": "Feature", "geometry": {"type": "Point", "coordinates": [14.672422, 44.9668]}, "properties": {}}, {"type": "Feature", "geometry": {"type": "Point", "coordinates": [-112.37818, 33.509153]}, "properties": {}}, {"type": "Feature", "geometry": {"type": "Point", "coordinates": [-98.745815, 29.853667]}, "properties": {}}, {"type": "Feature", "geometry": {"type": "Point", "coordinates": [-98.553632, 29.886701]}, "properties": {}}, {"type": "Feature", "geometry": {"type": "Point", "coordinates": [-97.910422, 30.354017]}, "properties": {}}, {"type": "Feature", "geometry": {"type": "Point", "coordinates": [-98.726921, 29.789265]}, "properties": {}}, {"type": "Feature", "geometry": {"type": "Point", "coordinates": [14.552752, 45.014349]}, "properties": {}}, {"type": "Feature", "geometry": {"type": "Point", "coordinates": [-97.735161, 30.282081]}, "properties": {}}, {"type": "Feature", "geometry": {"type": "Point", "coordinates": [-97.720322, 30.299955]}, "properties": {}}, {"type": "Feature", "geometry": {"type": "Point", "coordinates": [-98.286779, 29.55919]}, "properties": {}}, {"type": "Feature", "geometry": {"type": "Point", "coordinates": [-98.130539, 30.027472]}, "properties": {}}, {"type": "Feature", "geometry": {"type": "Point", "coordinates": [-97.71686, 30.243751]}, "properties": {}}, {"type": "Feature", "geometry": {"type": "Point", "coordinates": [-98.689628, 29.617495]}, "properties": {}}, {"type": "Feature", "geometry": {"type": "Point", "coordinates": [34.803867, 32.128728]}, "properties": {}}, {"type": "Feature", "geometry": {"type": "Point", "coordinates": [-97.518856, 30.518161]}, "properties": {}}, {"type": "Feature", "geometry": {"type": "Point", "coordinates": [-97.448614, 32.0099]}, "properties": {}}, {"type": "Feature", "geometry": {"type": "Point", "coordinates": [-98.553694, 29.886659]}, "properties": {}}, {"type": "Feature", "geometry": {"type": "Point", "coordinates": [-97.710911, 30.249814]}, "properties": {}}, {"type": "Feature", "geometry": {"type": "Point", "coordinates": [-96.821291, 33.150427]}, "properties": {}}, {"type": "Feature", "geometry": {"type": "Point", "coordinates": [-98.697197, 29.796207]}, "properties": {}}, {"type": "Feature", "geometry": {"type": "Point", "coordinates": [-95.496453, 29.615807]}, "properties": {}}, {"type": "Feature", "geometry": {"type": "Point", "coordinates": [55.309995, 25.094661]}, "properties": {}}, {"type": "Feature", "geometry": {"type": "Point", "coordinates": [-99.119405, 30.055909]}, "properties": {}}, {"type": "Feature", "geometry": {"type": "Point", "coordinates": [-98.619749, 29.574426]}, "properties": {}}, {"type": "Feature", "geometry": {"type": "Point", "coordinates": [-95.417022, 30.30617]}, "properties": {}}, {"type": "Feature", "geometry": {"type": "Point", "coordinates": [-98.481912, 29.438208]}, "properties": {}}, {"type": "Feature", "geometry": {"type": "Point", "coordinates": [-98.397224, 30.719122]}, "properties": {}}, {"type": "Feature", "geometry": {"type": "Point", "coordinates": [-98.45283, 29.486175]}, "properties": {}}, {"type": "Feature", "geometry": {"type": "Point", "coordinates": [-98.503571, 29.556711]}, "properties": {}}, {"type": "Feature", "geometry": {"type": "Point", "coordinates": [-98.122748, 29.355439]}, "properties": {}}, {"type": "Feature", "geometry": {"type": "Point", "coordinates": [-98.13535, 29.709002]}, "properties": {}}, {"type": "Feature", "geometry": {"type": "Point", "coordinates": [-98.536665, 29.454605]}, "properties": {}}, {"type": "Feature", "geometry": {"type": "Point", "coordinates": [-98.713032, 29.797289]}, "properties": {}}, {"type": "Feature", "geometry": {"type": "Point", "coordinates": [-99.132917, 30.03249]}, "properties": {}}, {"type": "Feature", "geometry": {"type": "Point", "coordinates": [-98.458738, 29.629353]}, "properties": {}}, {"type": "Feature", "geometry": {"type": "Point", "coordinates": [-97.602331, 31.028881]}, "properties": {}}, {"type": "Feature", "geometry": {"type": "Point", "coordinates": [-5.988711, 37.428819]}, "properties": {}}, {"type": "Feature", "geometry": {"type": "Point", "coordinates": [-98.437418, 29.475674]}, "properties": {}}, {"type": "Feature", "geometry": {"type": "Point", "coordinates": [-98.47746, 29.597807]}, "properties": {}}, {"type": "Feature", "geometry": {"type": "Point", "coordinates": [-96.353967, 30.609742]}, "properties": {}}, {"type": "Feature", "geometry": {"type": "Point", "coordinates": [-98.503549, 29.556735]}, "properties": {}}, {"type": "Feature", "geometry": {"type": "Point", "coordinates": [-98.080176, 29.809687]}, "properties": {}}, {"type": "Feature", "geometry": {"type": "Point", "coordinates": [-97.403341, 31.063177]}, "properties": {}}, {"type": "Feature", "geometry": {"type": "Point", "coordinates": [-97.748644, 30.541776]}, "properties": {}}, {"type": "Feature", "geometry": {"type": "Point", "coordinates": [-98.475505, 29.599611]}, "properties": {}}, {"type": "Feature", "geometry": {"type": "Point", "coordinates": [-98.536119, 29.45459]}, "properties": {}}, {"type": "Feature", "geometry": {"type": "Point", "coordinates": [-98.738032, 29.481247]}, "properties": {}}, {"type": "Feature", "geometry": {"type": "Point", "coordinates": [-111.597655, 33.339992]}, "properties": {}}, {"type": "Feature", "geometry": {"type": "Point", "coordinates": [-115.053161, 36.039753]}, "properties": {}}, {"type": "Feature", "geometry": {"type": "Point", "coordinates": [-98.636978, 29.58106]}, "properties": {}}, {"type": "Feature", "geometry": {"type": "Point", "coordinates": [-98.477424, 29.597811]}, "properties": {}}, {"type": "Feature", "geometry": {"type": "Point", "coordinates": [-98.499861, 29.555426]}, "properties": {}}, {"type": "Feature", "geometry": {"type": "Point", "coordinates": [-96.711093, 32.833439]}, "properties": {}}, {"type": "Feature", "geometry": {"type": "Point", "coordinates": [-97.699317, 30.629208]}, "properties": {}}, {"type": "Feature", "geometry": {"type": "Point", "coordinates": [-96.858358, 32.85963]}, "properties": {}}, {"type": "Feature", "geometry": {"type": "Point", "coordinates": [-97.201078, 32.713046]}, "properties": {}}, {"type": "Feature", "geometry": {"type": "Point", "coordinates": [-96.712097, 32.833836]}, "properties": {}}, {"type": "Feature", "geometry": {"type": "Point", "coordinates": [-91.18851, 30.445489]}, "properties": {}}, {"type": "Feature", "geometry": {"type": "Point", "coordinates": [-98.509726, 29.64857]}, "properties": {}}, {"type": "Feature", "geometry": {"type": "Point", "coordinates": [-96.732252, 32.831404]}, "properties": {}}, {"type": "Feature", "geometry": {"type": "Point", "coordinates": [-98.466698, 29.466447]}, "properties": {}}, {"type": "Feature", "geometry": {"type": "Point", "coordinates": [-111.033224, 32.286414]}, "properties": {}}, {"type": "Feature", "geometry": {"type": "Point", "coordinates": [-98.118092, 29.535048]}, "properties": {}}, {"type": "Feature", "geometry": {"type": "Point", "coordinates": [-97.145829, 33.02383]}, "properties": {}}, {"type": "Feature", "geometry": {"type": "Point", "coordinates": [-98.786268, 29.526222]}, "properties": {}}, {"type": "Feature", "geometry": {"type": "Point", "coordinates": [-98.123083, 29.355237]}, "properties": {}}, {"type": "Feature", "geometry": {"type": "Point", "coordinates": [-96.8825, 33.00314]}, "properties": {}}, {"type": "Feature", "geometry": {"type": "Point", "coordinates": [-96.860402, 32.854997]}, "properties": {}}, {"type": "Feature", "geometry": {"type": "Point", "coordinates": [-98.568407, 29.449849]}, "properties": {}}, {"type": "Feature", "geometry": {"type": "Point", "coordinates": [-97.15735, 32.701695]}, "properties": {}}, {"type": "Feature", "geometry": {"type": "Point", "coordinates": [-97.611358, 30.362417]}, "properties": {}}, {"type": "Feature", "geometry": {"type": "Point", "coordinates": [-97.646112, 30.235865]}, "properties": {}}, {"type": "Feature", "geometry": {"type": "Point", "coordinates": [-97.666381, 30.388327]}, "properties": {}}, {"type": "Feature", "geometry": {"type": "Point", "coordinates": [-97.400375, 32.706592]}, "properties": {}}, {"type": "Feature", "geometry": {"type": "Point", "coordinates": [-96.730778, 32.825731]}, "properties": {}}, {"type": "Feature", "geometry": {"type": "Point", "coordinates": [-110.977776, 32.337881]}, "properties": {}}, {"type": "Feature", "geometry": {"type": "Point", "coordinates": [-67.157708, 18.340283]}, "properties": {}}, {"type": "Feature", "geometry": {"type": "Point", "coordinates": [-97.676123, 30.391959]}, "properties": {}}, {"type": "Feature", "geometry": {"type": "Point", "coordinates": [-115.054405, 36.047122]}, "properties": {}}, {"type": "Feature", "geometry": {"type": "Point", "coordinates": [18.119224, 42.622716]}, "properties": {}}, {"type": "Feature", "geometry": {"type": "Point", "coordinates": [-111.03166, 32.285629]}, "properties": {}}, {"type": "Feature", "geometry": {"type": "Point", "coordinates": [17.464082, 40.315945]}, "properties": {}}, {"type": "Feature", "geometry": {"type": "Point", "coordinates": [-97.132411, 33.216505]}, "properties": {}}, {"type": "Feature", "geometry": {"type": "Point", "coordinates": [15.029773, 40.177652]}, "properties": {}}, {"type": "Feature", "geometry": {"type": "Point", "coordinates": [3.201812, 41.922267]}, "properties": {}}, {"type": "Feature", "geometry": {"type": "Point", "coordinates": [3.157269, 42.376447]}, "properties": {}}, {"type": "Feature", "geometry": {"type": "Point", "coordinates": [23.739006, 37.932077]}, "properties": {}}, {"type": "Feature", "geometry": {"type": "Point", "coordinates": [16.871872, 41.117143]}, "properties": {}}, {"type": "Feature", "geometry": {"type": "Point", "coordinates": [-97.695149, 31.130718]}, "properties": {}}, {"type": "Feature", "geometry": {"type": "Point", "coordinates": [-111.00765, 32.135688]}, "properties": {}}, {"type": "Feature", "geometry": {"type": "Point", "coordinates": [-97.721739, 30.246215]}, "properties": {}}, {"type": "Feature", "geometry": {"type": "Point", "coordinates": [35.135329, 32.675992]}, "properties": {}}, {"type": "Feature", "geometry": {"type": "Point", "coordinates": [34.798125, 31.82526]}, "properties": {}}, {"type": "Feature", "geometry": {"type": "Point", "coordinates": [34.823377, 32.171494]}, "properties": {}}, {"type": "Feature", "geometry": {"type": "Point", "coordinates": [34.824468, 32.171651]}, "properties": {}}, {"type": "Feature", "geometry": {"type": "Point", "coordinates": [-97.717014, 30.243533]}, "properties": {}}, {"type": "Feature", "geometry": {"type": "Point", "coordinates": [47.772195, 30.448479]}, "properties": {}}, {"type": "Feature", "geometry": {"type": "Point", "coordinates": [24.740212, 40.605561]}, "properties": {}}, {"type": "Feature", "geometry": {"type": "Point", "coordinates": [-95.54916, 30.717757]}, "properties": {}}, {"type": "Feature", "geometry": {"type": "Point", "coordinates": [-97.71213, 30.313299]}, "properties": {}}, {"type": "Feature", "geometry": {"type": "Point", "coordinates": [-96.346307, 30.605323]}, "properties": {}}, {"type": "Feature", "geometry": {"type": "Point", "coordinates": [3.128338, 42.476964]}, "properties": {}}, {"type": "Feature", "geometry": {"type": "Point", "coordinates": [-111.597795, 33.340088]}, "properties": {}}, {"type": "Feature", "geometry": {"type": "Point", "coordinates": [-97.310623, 30.112808]}, "properties": {}}, {"type": "Feature", "geometry": {"type": "Point", "coordinates": [-97.271262, 32.790794]}, "properties": {}}, {"type": "Feature", "geometry": {"type": "Point", "coordinates": [-98.479203, 29.451113]}, "properties": {}}, {"type": "Feature", "geometry": {"type": "Point", "coordinates": [-97.697504, 30.627939]}, "properties": {}}, {"type": "Feature", "geometry": {"type": "Point", "coordinates": [21.385266, 38.144662]}, "properties": {}}, {"type": "Feature", "geometry": {"type": "Point", "coordinates": [-97.607731, 30.465417]}, "properties": {}}, {"type": "Feature", "geometry": {"type": "Point", "coordinates": [-97.741212, 30.294712]}, "properties": {}}, {"type": "Feature", "geometry": {"type": "Point", "coordinates": [-112.305793, 33.381144]}, "properties": {}}, {"type": "Feature", "geometry": {"type": "Point", "coordinates": [-97.893987, 30.540645]}, "properties": {}}]}