{"type": "FeatureCollection", "name": "Salvia officinalis", "features": [{"type": "Feature", "geometry": {"type": "Point", "coordinates": [16.876311, 43.144839]}, "properties": {}}, {"type": "Feature", "geometry": {"type": "Point", "coordinates": [8.4378, 49.985435]}, "properties": {}}, {"type": "Feature", "geometry": {"type": "Point", "coordinates": [9.19261, 49.078243]}, "properties": {}}, {"type": "Feature", "geometry": {"type": "Point", "coordinates": [8.447414, 49.956314]}, "properties": {}}, {"type": "Feature", "geometry": {"type": "Point", "coordinates": [17.66717, 59.81387]}, "properties": {}}, {"type": "Feature", "geometry": {"type": "Point", "coordinates": [9.192659, 49.078297]}, "properties": {}}, {"type": "Feature", "geometry": {"type": "Point", "coordinates": [14.128564, 41.336939]}, "properties": {}}, {"type": "Feature", "geometry": {"type": "Point", "coordinates": [7.949258, 49.986472]}, "properties": {}}, {"type": "Feature", "geometry": {"type": "Point", "coordinates": [144.140724, -37.310829]}, "properties": {}}, {"type": "Feature", "geometry": {"type": "Point", "coordinates": [-117.388985, 33.980778]}, "properties": {}}, {"type": "Feature", "geometry": {"type": "Point", "coordinates": [-2.87428, 53.198853]}, "properties": {}}, {"type": "Feature", "geometry": {"type": "Point", "coordinates": [-3.120733, 40.579913]}, "properties": {}}, {"type": "Feature", "geometry": {"type": "Point", "coordinates": [15.786149, 43.828006]}, "properties": {}}, {"type": "Feature", "geometry": {"type": "Point", "coordinates": [13.18451, 55.72284]}, "properties": {}}, {"type": "Feature", "geometry": {"type": "Point", "coordinates": [4.46883, 51.38277]}, "properties": {}}, {"type": "Feature", "geometry": {"type": "Point", "coordinates": [3.67371, 51.0752]}, "properties": {}}, {"type": "Feature", "geometry": {"type": "Point", "coordinates": [-3.122369, 40.580023]}, "properties": {}}, {"type": "Feature", "geometry": {"type": "Point", "coordinates": [-2.103967, 57.167495]}, "properties": {}}, {"type": "Feature", "geometry": {"type": "Point", "coordinates": [-9.591752, 30.508132]}, "properties": {}}, {"type": "Feature", "geometry": {"type": "Point", "coordinates": [-0.379047, 39.457258]}, "properties": {}}, {"type": "Feature", "geometry": {"type": "Point", "coordinates": [14.939462, 44.50057]}, "properties": {}}, {"type": "Feature", "geometry": {"type": "Point", "coordinates": [-6.849116, 34.011937]}, "properties": {}}, {"type": "Feature", "geometry": {"type": "Point", "coordinates": [-8.419349, 40.192955]}, "properties": {}}, {"type": "Feature", "geometry": {"type": "Point", "coordinates": [-8.630273, 37.139847]}, "properties": {}}, {"type": "Feature", "geometry": {"type": "Point", "coordinates": [-8.631252, 37.139639]}, "properties": {}}, {"type": "Feature", "geometry": {"type": "Point", "coordinates": [4.532986, 52.22229]}, "properties": {}}, {"type": "Feature", "geometry": {"type": "Point", "coordinates": [16.564949, 43.227226]}, "properties": {}}, {"type": "Feature", "geometry": {"type": "Point", "coordinates": [14.939495, 44.50062]}, "properties": {}}, {"type": "Feature", "geometry": {"type": "Point", "coordinates": [14.886415, 45.065749]}, "properties": {}}, {"type": "Feature", "geometry": {"type": "Point", "coordinates": [14.886398, 45.065742]}, "properties": {}}, {"type": "Feature", "geometry": {"type": "Point", "coordinates": [9.192678, 49.078259]}, "properties": {}}, {"type": "Feature", "geometry": {"type": "Point", "coordinates": [3.72779, 51.04205]}, "properties": {}}, {"type": "Feature", "geometry": {"type": "Point", "coordinates": [-2.222193, 37.100608]}, "properties": {}}, {"type": "Feature", "geometry": {"type": "Point", "coordinates": [15.12157, 45.736753]}, "properties": {}}, {"type": "Feature", "geometry": {"type": "Point", "coordinates": [-2.457338, 41.755162]}, "properties": {}}, {"type": "Feature", "geometry": {"type": "Point", "coordinates": [16.559601, 47.506988]}, "properties": {}}, {"type": "Feature", "geometry": {"type": "Point", "coordinates": [16.552118, 43.23058]}, "properties": {}}, {"type": "Feature", "geometry": {"type": "Point", "coordinates": [15.477737, 44.315865]}, "properties": {}}, {"type": "Feature", "geometry": {"type": "Point", "coordinates": [2.7409, 51.1343]}, "properties": {}}, {"type": "Feature", "geometry": {"type": "Point", "coordinates": [16.263201, 43.536332]}, "properties": {}}, {"type": "Feature", "geometry": {"type": "Point", "coordinates": [-6.544598, 54.284864]}, "properties": {}}, {"type": "Feature", "geometry": {"type": "Point", "coordinates": [-0.178984, 51.446438]}, "properties": {}}, {"type": "Feature", "geometry": {"type": "Point", "coordinates": [-77.565227, 37.52591]}, "properties": {}}, {"type": "Feature", "geometry": {"type": "Point", "coordinates": [-1.502247, 53.441949]}, "properties": {}}, {"type": "Feature", "geometry": {"type": "Point", "coordinates": [5.432792, 44.386686]}, "properties": {}}, {"type": "Feature", "geometry": {"type": "Point", "coordinates": [-3.589238, 40.024698]}, "properties": {}}, {"type": "Feature", "geometry": {"type": "Point", "coordinates": [15.47603, 44.304128]}, "properties": {}}, {"type": "Feature", "geometry": {"type": "Point", "coordinates": [-70.633155, -33.570938]}, "properties": {}}, {"type": "Feature", "geometry": {"type": "Point", "coordinates": [16.818035, 43.137472]}, "properties": {}}, {"type": "Feature", "geometry": {"type": "Point", "coordinates": [20.380751, 47.903411]}, "properties": {}}, {"type": "Feature", "geometry": {"type": "Point", "coordinates": [16.522991, 43.372467]}, "properties": {}}, {"type": "Feature", "geometry": {"type": "Point", "coordinates": [15.981188, 43.887028]}, "properties": {}}, {"type": "Feature", "geometry": {"type": "Point", "coordinates": [-3.498838, 40.344713]}, "properties": {}}, {"type": "Feature", "geometry": {"type": "Point", "coordinates": [15.212805, 43.90077]}, "properties": {}}, {"type": "Feature", "geometry": {"type": "Point", "coordinates": [3.23338, 51.19357]}, "properties": {}}, {"type": "Feature", "geometry": {"type": "Point", "coordinates": [3.77336, 51.04495]}, "properties": {}}, {"type": "Feature", "geometry": {"type": "Point", "coordinates": [-76.938507, 38.988178]}, "properties": {}}, {"type": "Feature", "geometry": {"type": "Point", "coordinates": [-8.44368, 40.19913]}, "properties": {}}, {"type": "Feature", "geometry": {"type": "Point", "coordinates": [168.858746, -46.194907]}, "properties": {}}, {"type": "Feature", "geometry": {"type": "Point", "coordinates": [15.225103, 38.269189]}, "properties": {}}, {"type": "Feature", "geometry": {"type": "Point", "coordinates": [-3.869435, 41.904355]}, "properties": {}}, {"type": "Feature", "geometry": {"type": "Point", "coordinates": [-105.977938, 35.677145]}, "properties": {}}, {"type": "Feature", "geometry": {"type": "Point", "coordinates": [13.821345, 44.914055]}, "properties": {}}, {"type": "Feature", "geometry": {"type": "Point", "coordinates": [15.152976, 43.938383]}, "properties": {}}, {"type": "Feature", "geometry": {"type": "Point", "coordinates": [-3.8807, 41.920113]}, "properties": {}}, {"type": "Feature", "geometry": {"type": "Point", "coordinates": [15.744086, 43.972639]}, "properties": {}}, {"type": "Feature", "geometry": {"type": "Point", "coordinates": [15.605202, 43.814302]}, "properties": {}}, {"type": "Feature", "geometry": {"type": "Point", "coordinates": [-46.728088, -23.579246]}, "properties": {}}, {"type": "Feature", "geometry": {"type": "Point", "coordinates": [17.388633, 48.949578]}, "properties": {}}, {"type": "Feature", "geometry": {"type": "Point", "coordinates": [15.258107, 38.197568]}, "properties": {}}, {"type": "Feature", "geometry": {"type": "Point", "coordinates": [15.943158, 46.766205]}, "properties": {}}, {"type": "Feature", "geometry": {"type": "Point", "coordinates": [15.138622, 43.931538]}, "properties": {}}, {"type": "Feature", "geometry": {"type": "Point", "coordinates": [13.805383, 44.924345]}, "properties": {}}, {"type": "Feature", "geometry": {"type": "Point", "coordinates": [18.10595, 42.647247]}, "properties": {}}, {"type": "Feature", "geometry": {"type": "Point", "coordinates": [15.124103, 43.913447]}, "properties": {}}, {"type": "Feature", "geometry": {"type": "Point", "coordinates": [-0.248753, 51.50307]}, "properties": {}}, {"type": "Feature", "geometry": {"type": "Point", "coordinates": [-90.230008, 38.719523]}, "properties": {}}, {"type": "Feature", "geometry": {"type": "Point", "coordinates": [4.68128, 51.08739]}, "properties": {}}, {"type": "Feature", "geometry": {"type": "Point", "coordinates": [14.379925, 44.661233]}, "properties": {}}, {"type": "Feature", "geometry": {"type": "Point", "coordinates": [15.64152, 43.849271]}, "properties": {}}, {"type": "Feature", "geometry": {"type": "Point", "coordinates": [0.84133, 41.26694]}, "properties": {}}, {"type": "Feature", "geometry": {"type": "Point", "coordinates": [13.908338, 44.794997]}, "properties": {}}, {"type": "Feature", "geometry": {"type": "Point", "coordinates": [-84.576988, 39.415268]}, "properties": {}}, {"type": "Feature", "geometry": {"type": "Point", "coordinates": [4.8969, 51.07139]}, "properties": {}}, {"type": "Feature", "geometry": {"type": "Point", "coordinates": [5.36972, 50.9282]}, "properties": {}}, {"type": "Feature", "geometry": {"type": "Point", "coordinates": [4.44719, 50.82976]}, "properties": {}}, {"type": "Feature", "geometry": {"type": "Point", "coordinates": [4.14328, 50.86432]}, "properties": {}}, {"type": "Feature", "geometry": {"type": "Point", "coordinates": [25.181383, 46.2425]}, "properties": {}}, {"type": "Feature", "geometry": {"type": "Point", "coordinates": [14.461401, 45.351035]}, "properties": {}}, {"type": "Feature", "geometry": {"type": "Point", "coordinates": [25.220446, 46.259932]}, "properties": {}}, {"type": "Feature", "geometry": {"type": "Point", "coordinates": [2.016883, 41.568484]}, "properties": {}}, {"type": "Feature", "geometry": {"type": "Point", "coordinates": [17.545162, 46.810734]}, "properties": {}}, {"type": "Feature", "geometry": {"type": "Point", "coordinates": [14.750511, 44.951422]}, "properties": {}}, {"type": "Feature", "geometry": {"type": "Point", "coordinates": [14.750446, 44.951603]}, "properties": {}}, {"type": "Feature", "geometry": {"type": "Point", "coordinates": [15.78519, 43.771096]}, "properties": {}}, {"type": "Feature", "geometry": {"type": "Point", "coordinates": [14.461707, 45.347939]}, "properties": {}}, {"type": "Feature", "geometry": {"type": "Point", "coordinates": [14.461241, 45.350814]}, "properties": {}}, {"type": "Feature", "geometry": {"type": "Point", "coordinates": [3.26404, 50.93135]}, "properties": {}}, {"type": "Feature", "geometry": {"type": "Point", "coordinates": [4.99766, 51.11485]}, "properties": {}}, {"type": "Feature", "geometry": {"type": "Point", "coordinates": [8.469507, 44.623719]}, "properties": {}}, {"type": "Feature", "geometry": {"type": "Point", "coordinates": [18.109093, 42.650982]}, "properties": {}}, {"type": "Feature", "geometry": {"type": "Point", "coordinates": [12.15317, 55.739876]}, "properties": {}}, {"type": "Feature", "geometry": {"type": "Point", "coordinates": [15.478017, 44.316328]}, "properties": {}}, {"type": "Feature", "geometry": {"type": "Point", "coordinates": [27.914733, 43.21405]}, "properties": {}}, {"type": "Feature", "geometry": {"type": "Point", "coordinates": [-0.155064, 51.342129]}, "properties": {}}, {"type": "Feature", "geometry": {"type": "Point", "coordinates": [28.907265, 40.981726]}, "properties": {}}, {"type": "Feature", "geometry": {"type": "Point", "coordinates": [-62.756902, 45.582652]}, "properties": {}}, {"type": "Feature", "geometry": {"type": "Point", "coordinates": [14.743367, 45.141413]}, "properties": {}}, {"type": "Feature", "geometry": {"type": "Point", "coordinates": [6.028123, 43.856865]}, "properties": {}}, {"type": "Feature", "geometry": {"type": "Point", "coordinates": [5.59775, 51.13932]}, "properties": {}}, {"type": "Feature", "geometry": {"type": "Point", "coordinates": [4.04238, 50.94099]}, "properties": {}}, {"type": "Feature", "geometry": {"type": "Point", "coordinates": [4.48575, 51.1776]}, "properties": {}}, {"type": "Feature", "geometry": {"type": "Point", "coordinates": [5.59013, 51.16919]}, "properties": {}}, {"type": "Feature", "geometry": {"type": "Point", "coordinates": [5.4812, 50.98576]}, "properties": {}}, {"type": "Feature", "geometry": {"type": "Point", "coordinates": [4.82757, 51.23729]}, "properties": {}}, {"type": "Feature", "geometry": {"type": "Point", "coordinates": [4.68868, 50.92472]}, "properties": {}}, {"type": "Feature", "geometry": {"type": "Point", "coordinates": [3.25912, 50.81559]}, "properties": {}}, {"type": "Feature", "geometry": {"type": "Point", "coordinates": [3.40775, 51.14896]}, "properties": {}}, {"type": "Feature", "geometry": {"type": "Point", "coordinates": [14.152557, 45.02727]}, "properties": {}}, {"type": "Feature", "geometry": {"type": "Point", "coordinates": [21.788569, 40.32]}, "properties": {}}, {"type": "Feature", "geometry": {"type": "Point", "coordinates": [13.75555, 45.925537]}, "properties": {}}, {"type": "Feature", "geometry": {"type": "Point", "coordinates": [-2.155311, 40.797277]}, "properties": {}}, {"type": "Feature", "geometry": {"type": "Point", "coordinates": [-97.348356, 31.087866]}, "properties": {}}, {"type": "Feature", "geometry": {"type": "Point", "coordinates": [27.914733, 43.21405]}, "properties": {}}, {"type": "Feature", "geometry": {"type": "Point", "coordinates": [14.46206, 45.351295]}, "properties": {}}, {"type": "Feature", "geometry": {"type": "Point", "coordinates": [-105.934385, 35.656097]}, "properties": {}}, {"type": "Feature", "geometry": {"type": "Point", "coordinates": [5.45, 51.45]}, "properties": {}}, {"type": "Feature", "geometry": {"type": "Point", "coordinates": [5.95, 51.95]}, "properties": {}}, {"type": "Feature", "geometry": {"type": "Point", "coordinates": [5.0, 52.1]}, "properties": {}}, {"type": "Feature", "geometry": {"type": "Point", "coordinates": [5.0, 52.1]}, "properties": {}}, {"type": "Feature", "geometry": {"type": "Point", "coordinates": [5.05, 52.1]}, "properties": {}}, {"type": "Feature", "geometry": {"type": "Point", "coordinates": [4.85, 52.4]}, "properties": {}}, {"type": "Feature", "geometry": {"type": "Point", "coordinates": [4.13094, 51.11264]}, "properties": {}}, {"type": "Feature", "geometry": {"type": "Point", "coordinates": [3.70215, 51.07209]}, "properties": {}}, {"type": "Feature", "geometry": {"type": "Point", "coordinates": [2.64086, 51.10811]}, "properties": {}}, {"type": "Feature", "geometry": {"type": "Point", "coordinates": [4.2188, 51.09115]}, "properties": {}}, {"type": "Feature", "geometry": {"type": "Point", "coordinates": [4.52785, 51.27235]}, "properties": {}}, {"type": "Feature", "geometry": {"type": "Point", "coordinates": [4.44709, 51.17394]}, "properties": {}}, {"type": "Feature", "geometry": {"type": "Point", "coordinates": [4.66462, 50.90124]}, "properties": {}}, {"type": "Feature", "geometry": {"type": "Point", "coordinates": [4.26137, 51.22431]}, "properties": {}}, {"type": "Feature", "geometry": {"type": "Point", "coordinates": [4.44747, 51.18593]}, "properties": {}}, {"type": "Feature", "geometry": {"type": "Point", "coordinates": [5.07188, 50.99492]}, "properties": {}}, {"type": "Feature", "geometry": {"type": "Point", "coordinates": [5.48088, 50.98585]}, "properties": {}}, {"type": "Feature", "geometry": {"type": "Point", "coordinates": [4.6, 51.55]}, "properties": {}}, {"type": "Feature", "geometry": {"type": "Point", "coordinates": [13.411382, 42.009128]}, "properties": {}}, {"type": "Feature", "geometry": {"type": "Point", "coordinates": [17.66714, 59.81381]}, "properties": {}}, {"type": "Feature", "geometry": {"type": "Point", "coordinates": [-122.363039, 47.688174]}, "properties": {}}, {"type": "Feature", "geometry": {"type": "Point", "coordinates": [12.760425, 46.819992]}, "properties": {}}, {"type": "Feature", "geometry": {"type": "Point", "coordinates": [15.815172, 40.966046]}, "properties": {}}, {"type": "Feature", "geometry": {"type": "Point", "coordinates": [-1.026725, 37.616072]}, "properties": {}}, {"type": "Feature", "geometry": {"type": "Point", "coordinates": [12.440029, 48.692928]}, "properties": {}}, {"type": "Feature", "geometry": {"type": "Point", "coordinates": [-121.393442, 38.614916]}, "properties": {}}, {"type": "Feature", "geometry": {"type": "Point", "coordinates": [10.597736, 53.840166]}, "properties": {}}, {"type": "Feature", "geometry": {"type": "Point", "coordinates": [7.950153, 51.616657]}, "properties": {}}, {"type": "Feature", "geometry": {"type": "Point", "coordinates": [11.591648, 50.95026]}, "properties": {}}, {"type": "Feature", "geometry": {"type": "Point", "coordinates": [14.259053, 45.273557]}, "properties": {}}, {"type": "Feature", "geometry": {"type": "Point", "coordinates": [-0.329275, 51.504584]}, "properties": {}}, {"type": "Feature", "geometry": {"type": "Point", "coordinates": [-122.807337, 38.068025]}, "properties": {}}, {"type": "Feature", "geometry": {"type": "Point", "coordinates": [14.535434, 45.036005]}, "properties": {}}, {"type": "Feature", "geometry": {"type": "Point", "coordinates": [13.89675, 44.810613]}, "properties": {}}, {"type": "Feature", "geometry": {"type": "Point", "coordinates": [17.66717, 59.81387]}, "properties": {}}, {"type": "Feature", "geometry": {"type": "Point", "coordinates": [-2.59492, 40.614478]}, "properties": {}}, {"type": "Feature", "geometry": {"type": "Point", "coordinates": [5.130445, 43.601133]}, "properties": {}}, {"type": "Feature", "geometry": {"type": "Point", "coordinates": [6.91386, 51.530204]}, "properties": {}}, {"type": "Feature", "geometry": {"type": "Point", "coordinates": [-0.480537, 38.69947]}, "properties": {}}, {"type": "Feature", "geometry": {"type": "Point", "coordinates": [-0.387317, 39.477657]}, "properties": {}}, {"type": "Feature", "geometry": {"type": "Point", "coordinates": [4.37216, 50.90578]}, "properties": {}}, {"type": "Feature", "geometry": {"type": "Point", "coordinates": [18.102285, 59.314705]}, "properties": {}}, {"type": "Feature", "geometry": {"type": "Point", "coordinates": [16.830733, 43.129556]}, "properties": {}}, {"type": "Feature", "geometry": {"type": "Point", "coordinates": [-2.445773, 36.830992]}, "properties": {}}, {"type": "Feature", "geometry": {"type": "Point", "coordinates": [14.347938, 40.584387]}, "properties": {}}, {"type": "Feature", "geometry": {"type": "Point", "coordinates": [-77.133819, 39.808037]}, "properties": {}}, {"type": "Feature", "geometry": {"type": "Point", "coordinates": [3.870138, 40.005042]}, "properties": {}}, {"type": "Feature", "geometry": {"type": "Point", "coordinates": [16.595914, 43.14489]}, "properties": {}}, {"type": "Feature", "geometry": {"type": "Point", "coordinates": [-3.42967, 40.242375]}, "properties": {}}, {"type": "Feature", "geometry": {"type": "Point", "coordinates": [19.940626, 48.679422]}, "properties": {}}, {"type": "Feature", "geometry": {"type": "Point", "coordinates": [8.420539, 44.467369]}, "properties": {}}, {"type": "Feature", "geometry": {"type": "Point", "coordinates": [0.349423, 46.575712]}, "properties": {}}, {"type": "Feature", "geometry": {"type": "Point", "coordinates": [-0.394406, 39.497253]}, "properties": {}}, {"type": "Feature", "geometry": {"type": "Point", "coordinates": [2.961811, 36.672078]}, "properties": {}}, {"type": "Feature", "geometry": {"type": "Point", "coordinates": [-0.250941, 39.962021]}, "properties": {}}, {"type": "Feature", "geometry": {"type": "Point", "coordinates": [-0.623344, 45.744836]}, "properties": {}}, {"type": "Feature", "geometry": {"type": "Point", "coordinates": [6.17407, 49.10383]}, "properties": {}}, {"type": "Feature", "geometry": {"type": "Point", "coordinates": [7.114371, 51.354589]}, "properties": {}}, {"type": "Feature", "geometry": {"type": "Point", "coordinates": [14.461607, 45.35091]}, "properties": {}}, {"type": "Feature", "geometry": {"type": "Point", "coordinates": [9.192605, 49.078247]}, "properties": {}}, {"type": "Feature", "geometry": {"type": "Point", "coordinates": [9.192602, 49.078243]}, "properties": {}}, {"type": "Feature", "geometry": {"type": "Point", "coordinates": [6.19457, 43.946252]}, "properties": {}}, {"type": "Feature", "geometry": {"type": "Point", "coordinates": [7.40623, 46.25393]}, "properties": {}}, {"type": "Feature", "geometry": {"type": "Point", "coordinates": [169.189146, -46.595569]}, "properties": {}}, {"type": "Feature", "geometry": {"type": "Point", "coordinates": [5.4809, 50.98592]}, "properties": {}}, {"type": "Feature", "geometry": {"type": "Point", "coordinates": [5.35, 51.55]}, "properties": {}}, {"type": "Feature", "geometry": {"type": "Point", "coordinates": [4.3, 52.05]}, "properties": {}}, {"type": "Feature", "geometry": {"type": "Point", "coordinates": [5.65, 51.95]}, "properties": {}}, {"type": "Feature", "geometry": {"type": "Point", "coordinates": [-3.61064, 37.124104]}, "properties": {}}, {"type": "Feature", "geometry": {"type": "Point", "coordinates": [-0.410981, 39.87112]}, "properties": {}}, {"type": "Feature", "geometry": {"type": "Point", "coordinates": [4.027592, 43.731048]}, "properties": {}}, {"type": "Feature", "geometry": {"type": "Point", "coordinates": [2.416306, 48.850949]}, "properties": {}}, {"type": "Feature", "geometry": {"type": "Point", "coordinates": [-3.229738, 55.976649]}, "properties": {}}, {"type": "Feature", "geometry": {"type": "Point", "coordinates": [-96.598839, 33.647151]}, "properties": {}}, {"type": "Feature", "geometry": {"type": "Point", "coordinates": [3.90083, 36.482427]}, "properties": {}}, {"type": "Feature", "geometry": {"type": "Point", "coordinates": [16.645304, 43.210687]}, "properties": {}}, {"type": "Feature", "geometry": {"type": "Point", "coordinates": [16.522017, 43.224574]}, "properties": {}}, {"type": "Feature", "geometry": {"type": "Point", "coordinates": [16.532928, 43.219158]}, "properties": {}}, {"type": "Feature", "geometry": {"type": "Point", "coordinates": [35.167283, 31.754411]}, "properties": {}}, {"type": "Feature", "geometry": {"type": "Point", "coordinates": [9.192613, 49.078247]}, "properties": {}}, {"type": "Feature", "geometry": {"type": "Point", "coordinates": [9.192643, 49.078224]}, "properties": {}}, {"type": "Feature", "geometry": {"type": "Point", "coordinates": [17.66718, 59.81386]}, "properties": {}}, {"type": "Feature", "geometry": {"type": "Point", "coordinates": [16.550147, 43.224831]}, "properties": {}}, {"type": "Feature", "geometry": {"type": "Point", "coordinates": [174.777969, -41.251274]}, "properties": {}}, {"type": "Feature", "geometry": {"type": "Point", "coordinates": [-97.853476, 30.114887]}, "properties": {}}, {"type": "Feature", "geometry": {"type": "Point", "coordinates": [174.728568, -41.32671]}, "properties": {}}, {"type": "Feature", "geometry": {"type": "Point", "coordinates": [6.134162, 49.614787]}, "properties": {}}, {"type": "Feature", "geometry": {"type": "Point", "coordinates": [-2.874321, 53.198881]}, "properties": {}}, {"type": "Feature", "geometry": {"type": "Point", "coordinates": [-43.998635, -19.888086]}, "properties": {}}, {"type": "Feature", "geometry": {"type": "Point", "coordinates": [16.126233, 43.510222]}, "properties": {}}, {"type": "Feature", "geometry": {"type": "Point", "coordinates": [16.286497, 43.508133]}, "properties": {}}, {"type": "Feature", "geometry": {"type": "Point", "coordinates": [-0.373706, 53.756904]}, "properties": {}}, {"type": "Feature", "geometry": {"type": "Point", "coordinates": [-9.158261, 38.680983]}, "properties": {}}, {"type": "Feature", "geometry": {"type": "Point", "coordinates": [16.816461, 43.334685]}, "properties": {}}, {"type": "Feature", "geometry": {"type": "Point", "coordinates": [13.051717, 47.801598]}, "properties": {}}, {"type": "Feature", "geometry": {"type": "Point", "coordinates": [9.109741, 51.415405]}, "properties": {}}, {"type": "Feature", "geometry": {"type": "Point", "coordinates": [4.79648, 50.99227]}, "properties": {}}, {"type": "Feature", "geometry": {"type": "Point", "coordinates": [17.540371, 42.943691]}, "properties": {}}, {"type": "Feature", "geometry": {"type": "Point", "coordinates": [15.875392, 43.73437]}, "properties": {}}, {"type": "Feature", "geometry": {"type": "Point", "coordinates": [16.342458, 43.490892]}, "properties": {}}, {"type": "Feature", "geometry": {"type": "Point", "coordinates": [15.79419, 46.715697]}, "properties": {}}, {"type": "Feature", "geometry": {"type": "Point", "coordinates": [16.345653, 43.491372]}, "properties": {}}, {"type": "Feature", "geometry": {"type": "Point", "coordinates": [-3.142517, 40.498242]}, "properties": {}}, {"type": "Feature", "geometry": {"type": "Point", "coordinates": [-3.060117, 40.459853]}, "properties": {}}, {"type": "Feature", "geometry": {"type": "Point", "coordinates": [6.664351, 36.398812]}, "properties": {}}, {"type": "Feature", "geometry": {"type": "Point", "coordinates": [5.22389, 50.5243]}, "properties": {}}, {"type": "Feature", "geometry": {"type": "Point", "coordinates": [-6.891699, 37.947251]}, "properties": {}}, {"type": "Feature", "geometry": {"type": "Point", "coordinates": [8.32565, 46.97014]}, "properties": {}}, {"type": "Feature", "geometry": {"type": "Point", "coordinates": [17.386367, 42.770838]}, "properties": {}}, {"type": "Feature", "geometry": {"type": "Point", "coordinates": [14.462646, 45.348755]}, "properties": {}}, {"type": "Feature", "geometry": {"type": "Point", "coordinates": [14.462158, 45.350517]}, "properties": {}}, {"type": "Feature", "geometry": {"type": "Point", "coordinates": [15.155906, 43.891558]}, "properties": {}}, {"type": "Feature", "geometry": {"type": "Point", "coordinates": [14.461887, 45.351198]}, "properties": {}}, {"type": "Feature", "geometry": {"type": "Point", "coordinates": [16.473205, 43.370832]}, "properties": {}}, {"type": "Feature", "geometry": {"type": "Point", "coordinates": [14.451021, 45.329312]}, "properties": {}}, {"type": "Feature", "geometry": {"type": "Point", "coordinates": [14.460592, 45.345781]}, "properties": {}}, {"type": "Feature", "geometry": {"type": "Point", "coordinates": [14.462104, 45.350495]}, "properties": {}}, {"type": "Feature", "geometry": {"type": "Point", "coordinates": [14.442176, 45.327325]}, "properties": {}}, {"type": "Feature", "geometry": {"type": "Point", "coordinates": [15.125439, 43.911422]}, "properties": {}}, {"type": "Feature", "geometry": {"type": "Point", "coordinates": [14.461989, 45.347145]}, "properties": {}}, {"type": "Feature", "geometry": {"type": "Point", "coordinates": [14.462438, 45.348249]}, "properties": {}}, {"type": "Feature", "geometry": {"type": "Point", "coordinates": [16.407622, 43.508883]}, "properties": {}}, {"type": "Feature", "geometry": {"type": "Point", "coordinates": [14.462115, 45.350869]}, "properties": {}}, {"type": "Feature", "geometry": {"type": "Point", "coordinates": [14.461653, 45.348259]}, "properties": {}}, {"type": "Feature", "geometry": {"type": "Point", "coordinates": [18.089167, 42.668611]}, "properties": {}}, {"type": "Feature", "geometry": {"type": "Point", "coordinates": [14.463252, 45.341922]}, "properties": {}}, {"type": "Feature", "geometry": {"type": "Point", "coordinates": [14.462161, 45.350691]}, "properties": {}}, {"type": "Feature", "geometry": {"type": "Point", "coordinates": [14.462691, 45.34217]}, "properties": {}}, {"type": "Feature", "geometry": {"type": "Point", "coordinates": [14.462165, 45.350527]}, "properties": {}}, {"type": "Feature", "geometry": {"type": "Point", "coordinates": [14.461637, 45.349343]}, "properties": {}}, {"type": "Feature", "geometry": {"type": "Point", "coordinates": [14.46186, 45.347771]}, "properties": {}}, {"type": "Feature", "geometry": {"type": "Point", "coordinates": [14.64701, 45.206731]}, "properties": {}}, {"type": "Feature", "geometry": {"type": "Point", "coordinates": [14.481287, 45.32591]}, "properties": {}}, {"type": "Feature", "geometry": {"type": "Point", "coordinates": [14.461778, 45.347806]}, "properties": {}}, {"type": "Feature", "geometry": {"type": "Point", "coordinates": [14.461804, 45.348058]}, "properties": {}}, {"type": "Feature", "geometry": {"type": "Point", "coordinates": [14.461976, 45.347497]}, "properties": {}}, {"type": "Feature", "geometry": {"type": "Point", "coordinates": [13.919757, 44.767641]}, "properties": {}}, {"type": "Feature", "geometry": {"type": "Point", "coordinates": [14.462638, 45.349091]}, "properties": {}}, {"type": "Feature", "geometry": {"type": "Point", "coordinates": [13.894268, 44.811332]}, "properties": {}}, {"type": "Feature", "geometry": {"type": "Point", "coordinates": [16.036595, 41.691768]}, "properties": {}}, {"type": "Feature", "geometry": {"type": "Point", "coordinates": [3.094242, 39.791688]}, "properties": {}}, {"type": "Feature", "geometry": {"type": "Point", "coordinates": [-8.489085, 40.111212]}, "properties": {}}, {"type": "Feature", "geometry": {"type": "Point", "coordinates": [17.341842, 43.274925]}, "properties": {}}, {"type": "Feature", "geometry": {"type": "Point", "coordinates": [-6.333563, 42.128231]}, "properties": {}}, {"type": "Feature", "geometry": {"type": "Point", "coordinates": [16.125558, 43.509783]}, "properties": {}}, {"type": "Feature", "geometry": {"type": "Point", "coordinates": [14.611121, 45.187913]}, "properties": {}}, {"type": "Feature", "geometry": {"type": "Point", "coordinates": [14.612828, 45.185616]}, "properties": {}}, {"type": "Feature", "geometry": {"type": "Point", "coordinates": [14.461584, 45.349251]}, "properties": {}}, {"type": "Feature", "geometry": {"type": "Point", "coordinates": [4.83791, 51.31962]}, "properties": {}}, {"type": "Feature", "geometry": {"type": "Point", "coordinates": [9.676609, 52.036919]}, "properties": {}}, {"type": "Feature", "geometry": {"type": "Point", "coordinates": [14.36167, 45.069211]}, "properties": {}}, {"type": "Feature", "geometry": {"type": "Point", "coordinates": [15.886744, 43.755304]}, "properties": {}}, {"type": "Feature", "geometry": {"type": "Point", "coordinates": [14.360067, 45.07212]}, "properties": {}}, {"type": "Feature", "geometry": {"type": "Point", "coordinates": [19.739525, 51.412539]}, "properties": {}}, {"type": "Feature", "geometry": {"type": "Point", "coordinates": [16.821154, 43.332131]}, "properties": {}}, {"type": "Feature", "geometry": {"type": "Point", "coordinates": [16.703175, 43.45801]}, "properties": {}}, {"type": "Feature", "geometry": {"type": "Point", "coordinates": [18.113681, 42.648178]}, "properties": {}}, {"type": "Feature", "geometry": {"type": "Point", "coordinates": [7.009512, 43.645812]}, "properties": {}}, {"type": "Feature", "geometry": {"type": "Point", "coordinates": [13.749549, 45.213868]}, "properties": {}}, {"type": "Feature", "geometry": {"type": "Point", "coordinates": [15.108175, 43.963464]}, "properties": {}}, {"type": "Feature", "geometry": {"type": "Point", "coordinates": [14.645193, 45.207116]}, "properties": {}}, {"type": "Feature", "geometry": {"type": "Point", "coordinates": [13.629242, 41.306613]}, "properties": {}}, {"type": "Feature", "geometry": {"type": "Point", "coordinates": [17.548002, 42.899979]}, "properties": {}}, {"type": "Feature", "geometry": {"type": "Point", "coordinates": [16.279825, 43.503433]}, "properties": {}}, {"type": "Feature", "geometry": {"type": "Point", "coordinates": [17.420717, 43.076458]}, "properties": {}}, {"type": "Feature", "geometry": {"type": "Point", "coordinates": [17.09173, 43.284321]}, "properties": {}}, {"type": "Feature", "geometry": {"type": "Point", "coordinates": [6.05, 50.85]}, "properties": {}}, {"type": "Feature", "geometry": {"type": "Point", "coordinates": [7.457511, 52.27359]}, "properties": {}}, {"type": "Feature", "geometry": {"type": "Point", "coordinates": [15.610693, 43.894428]}, "properties": {}}, {"type": "Feature", "geometry": {"type": "Point", "coordinates": [5.48087, 50.98585]}, "properties": {}}, {"type": "Feature", "geometry": {"type": "Point", "coordinates": [2.121583, 41.385343]}, "properties": {}}, {"type": "Feature", "geometry": {"type": "Point", "coordinates": [-1.542608, 41.84882]}, "properties": {}}, {"type": "Feature", "geometry": {"type": "Point", "coordinates": [-2.422868, 42.349389]}, "properties": {}}, {"type": "Feature", "geometry": {"type": "Point", "coordinates": [7.778233, 47.959655]}, "properties": {}}]}