{"type": "FeatureCollection", "name": "Marrubium vulgare", "features": [{"type": "Feature", "geometry": {"type": "Point", "coordinates": [-110.771837, 31.527212]}, "properties": {}}, {"type": "Feature", "geometry": {"type": "Point", "coordinates": [-117.080818, 33.052277]}, "properties": {}}, {"type": "Feature", "geometry": {"type": "Point", "coordinates": [-105.29895, 40.14533]}, "properties": {}}, {"type": "Feature", "geometry": {"type": "Point", "coordinates": [-117.179853, 33.152676]}, "properties": {}}, {"type": "Feature", "geometry": {"type": "Point", "coordinates": [-117.792708, 34.129211]}, "properties": {}}, {"type": "Feature", "geometry": {"type": "Point", "coordinates": [-120.716857, 35.17459]}, "properties": {}}, {"type": "Feature", "geometry": {"type": "Point", "coordinates": [-105.21985, 40.070328]}, "properties": {}}, {"type": "Feature", "geometry": {"type": "Point", "coordinates": [4.873258, 43.586474]}, "properties": {}}, {"type": "Feature", "geometry": {"type": "Point", "coordinates": [-112.167325, 40.924722]}, "properties": {}}, {"type": "Feature", "geometry": {"type": "Point", "coordinates": [-117.258369, 34.034397]}, "properties": {}}, {"type": "Feature", "geometry": {"type": "Point", "coordinates": [176.907775, -39.695938]}, "properties": {}}, {"type": "Feature", "geometry": {"type": "Point", "coordinates": [-105.142399, 40.547501]}, "properties": {}}, {"type": "Feature", "geometry": {"type": "Point", "coordinates": [-6.050236, 36.613597]}, "properties": {}}, {"type": "Feature", "geometry": {"type": "Point", "coordinates": [-121.95605, 39.733285]}, "properties": {}}, {"type": "Feature", "geometry": {"type": "Point", "coordinates": [18.27866, 57.62606]}, "properties": {}}, {"type": "Feature", "geometry": {"type": "Point", "coordinates": [-17.841024, 28.6625]}, "properties": {}}, {"type": "Feature", "geometry": {"type": "Point", "coordinates": [-17.860336, 28.531525]}, "properties": {}}, {"type": "Feature", "geometry": {"type": "Point", "coordinates": [-120.964464, 38.395226]}, "properties": {}}, {"type": "Feature", "geometry": {"type": "Point", "coordinates": [-118.091323, 33.752629]}, "properties": {}}, {"type": "Feature", "geometry": {"type": "Point", "coordinates": [147.300526, -42.819786]}, "properties": {}}, {"type": "Feature", "geometry": {"type": "Point", "coordinates": [-117.114957, 32.725538]}, "properties": {}}, {"type": "Feature", "geometry": {"type": "Point", "coordinates": [-121.815803, 37.512967]}, "properties": {}}, {"type": "Feature", "geometry": {"type": "Point", "coordinates": [-120.655992, 35.308475]}, "properties": {}}, {"type": "Feature", "geometry": {"type": "Point", "coordinates": [-120.86249, 36.712605]}, "properties": {}}, {"type": "Feature", "geometry": {"type": "Point", "coordinates": [-117.220297, 33.348332]}, "properties": {}}, {"type": "Feature", "geometry": {"type": "Point", "coordinates": [-117.113839, 32.639637]}, "properties": {}}, {"type": "Feature", "geometry": {"type": "Point", "coordinates": [143.604462, -37.046897]}, "properties": {}}, {"type": "Feature", "geometry": {"type": "Point", "coordinates": [-105.207775, 39.675857]}, "properties": {}}, {"type": "Feature", "geometry": {"type": "Point", "coordinates": [-117.027502, 33.278165]}, "properties": {}}, {"type": "Feature", "geometry": {"type": "Point", "coordinates": [-122.189256, 39.429178]}, "properties": {}}, {"type": "Feature", "geometry": {"type": "Point", "coordinates": [-100.786578, 32.284836]}, "properties": {}}, {"type": "Feature", "geometry": {"type": "Point", "coordinates": [-117.28512, 33.10708]}, "properties": {}}, {"type": "Feature", "geometry": {"type": "Point", "coordinates": [-117.032587, 33.352205]}, "properties": {}}, {"type": "Feature", "geometry": {"type": "Point", "coordinates": [5.640837, 43.592344]}, "properties": {}}, {"type": "Feature", "geometry": {"type": "Point", "coordinates": [-121.799842, 39.763212]}, "properties": {}}, {"type": "Feature", "geometry": {"type": "Point", "coordinates": [-117.523709, 34.185865]}, "properties": {}}, {"type": "Feature", "geometry": {"type": "Point", "coordinates": [-118.09143, 33.751369]}, "properties": {}}, {"type": "Feature", "geometry": {"type": "Point", "coordinates": [-16.499394, 28.191303]}, "properties": {}}, {"type": "Feature", "geometry": {"type": "Point", "coordinates": [-117.827062, 34.058343]}, "properties": {}}, {"type": "Feature", "geometry": {"type": "Point", "coordinates": [-117.191697, 33.20865]}, "properties": {}}, {"type": "Feature", "geometry": {"type": "Point", "coordinates": [-16.390203, 28.432099]}, "properties": {}}, {"type": "Feature", "geometry": {"type": "Point", "coordinates": [-119.756777, 36.905799]}, "properties": {}}, {"type": "Feature", "geometry": {"type": "Point", "coordinates": [-118.558005, 34.26443]}, "properties": {}}, {"type": "Feature", "geometry": {"type": "Point", "coordinates": [-119.225783, 34.291225]}, "properties": {}}, {"type": "Feature", "geometry": {"type": "Point", "coordinates": [-122.062111, 37.314249]}, "properties": {}}, {"type": "Feature", "geometry": {"type": "Point", "coordinates": [-118.96514, 34.152684]}, "properties": {}}, {"type": "Feature", "geometry": {"type": "Point", "coordinates": [-118.5853, 34.415185]}, "properties": {}}, {"type": "Feature", "geometry": {"type": "Point", "coordinates": [-117.239692, 32.871727]}, "properties": {}}, {"type": "Feature", "geometry": {"type": "Point", "coordinates": [-121.439553, 38.270708]}, "properties": {}}, {"type": "Feature", "geometry": {"type": "Point", "coordinates": [-116.596624, 31.839927]}, "properties": {}}, {"type": "Feature", "geometry": {"type": "Point", "coordinates": [134.670613, -32.879799]}, "properties": {}}, {"type": "Feature", "geometry": {"type": "Point", "coordinates": [-118.5853, 34.415185]}, "properties": {}}, {"type": "Feature", "geometry": {"type": "Point", "coordinates": [-3.789992, 40.535858]}, "properties": {}}, {"type": "Feature", "geometry": {"type": "Point", "coordinates": [-117.973772, 34.126385]}, "properties": {}}, {"type": "Feature", "geometry": {"type": "Point", "coordinates": [-117.771108, 33.573027]}, "properties": {}}, {"type": "Feature", "geometry": {"type": "Point", "coordinates": [-121.311081, 38.617894]}, "properties": {}}, {"type": "Feature", "geometry": {"type": "Point", "coordinates": [-4.060158, 38.033075]}, "properties": {}}, {"type": "Feature", "geometry": {"type": "Point", "coordinates": [5.027156, 43.343353]}, "properties": {}}, {"type": "Feature", "geometry": {"type": "Point", "coordinates": [-117.045183, 34.058613]}, "properties": {}}, {"type": "Feature", "geometry": {"type": "Point", "coordinates": [-105.162312, 40.423044]}, "properties": {}}, {"type": "Feature", "geometry": {"type": "Point", "coordinates": [-121.887955, 37.613883]}, "properties": {}}, {"type": "Feature", "geometry": {"type": "Point", "coordinates": [-118.38145, 34.017796]}, "properties": {}}, {"type": "Feature", "geometry": {"type": "Point", "coordinates": [-121.431694, 38.581383]}, "properties": {}}, {"type": "Feature", "geometry": {"type": "Point", "coordinates": [-118.564972, 34.391438]}, "properties": {}}, {"type": "Feature", "geometry": {"type": "Point", "coordinates": [-117.548114, 34.156901]}, "properties": {}}, {"type": "Feature", "geometry": {"type": "Point", "coordinates": [-122.183573, 37.427522]}, "properties": {}}, {"type": "Feature", "geometry": {"type": "Point", "coordinates": [170.79225, -44.888517]}, "properties": {}}, {"type": "Feature", "geometry": {"type": "Point", "coordinates": [-118.638939, 34.319589]}, "properties": {}}, {"type": "Feature", "geometry": {"type": "Point", "coordinates": [-116.994693, 34.024463]}, "properties": {}}, {"type": "Feature", "geometry": {"type": "Point", "coordinates": [3.06638, 43.153953]}, "properties": {}}, {"type": "Feature", "geometry": {"type": "Point", "coordinates": [-119.225939, 34.291029]}, "properties": {}}, {"type": "Feature", "geometry": {"type": "Point", "coordinates": [-121.196274, 37.68102]}, "properties": {}}, {"type": "Feature", "geometry": {"type": "Point", "coordinates": [-117.086128, 32.717105]}, "properties": {}}, {"type": "Feature", "geometry": {"type": "Point", "coordinates": [-117.542026, 34.126337]}, "properties": {}}, {"type": "Feature", "geometry": {"type": "Point", "coordinates": [-117.053788, 32.818567]}, "properties": {}}, {"type": "Feature", "geometry": {"type": "Point", "coordinates": [-119.226121, 34.294804]}, "properties": {}}, {"type": "Feature", "geometry": {"type": "Point", "coordinates": [-104.881116, 38.877951]}, "properties": {}}, {"type": "Feature", "geometry": {"type": "Point", "coordinates": [-117.541826, 34.128246]}, "properties": {}}, {"type": "Feature", "geometry": {"type": "Point", "coordinates": [0.930744, 41.612269]}, "properties": {}}, {"type": "Feature", "geometry": {"type": "Point", "coordinates": [139.013108, -35.07005]}, "properties": {}}, {"type": "Feature", "geometry": {"type": "Point", "coordinates": [169.154791, -44.690128]}, "properties": {}}, {"type": "Feature", "geometry": {"type": "Point", "coordinates": [-3.31574, 38.026215]}, "properties": {}}, {"type": "Feature", "geometry": {"type": "Point", "coordinates": [-119.720035, 37.093206]}, "properties": {}}, {"type": "Feature", "geometry": {"type": "Point", "coordinates": [-116.892006, 32.913881]}, "properties": {}}, {"type": "Feature", "geometry": {"type": "Point", "coordinates": [5.411673, 43.810819]}, "properties": {}}, {"type": "Feature", "geometry": {"type": "Point", "coordinates": [-105.065457, 40.51187]}, "properties": {}}, {"type": "Feature", "geometry": {"type": "Point", "coordinates": [149.917327, -33.13153]}, "properties": {}}, {"type": "Feature", "geometry": {"type": "Point", "coordinates": [-117.083983, 33.055108]}, "properties": {}}, {"type": "Feature", "geometry": {"type": "Point", "coordinates": [-117.124222, 32.717438]}, "properties": {}}, {"type": "Feature", "geometry": {"type": "Point", "coordinates": [-110.590923, 31.697398]}, "properties": {}}, {"type": "Feature", "geometry": {"type": "Point", "coordinates": [-106.68591, 35.132174]}, "properties": {}}, {"type": "Feature", "geometry": {"type": "Point", "coordinates": [-66.515708, -45.146744]}, "properties": {}}, {"type": "Feature", "geometry": {"type": "Point", "coordinates": [-117.131539, 32.805093]}, "properties": {}}, {"type": "Feature", "geometry": {"type": "Point", "coordinates": [-117.021193, 32.810486]}, "properties": {}}, {"type": "Feature", "geometry": {"type": "Point", "coordinates": [-121.423882, 38.585106]}, "properties": {}}, {"type": "Feature", "geometry": {"type": "Point", "coordinates": [-122.207267, 37.027656]}, "properties": {}}, {"type": "Feature", "geometry": {"type": "Point", "coordinates": [-111.458584, 34.319516]}, "properties": {}}, {"type": "Feature", "geometry": {"type": "Point", "coordinates": [-98.940067, 19.82863]}, "properties": {}}, {"type": "Feature", "geometry": {"type": "Point", "coordinates": [-117.081392, 33.043167]}, "properties": {}}, {"type": "Feature", "geometry": {"type": "Point", "coordinates": [-122.187029, 38.07127]}, "properties": {}}, {"type": "Feature", "geometry": {"type": "Point", "coordinates": [-121.42361, 38.585097]}, "properties": {}}, {"type": "Feature", "geometry": {"type": "Point", "coordinates": [-117.826398, 34.05881]}, "properties": {}}, {"type": "Feature", "geometry": {"type": "Point", "coordinates": [-116.907093, 32.479126]}, "properties": {}}, {"type": "Feature", "geometry": {"type": "Point", "coordinates": [-118.965234, 34.153058]}, "properties": {}}, {"type": "Feature", "geometry": {"type": "Point", "coordinates": [-118.386554, 34.270684]}, "properties": {}}, {"type": "Feature", "geometry": {"type": "Point", "coordinates": [-110.770592, 31.529642]}, "properties": {}}, {"type": "Feature", "geometry": {"type": "Point", "coordinates": [4.06548, 43.800637]}, "properties": {}}, {"type": "Feature", "geometry": {"type": "Point", "coordinates": [-110.642136, 31.787457]}, "properties": {}}, {"type": "Feature", "geometry": {"type": "Point", "coordinates": [-118.671306, 34.314103]}, "properties": {}}, {"type": "Feature", "geometry": {"type": "Point", "coordinates": [-98.902078, 19.0904]}, "properties": {}}, {"type": "Feature", "geometry": {"type": "Point", "coordinates": [-0.517062, 38.628047]}, "properties": {}}, {"type": "Feature", "geometry": {"type": "Point", "coordinates": [-122.809724, 39.018068]}, "properties": {}}, {"type": "Feature", "geometry": {"type": "Point", "coordinates": [-117.037002, 32.838805]}, "properties": {}}, {"type": "Feature", "geometry": {"type": "Point", "coordinates": [-117.826783, 34.058205]}, "properties": {}}, {"type": "Feature", "geometry": {"type": "Point", "coordinates": [-117.6144, 33.581309]}, "properties": {}}, {"type": "Feature", "geometry": {"type": "Point", "coordinates": [-112.442661, 34.610647]}, "properties": {}}, {"type": "Feature", "geometry": {"type": "Point", "coordinates": [-117.265836, 33.966457]}, "properties": {}}, {"type": "Feature", "geometry": {"type": "Point", "coordinates": [-117.217849, 33.349402]}, "properties": {}}, {"type": "Feature", "geometry": {"type": "Point", "coordinates": [-121.79708, 37.399138]}, "properties": {}}, {"type": "Feature", "geometry": {"type": "Point", "coordinates": [-116.061919, 43.522775]}, "properties": {}}, {"type": "Feature", "geometry": {"type": "Point", "coordinates": [-117.826357, 34.058874]}, "properties": {}}, {"type": "Feature", "geometry": {"type": "Point", "coordinates": [-55.467139, -34.289684]}, "properties": {}}, {"type": "Feature", "geometry": {"type": "Point", "coordinates": [146.220227, -34.08138]}, "properties": {}}, {"type": "Feature", "geometry": {"type": "Point", "coordinates": [-116.829201, 32.469733]}, "properties": {}}, {"type": "Feature", "geometry": {"type": "Point", "coordinates": [-118.680428, 34.300706]}, "properties": {}}, {"type": "Feature", "geometry": {"type": "Point", "coordinates": [-121.764093, 38.538935]}, "properties": {}}, {"type": "Feature", "geometry": {"type": "Point", "coordinates": [-116.902743, 32.476838]}, "properties": {}}, {"type": "Feature", "geometry": {"type": "Point", "coordinates": [-117.053843, 32.818554]}, "properties": {}}, {"type": "Feature", "geometry": {"type": "Point", "coordinates": [-118.775637, 34.151408]}, "properties": {}}, {"type": "Feature", "geometry": {"type": "Point", "coordinates": [-116.828969, 32.469254]}, "properties": {}}, {"type": "Feature", "geometry": {"type": "Point", "coordinates": [-118.718965, 34.097802]}, "properties": {}}, {"type": "Feature", "geometry": {"type": "Point", "coordinates": [-119.554506, 34.037664]}, "properties": {}}, {"type": "Feature", "geometry": {"type": "Point", "coordinates": [168.900808, -45.009327]}, "properties": {}}, {"type": "Feature", "geometry": {"type": "Point", "coordinates": [-118.457542, 34.141925]}, "properties": {}}, {"type": "Feature", "geometry": {"type": "Point", "coordinates": [48.087032, 42.336995]}, "properties": {}}, {"type": "Feature", "geometry": {"type": "Point", "coordinates": [-99.229025, 19.691927]}, "properties": {}}, {"type": "Feature", "geometry": {"type": "Point", "coordinates": [135.197628, -32.847757]}, "properties": {}}, {"type": "Feature", "geometry": {"type": "Point", "coordinates": [-117.539245, 33.360747]}, "properties": {}}, {"type": "Feature", "geometry": {"type": "Point", "coordinates": [-119.657232, 37.367035]}, "properties": {}}, {"type": "Feature", "geometry": {"type": "Point", "coordinates": [-117.826278, 34.058908]}, "properties": {}}, {"type": "Feature", "geometry": {"type": "Point", "coordinates": [-121.25972, 38.756067]}, "properties": {}}, {"type": "Feature", "geometry": {"type": "Point", "coordinates": [-99.981126, 20.536816]}, "properties": {}}, {"type": "Feature", "geometry": {"type": "Point", "coordinates": [-119.781394, 36.873472]}, "properties": {}}, {"type": "Feature", "geometry": {"type": "Point", "coordinates": [-105.211414, 40.086015]}, "properties": {}}, {"type": "Feature", "geometry": {"type": "Point", "coordinates": [-97.925212, 30.637523]}, "properties": {}}, {"type": "Feature", "geometry": {"type": "Point", "coordinates": [-121.759978, 36.822307]}, "properties": {}}, {"type": "Feature", "geometry": {"type": "Point", "coordinates": [-122.082505, 37.502831]}, "properties": {}}, {"type": "Feature", "geometry": {"type": "Point", "coordinates": [144.657883, -37.852825]}, "properties": {}}, {"type": "Feature", "geometry": {"type": "Point", "coordinates": [170.11232, -44.540992]}, "properties": {}}, {"type": "Feature", "geometry": {"type": "Point", "coordinates": [-121.801956, 37.396118]}, "properties": {}}, {"type": "Feature", "geometry": {"type": "Point", "coordinates": [2.963706, 43.187546]}, "properties": {}}, {"type": "Feature", "geometry": {"type": "Point", "coordinates": [147.328194, -42.813779]}, "properties": {}}, {"type": "Feature", "geometry": {"type": "Point", "coordinates": [-0.051676, 35.308006]}, "properties": {}}, {"type": "Feature", "geometry": {"type": "Point", "coordinates": [-118.759016, 34.118761]}, "properties": {}}, {"type": "Feature", "geometry": {"type": "Point", "coordinates": [6.15059, 43.713924]}, "properties": {}}, {"type": "Feature", "geometry": {"type": "Point", "coordinates": [-117.085997, 32.717313]}, "properties": {}}, {"type": "Feature", "geometry": {"type": "Point", "coordinates": [-118.971728, 34.155641]}, "properties": {}}, {"type": "Feature", "geometry": {"type": "Point", "coordinates": [-116.668238, 33.111539]}, "properties": {}}, {"type": "Feature", "geometry": {"type": "Point", "coordinates": [-118.165637, 34.202704]}, "properties": {}}, {"type": "Feature", "geometry": {"type": "Point", "coordinates": [5.026481, 43.343906]}, "properties": {}}, {"type": "Feature", "geometry": {"type": "Point", "coordinates": [-119.226867, 34.287503]}, "properties": {}}, {"type": "Feature", "geometry": {"type": "Point", "coordinates": [-118.388257, 33.754115]}, "properties": {}}, {"type": "Feature", "geometry": {"type": "Point", "coordinates": [-98.730113, 30.218514]}, "properties": {}}, {"type": "Feature", "geometry": {"type": "Point", "coordinates": [-117.347473, 33.955957]}, "properties": {}}, {"type": "Feature", "geometry": {"type": "Point", "coordinates": [-121.76901, 37.268702]}, "properties": {}}, {"type": "Feature", "geometry": {"type": "Point", "coordinates": [-118.010338, 33.694057]}, "properties": {}}, {"type": "Feature", "geometry": {"type": "Point", "coordinates": [-117.56783, 34.125236]}, "properties": {}}, {"type": "Feature", "geometry": {"type": "Point", "coordinates": [-121.797111, 37.398008]}, "properties": {}}, {"type": "Feature", "geometry": {"type": "Point", "coordinates": [-99.225537, 30.021393]}, "properties": {}}, {"type": "Feature", "geometry": {"type": "Point", "coordinates": [-119.050723, 34.163493]}, "properties": {}}, {"type": "Feature", "geometry": {"type": "Point", "coordinates": [-118.722625, 34.092625]}, "properties": {}}, {"type": "Feature", "geometry": {"type": "Point", "coordinates": [-121.791736, 36.649475]}, "properties": {}}, {"type": "Feature", "geometry": {"type": "Point", "coordinates": [-117.064583, 32.550892]}, "properties": {}}, {"type": "Feature", "geometry": {"type": "Point", "coordinates": [-121.283711, 38.632032]}, "properties": {}}, {"type": "Feature", "geometry": {"type": "Point", "coordinates": [-119.701293, 37.362791]}, "properties": {}}, {"type": "Feature", "geometry": {"type": "Point", "coordinates": [-118.050064, 33.70528]}, "properties": {}}, {"type": "Feature", "geometry": {"type": "Point", "coordinates": [-97.813543, 30.220724]}, "properties": {}}, {"type": "Feature", "geometry": {"type": "Point", "coordinates": [-117.737446, 33.791524]}, "properties": {}}, {"type": "Feature", "geometry": {"type": "Point", "coordinates": [-63.716016, -35.775696]}, "properties": {}}, {"type": "Feature", "geometry": {"type": "Point", "coordinates": [-121.798928, 37.396655]}, "properties": {}}, {"type": "Feature", "geometry": {"type": "Point", "coordinates": [-97.652607, 30.700992]}, "properties": {}}, {"type": "Feature", "geometry": {"type": "Point", "coordinates": [-119.045083, 34.164251]}, "properties": {}}, {"type": "Feature", "geometry": {"type": "Point", "coordinates": [4.874022, 43.567568]}, "properties": {}}, {"type": "Feature", "geometry": {"type": "Point", "coordinates": [-117.763049, 33.584706]}, "properties": {}}, {"type": "Feature", "geometry": {"type": "Point", "coordinates": [-117.737426, 33.791535]}, "properties": {}}, {"type": "Feature", "geometry": {"type": "Point", "coordinates": [-99.014283, 30.408438]}, "properties": {}}, {"type": "Feature", "geometry": {"type": "Point", "coordinates": [-119.049867, 34.161964]}, "properties": {}}, {"type": "Feature", "geometry": {"type": "Point", "coordinates": [-121.794563, 37.263375]}, "properties": {}}, {"type": "Feature", "geometry": {"type": "Point", "coordinates": [-121.797317, 37.39867]}, "properties": {}}, {"type": "Feature", "geometry": {"type": "Point", "coordinates": [-56.811488, -31.992428]}, "properties": {}}, {"type": "Feature", "geometry": {"type": "Point", "coordinates": [-119.046264, 34.159897]}, "properties": {}}, {"type": "Feature", "geometry": {"type": "Point", "coordinates": [-120.899208, 45.581195]}, "properties": {}}, {"type": "Feature", "geometry": {"type": "Point", "coordinates": [148.669092, -35.631247]}, "properties": {}}, {"type": "Feature", "geometry": {"type": "Point", "coordinates": [-118.723008, 34.09325]}, "properties": {}}, {"type": "Feature", "geometry": {"type": "Point", "coordinates": [-69.016966, -32.527198]}, "properties": {}}, {"type": "Feature", "geometry": {"type": "Point", "coordinates": [-119.792917, 39.401633]}, "properties": {}}, {"type": "Feature", "geometry": {"type": "Point", "coordinates": [-111.911607, 33.535664]}, "properties": {}}, {"type": "Feature", "geometry": {"type": "Point", "coordinates": [-121.796945, 37.399855]}, "properties": {}}, {"type": "Feature", "geometry": {"type": "Point", "coordinates": [-118.19529, 34.098012]}, "properties": {}}, {"type": "Feature", "geometry": {"type": "Point", "coordinates": [-119.720718, 37.093174]}, "properties": {}}, {"type": "Feature", "geometry": {"type": "Point", "coordinates": [172.73144, -43.587184]}, "properties": {}}, {"type": "Feature", "geometry": {"type": "Point", "coordinates": [-117.56783, 34.125236]}, "properties": {}}, {"type": "Feature", "geometry": {"type": "Point", "coordinates": [-119.050653, 34.1634]}, "properties": {}}, {"type": "Feature", "geometry": {"type": "Point", "coordinates": [-117.83235, 34.160321]}, "properties": {}}, {"type": "Feature", "geometry": {"type": "Point", "coordinates": [-117.422848, 33.898769]}, "properties": {}}, {"type": "Feature", "geometry": {"type": "Point", "coordinates": [-111.91157, 33.535623]}, "properties": {}}, {"type": "Feature", "geometry": {"type": "Point", "coordinates": [-121.794025, 36.653713]}, "properties": {}}, {"type": "Feature", "geometry": {"type": "Point", "coordinates": [-117.491403, 33.870965]}, "properties": {}}, {"type": "Feature", "geometry": {"type": "Point", "coordinates": [-118.30729, 34.185617]}, "properties": {}}, {"type": "Feature", "geometry": {"type": "Point", "coordinates": [146.28, -34.06]}, "properties": {}}, {"type": "Feature", "geometry": {"type": "Point", "coordinates": [145.42, -35.69]}, "properties": {}}, {"type": "Feature", "geometry": {"type": "Point", "coordinates": [145.42, -35.69]}, "properties": {}}, {"type": "Feature", "geometry": {"type": "Point", "coordinates": [145.15, -35.62]}, "properties": {}}, {"type": "Feature", "geometry": {"type": "Point", "coordinates": [-122.104724, 37.451712]}, "properties": {}}, {"type": "Feature", "geometry": {"type": "Point", "coordinates": [-14.3539, 28.099996]}, "properties": {}}, {"type": "Feature", "geometry": {"type": "Point", "coordinates": [-117.938428, 34.138351]}, "properties": {}}, {"type": "Feature", "geometry": {"type": "Point", "coordinates": [3.142965, 42.329478]}, "properties": {}}, {"type": "Feature", "geometry": {"type": "Point", "coordinates": [-5.380812, 36.768412]}, "properties": {}}, {"type": "Feature", "geometry": {"type": "Point", "coordinates": [-118.25373, 34.252025]}, "properties": {}}, {"type": "Feature", "geometry": {"type": "Point", "coordinates": [-121.309166, 38.609573]}, "properties": {}}, {"type": "Feature", "geometry": {"type": "Point", "coordinates": [144.51, -35.64]}, "properties": {}}, {"type": "Feature", "geometry": {"type": "Point", "coordinates": [144.59, -35.91]}, "properties": {}}, {"type": "Feature", "geometry": {"type": "Point", "coordinates": [144.63, -35.81]}, "properties": {}}, {"type": "Feature", "geometry": {"type": "Point", "coordinates": [144.59, -35.93]}, "properties": {}}, {"type": "Feature", "geometry": {"type": "Point", "coordinates": [144.59, -35.75]}, "properties": {}}, {"type": "Feature", "geometry": {"type": "Point", "coordinates": [144.56, -35.78]}, "properties": {}}, {"type": "Feature", "geometry": {"type": "Point", "coordinates": [144.57, -35.89]}, "properties": {}}, {"type": "Feature", "geometry": {"type": "Point", "coordinates": [144.56, -35.69]}, "properties": {}}, {"type": "Feature", "geometry": {"type": "Point", "coordinates": [144.58, -35.76]}, "properties": {}}, {"type": "Feature", "geometry": {"type": "Point", "coordinates": [144.64, -35.94]}, "properties": {}}, {"type": "Feature", "geometry": {"type": "Point", "coordinates": [144.28, -35.6]}, "properties": {}}, {"type": "Feature", "geometry": {"type": "Point", "coordinates": [144.64, -35.76]}, "properties": {}}, {"type": "Feature", "geometry": {"type": "Point", "coordinates": [144.28, -35.6]}, "properties": {}}, {"type": "Feature", "geometry": {"type": "Point", "coordinates": [144.9, -35.59]}, "properties": {}}, {"type": "Feature", "geometry": {"type": "Point", "coordinates": [144.61, -35.74]}, "properties": {}}, {"type": "Feature", "geometry": {"type": "Point", "coordinates": [144.59, -35.81]}, "properties": {}}, {"type": "Feature", "geometry": {"type": "Point", "coordinates": [144.72, -35.74]}, "properties": {}}, {"type": "Feature", "geometry": {"type": "Point", "coordinates": [144.87, -35.8]}, "properties": {}}, {"type": "Feature", "geometry": {"type": "Point", "coordinates": [144.66, -36.06]}, "properties": {}}, {"type": "Feature", "geometry": {"type": "Point", "coordinates": [144.61, -35.81]}, "properties": {}}, {"type": "Feature", "geometry": {"type": "Point", "coordinates": [144.79, -35.78]}, "properties": {}}, {"type": "Feature", "geometry": {"type": "Point", "coordinates": [144.89, -35.67]}, "properties": {}}, {"type": "Feature", "geometry": {"type": "Point", "coordinates": [144.81, -35.86]}, "properties": {}}, {"type": "Feature", "geometry": {"type": "Point", "coordinates": [144.66, -35.92]}, "properties": {}}, {"type": "Feature", "geometry": {"type": "Point", "coordinates": [144.57, -35.81]}, "properties": {}}, {"type": "Feature", "geometry": {"type": "Point", "coordinates": [144.63, -35.7]}, "properties": {}}, {"type": "Feature", "geometry": {"type": "Point", "coordinates": [144.63, -35.78]}, "properties": {}}, {"type": "Feature", "geometry": {"type": "Point", "coordinates": [144.69, -35.92]}, "properties": {}}, {"type": "Feature", "geometry": {"type": "Point", "coordinates": [144.89, -35.66]}, "properties": {}}, {"type": "Feature", "geometry": {"type": "Point", "coordinates": [144.8, -35.69]}, "properties": {}}, {"type": "Feature", "geometry": {"type": "Point", "coordinates": [144.75, -35.78]}, "properties": {}}, {"type": "Feature", "geometry": {"type": "Point", "coordinates": [144.87, -35.76]}, "properties": {}}, {"type": "Feature", "geometry": {"type": "Point", "coordinates": [144.81, -35.91]}, "properties": {}}, {"type": "Feature", "geometry": {"type": "Point", "coordinates": [5.8, 52.15]}, "properties": {}}, {"type": "Feature", "geometry": {"type": "Point", "coordinates": [5.65, 50.8]}, "properties": {}}, {"type": "Feature", "geometry": {"type": "Point", "coordinates": [5.65, 50.8]}, "properties": {}}, {"type": "Feature", "geometry": {"type": "Point", "coordinates": [5.65, 50.8]}, "properties": {}}, {"type": "Feature", "geometry": {"type": "Point", "coordinates": [5.8, 52.15]}, "properties": {}}, {"type": "Feature", "geometry": {"type": "Point", "coordinates": [5.268391, 43.802794]}, "properties": {}}, {"type": "Feature", "geometry": {"type": "Point", "coordinates": [-1.581184, 42.573844]}, "properties": {}}, {"type": "Feature", "geometry": {"type": "Point", "coordinates": [-122.238037, 38.181175]}, "properties": {}}, {"type": "Feature", "geometry": {"type": "Point", "coordinates": [-118.492906, 34.103052]}, "properties": {}}, {"type": "Feature", "geometry": {"type": "Point", "coordinates": [-122.55725, 38.293208]}, "properties": {}}, {"type": "Feature", "geometry": {"type": "Point", "coordinates": [-119.807187, 37.056211]}, "properties": {}}, {"type": "Feature", "geometry": {"type": "Point", "coordinates": [-119.225814, 34.291201]}, "properties": {}}, {"type": "Feature", "geometry": {"type": "Point", "coordinates": [-121.801338, 37.39638]}, "properties": {}}, {"type": "Feature", "geometry": {"type": "Point", "coordinates": [-117.099678, 34.042961]}, "properties": {}}, {"type": "Feature", "geometry": {"type": "Point", "coordinates": [-117.181328, 33.090672]}, "properties": {}}, {"type": "Feature", "geometry": {"type": "Point", "coordinates": [-119.04975, 34.162536]}, "properties": {}}, {"type": "Feature", "geometry": {"type": "Point", "coordinates": [-117.614384, 33.581309]}, "properties": {}}, {"type": "Feature", "geometry": {"type": "Point", "coordinates": [-122.187049, 38.071283]}, "properties": {}}, {"type": "Feature", "geometry": {"type": "Point", "coordinates": [-117.074654, 32.825318]}, "properties": {}}, {"type": "Feature", "geometry": {"type": "Point", "coordinates": [-117.56783, 34.125236]}, "properties": {}}, {"type": "Feature", "geometry": {"type": "Point", "coordinates": [-121.777038, 37.634838]}, "properties": {}}, {"type": "Feature", "geometry": {"type": "Point", "coordinates": [-122.138533, 37.26138]}, "properties": {}}, {"type": "Feature", "geometry": {"type": "Point", "coordinates": [-119.714187, 37.342436]}, "properties": {}}, {"type": "Feature", "geometry": {"type": "Point", "coordinates": [-117.826795, 34.058481]}, "properties": {}}, {"type": "Feature", "geometry": {"type": "Point", "coordinates": [-121.353172, 38.576203]}, "properties": {}}, {"type": "Feature", "geometry": {"type": "Point", "coordinates": [-121.79663, 37.399272]}, "properties": {}}, {"type": "Feature", "geometry": {"type": "Point", "coordinates": [144.43068, -37.681192]}, "properties": {}}, {"type": "Feature", "geometry": {"type": "Point", "coordinates": [-121.797444, 37.397341]}, "properties": {}}, {"type": "Feature", "geometry": {"type": "Point", "coordinates": [-121.554661, 36.384981]}, "properties": {}}, {"type": "Feature", "geometry": {"type": "Point", "coordinates": [-122.173256, 37.812054]}, "properties": {}}, {"type": "Feature", "geometry": {"type": "Point", "coordinates": [-118.018944, 33.984703]}, "properties": {}}, {"type": "Feature", "geometry": {"type": "Point", "coordinates": [-121.704713, 37.586367]}, "properties": {}}, {"type": "Feature", "geometry": {"type": "Point", "coordinates": [-121.241233, 37.473119]}, "properties": {}}, {"type": "Feature", "geometry": {"type": "Point", "coordinates": [-121.872937, 37.723011]}, "properties": {}}, {"type": "Feature", "geometry": {"type": "Point", "coordinates": [-121.714216, 37.326121]}, "properties": {}}, {"type": "Feature", "geometry": {"type": "Point", "coordinates": [-117.82003, 34.058568]}, "properties": {}}, {"type": "Feature", "geometry": {"type": "Point", "coordinates": [-119.910194, 36.848068]}, "properties": {}}, {"type": "Feature", "geometry": {"type": "Point", "coordinates": [-118.326461, 34.126246]}, "properties": {}}, {"type": "Feature", "geometry": {"type": "Point", "coordinates": [-117.542092, 34.154875]}, "properties": {}}, {"type": "Feature", "geometry": {"type": "Point", "coordinates": [-121.747305, 37.621608]}, "properties": {}}, {"type": "Feature", "geometry": {"type": "Point", "coordinates": [-118.963705, 34.152594]}, "properties": {}}, {"type": "Feature", "geometry": {"type": "Point", "coordinates": [-117.027896, 32.840664]}, "properties": {}}, {"type": "Feature", "geometry": {"type": "Point", "coordinates": [-117.041377, 32.84075]}, "properties": {}}, {"type": "Feature", "geometry": {"type": "Point", "coordinates": [-122.089608, 37.552372]}, "properties": {}}, {"type": "Feature", "geometry": {"type": "Point", "coordinates": [-121.79963, 37.39648]}, "properties": {}}, {"type": "Feature", "geometry": {"type": "Point", "coordinates": [-121.765659, 38.543596]}, "properties": {}}, {"type": "Feature", "geometry": {"type": "Point", "coordinates": [-121.215017, 37.053567]}, "properties": {}}]}