{"type": "FeatureCollection", "name": "Cicer arietinum", "features": [{"type": "Feature", "geometry": {"type": "Point", "coordinates": [76.759891, 24.537753]}, "properties": {}}, {"type": "Feature", "geometry": {"type": "Point", "coordinates": [-2.436407, 36.881459]}, "properties": {}}, {"type": "Feature", "geometry": {"type": "Point", "coordinates": [76.018736, 25.347461]}, "properties": {}}, {"type": "Feature", "geometry": {"type": "Point", "coordinates": [69.467603, 21.829882]}, "properties": {}}, {"type": "Feature", "geometry": {"type": "Point", "coordinates": [81.783584, 25.449514]}, "properties": {}}, {"type": "Feature", "geometry": {"type": "Point", "coordinates": [76.739424, 12.166693]}, "properties": {}}, {"type": "Feature", "geometry": {"type": "Point", "coordinates": [74.5007, 18.1592]}, "properties": {}}, {"type": "Feature", "geometry": {"type": "Point", "coordinates": [74.5007, 18.1592]}, "properties": {}}, {"type": "Feature", "geometry": {"type": "Point", "coordinates": [74.5007, 18.1592]}, "properties": {}}, {"type": "Feature", "geometry": {"type": "Point", "coordinates": [74.5007, 18.1592]}, "properties": {}}, {"type": "Feature", "geometry": {"type": "Point", "coordinates": [74.5007, 18.1592]}, "properties": {}}, {"type": "Feature", "geometry": {"type": "Point", "coordinates": [74.5007, 18.1592]}, "properties": {}}, {"type": "Feature", "geometry": {"type": "Point", "coordinates": [74.5007, 18.1592]}, "properties": {}}, {"type": "Feature", "geometry": {"type": "Point", "coordinates": [74.5007, 18.1592]}, "properties": {}}, {"type": "Feature", "geometry": {"type": "Point", "coordinates": [74.5007, 18.1592]}, "properties": {}}, {"type": "Feature", "geometry": {"type": "Point", "coordinates": [144.957986, -37.766519]}, "properties": {}}, {"type": "Feature", "geometry": {"type": "Point", "coordinates": [-6.310201, 36.783058]}, "properties": {}}, {"type": "Feature", "geometry": {"type": "Point", "coordinates": [174.797123, -36.769758]}, "properties": {}}, {"type": "Feature", "geometry": {"type": "Point", "coordinates": [72.694262, 30.159277]}, "properties": {}}, {"type": "Feature", "geometry": {"type": "Point", "coordinates": [170.27739, -45.883769]}, "properties": {}}, {"type": "Feature", "geometry": {"type": "Point", "coordinates": [78.015484, 30.338459]}, "properties": {}}, {"type": "Feature", "geometry": {"type": "Point", "coordinates": [78.077103, 30.37385]}, "properties": {}}, {"type": "Feature", "geometry": {"type": "Point", "coordinates": [-80.284087, 36.124952]}, "properties": {}}, {"type": "Feature", "geometry": {"type": "Point", "coordinates": [24.69655, -28.706841]}, "properties": {}}, {"type": "Feature", "geometry": {"type": "Point", "coordinates": [3.78384, 50.97844]}, "properties": {}}, {"type": "Feature", "geometry": {"type": "Point", "coordinates": [16.44269, 48.51958]}, "properties": {}}, {"type": "Feature", "geometry": {"type": "Point", "coordinates": [16.44269, 48.51958]}, "properties": {}}, {"type": "Feature", "geometry": {"type": "Point", "coordinates": [17.62999, 59.19176]}, "properties": {}}, {"type": "Feature", "geometry": {"type": "Point", "coordinates": [17.62994, 59.19175]}, "properties": {}}, {"type": "Feature", "geometry": {"type": "Point", "coordinates": [17.62993, 59.19175]}, "properties": {}}, {"type": "Feature", "geometry": {"type": "Point", "coordinates": [-1.952505, 53.472873]}, "properties": {}}, {"type": "Feature", "geometry": {"type": "Point", "coordinates": [51.241175, 29.21842]}, "properties": {}}, {"type": "Feature", "geometry": {"type": "Point", "coordinates": [51.241323, 29.218503]}, "properties": {}}, {"type": "Feature", "geometry": {"type": "Point", "coordinates": [0.738667, 43.982419]}, "properties": {}}, {"type": "Feature", "geometry": {"type": "Point", "coordinates": [84.610425, 26.283877]}, "properties": {}}, {"type": "Feature", "geometry": {"type": "Point", "coordinates": [51.241122, 29.218447]}, "properties": {}}, {"type": "Feature", "geometry": {"type": "Point", "coordinates": [79.120804, 23.10301]}, "properties": {}}, {"type": "Feature", "geometry": {"type": "Point", "coordinates": [10.162327, 36.849418]}, "properties": {}}, {"type": "Feature", "geometry": {"type": "Point", "coordinates": [28.026701, 36.381043]}, "properties": {}}, {"type": "Feature", "geometry": {"type": "Point", "coordinates": [3.115462, 50.865618]}, "properties": {}}, {"type": "Feature", "geometry": {"type": "Point", "coordinates": [42.967607, 36.880507]}, "properties": {}}, {"type": "Feature", "geometry": {"type": "Point", "coordinates": [48.69463, 33.950208]}, "properties": {}}, {"type": "Feature", "geometry": {"type": "Point", "coordinates": [-3.447622, 48.742183]}, "properties": {}}, {"type": "Feature", "geometry": {"type": "Point", "coordinates": [2.056411, 50.817666]}, "properties": {}}, {"type": "Feature", "geometry": {"type": "Point", "coordinates": [5.528042, 43.684899]}, "properties": {}}, {"type": "Feature", "geometry": {"type": "Point", "coordinates": [-0.108735, 45.952666]}, "properties": {}}, {"type": "Feature", "geometry": {"type": "Point", "coordinates": [0.673305, 47.38135]}, "properties": {}}, {"type": "Feature", "geometry": {"type": "Point", "coordinates": [8.950166, 45.044107]}, "properties": {}}, {"type": "Feature", "geometry": {"type": "Point", "coordinates": [9.420319, 44.961036]}, "properties": {}}, {"type": "Feature", "geometry": {"type": "Point", "coordinates": [6.65, 52.2]}, "properties": {}}, {"type": "Feature", "geometry": {"type": "Point", "coordinates": [-0.075621, 46.193403]}, "properties": {}}, {"type": "Feature", "geometry": {"type": "Point", "coordinates": [0.623484, 43.698244]}, "properties": {}}, {"type": "Feature", "geometry": {"type": "Point", "coordinates": [4.932146, 44.37412]}, "properties": {}}, {"type": "Feature", "geometry": {"type": "Point", "coordinates": [-0.158769, 45.922133]}, "properties": {}}, {"type": "Feature", "geometry": {"type": "Point", "coordinates": [11.688472, 44.303342]}, "properties": {}}, {"type": "Feature", "geometry": {"type": "Point", "coordinates": [4.962566, 43.967892]}, "properties": {}}, {"type": "Feature", "geometry": {"type": "Point", "coordinates": [11.061603, 42.772867]}, "properties": {}}, {"type": "Feature", "geometry": {"type": "Point", "coordinates": [-0.226532, 45.867044]}, "properties": {}}, {"type": "Feature", "geometry": {"type": "Point", "coordinates": [4.993745, 44.008518]}, "properties": {}}, {"type": "Feature", "geometry": {"type": "Point", "coordinates": [-77.059976, 39.103377]}, "properties": {}}, {"type": "Feature", "geometry": {"type": "Point", "coordinates": [133.052083, 42.775423]}, "properties": {}}, {"type": "Feature", "geometry": {"type": "Point", "coordinates": [-117.285372, 47.036408]}, "properties": {}}, {"type": "Feature", "geometry": {"type": "Point", "coordinates": [6.88059, 46.92723]}, "properties": {}}, {"type": "Feature", "geometry": {"type": "Point", "coordinates": [37.918034, -0.677428]}, "properties": {}}, {"type": "Feature", "geometry": {"type": "Point", "coordinates": [12.566167, 55.71023]}, "properties": {}}, {"type": "Feature", "geometry": {"type": "Point", "coordinates": [7.73731, 47.51286]}, "properties": {}}, {"type": "Feature", "geometry": {"type": "Point", "coordinates": [7.73731, 47.51286]}, "properties": {}}, {"type": "Feature", "geometry": {"type": "Point", "coordinates": [7.73731, 47.51286]}, "properties": {}}, {"type": "Feature", "geometry": {"type": "Point", "coordinates": [-0.088132, 51.489333]}, "properties": {}}, {"type": "Feature", "geometry": {"type": "Point", "coordinates": [-117.025955, 36.635522]}, "properties": {}}, {"type": "Feature", "geometry": {"type": "Point", "coordinates": [-101.62172, 20.529013]}, "properties": {}}, {"type": "Feature", "geometry": {"type": "Point", "coordinates": [77.1025, 28.7041]}, "properties": {}}, {"type": "Feature", "geometry": {"type": "Point", "coordinates": [77.1025, 28.7041]}, "properties": {}}, {"type": "Feature", "geometry": {"type": "Point", "coordinates": [77.1025, 28.7041]}, "properties": {}}, {"type": "Feature", "geometry": {"type": "Point", "coordinates": [77.1025, 28.7041]}, "properties": {}}, {"type": "Feature", "geometry": {"type": "Point", "coordinates": [77.1025, 28.7041]}, "properties": {}}, {"type": "Feature", "geometry": {"type": "Point", "coordinates": [77.1025, 28.7041]}, "properties": {}}, {"type": "Feature", "geometry": {"type": "Point", "coordinates": [77.1025, 28.7041]}, "properties": {}}, {"type": "Feature", "geometry": {"type": "Point", "coordinates": [77.1025, 28.7041]}, "properties": {}}, {"type": "Feature", "geometry": {"type": "Point", "coordinates": [77.1025, 28.7041]}, "properties": {}}, {"type": "Feature", "geometry": {"type": "Point", "coordinates": [-87.109823, 16.554557]}, "properties": {}}, {"type": "Feature", "geometry": {"type": "Point", "coordinates": [80.383988, 21.396691]}, "properties": {}}, {"type": "Feature", "geometry": {"type": "Point", "coordinates": [77.1025, 28.7041]}, "properties": {}}, {"type": "Feature", "geometry": {"type": "Point", "coordinates": [5.1, 52.1]}, "properties": {}}, {"type": "Feature", "geometry": {"type": "Point", "coordinates": [51.237098, 29.221758]}, "properties": {}}, {"type": "Feature", "geometry": {"type": "Point", "coordinates": [77.1025, 28.7041]}, "properties": {}}, {"type": "Feature", "geometry": {"type": "Point", "coordinates": [77.1025, 28.7041]}, "properties": {}}, {"type": "Feature", "geometry": {"type": "Point", "coordinates": [77.1025, 28.7041]}, "properties": {}}, {"type": "Feature", "geometry": {"type": "Point", "coordinates": [3.864761, 43.669335]}, "properties": {}}, {"type": "Feature", "geometry": {"type": "Point", "coordinates": [3.421572, 43.460585]}, "properties": {}}, {"type": "Feature", "geometry": {"type": "Point", "coordinates": [4.309973, 43.950825]}, "properties": {}}, {"type": "Feature", "geometry": {"type": "Point", "coordinates": [1.036926, 43.609141]}, "properties": {}}, {"type": "Feature", "geometry": {"type": "Point", "coordinates": [0.518925, 45.088252]}, "properties": {}}, {"type": "Feature", "geometry": {"type": "Point", "coordinates": [89.876997, 27.498679]}, "properties": {}}, {"type": "Feature", "geometry": {"type": "Point", "coordinates": [5.08142, 47.306]}, "properties": {}}, {"type": "Feature", "geometry": {"type": "Point", "coordinates": [-1.012461, 46.152539]}, "properties": {}}, {"type": "Feature", "geometry": {"type": "Point", "coordinates": [0.583235, 44.046613]}, "properties": {}}, {"type": "Feature", "geometry": {"type": "Point", "coordinates": [5.548329, 45.7804]}, "properties": {}}, {"type": "Feature", "geometry": {"type": "Point", "coordinates": [3.066422, 50.620558]}, "properties": {}}, {"type": "Feature", "geometry": {"type": "Point", "coordinates": [12.344297, 45.428938]}, "properties": {}}, {"type": "Feature", "geometry": {"type": "Point", "coordinates": [12.344253, 45.428988]}, "properties": {}}, {"type": "Feature", "geometry": {"type": "Point", "coordinates": [0.011942, 45.855378]}, "properties": {}}, {"type": "Feature", "geometry": {"type": "Point", "coordinates": [77.1025, 28.7041]}, "properties": {}}, {"type": "Feature", "geometry": {"type": "Point", "coordinates": [77.1025, 28.7041]}, "properties": {}}, {"type": "Feature", "geometry": {"type": "Point", "coordinates": [77.1025, 28.7041]}, "properties": {}}, {"type": "Feature", "geometry": {"type": "Point", "coordinates": [77.1025, 28.7041]}, "properties": {}}, {"type": "Feature", "geometry": {"type": "Point", "coordinates": [77.1025, 28.7041]}, "properties": {}}, {"type": "Feature", "geometry": {"type": "Point", "coordinates": [77.1025, 28.7041]}, "properties": {}}, {"type": "Feature", "geometry": {"type": "Point", "coordinates": [77.1025, 28.7041]}, "properties": {}}, {"type": "Feature", "geometry": {"type": "Point", "coordinates": [77.1025, 28.7041]}, "properties": {}}, {"type": "Feature", "geometry": {"type": "Point", "coordinates": [36.754125, 32.555369]}, "properties": {}}, {"type": "Feature", "geometry": {"type": "Point", "coordinates": [7.60456, 47.51313]}, "properties": {}}, {"type": "Feature", "geometry": {"type": "Point", "coordinates": [0.311729, 43.951224]}, "properties": {}}, {"type": "Feature", "geometry": {"type": "Point", "coordinates": [3.089837, 50.59434]}, "properties": {}}, {"type": "Feature", "geometry": {"type": "Point", "coordinates": [6.295178, 62.469587]}, "properties": {}}, {"type": "Feature", "geometry": {"type": "Point", "coordinates": [8.092785, 44.465578]}, "properties": {}}, {"type": "Feature", "geometry": {"type": "Point", "coordinates": [-73.335892, 42.300104]}, "properties": {}}, {"type": "Feature", "geometry": {"type": "Point", "coordinates": [-1.64995, 54.983596]}, "properties": {}}, {"type": "Feature", "geometry": {"type": "Point", "coordinates": [4.01124, 50.84561]}, "properties": {}}, {"type": "Feature", "geometry": {"type": "Point", "coordinates": [4.65, 52.1]}, "properties": {}}, {"type": "Feature", "geometry": {"type": "Point", "coordinates": [4.65, 52.1]}, "properties": {}}, {"type": "Feature", "geometry": {"type": "Point", "coordinates": [4.65, 52.1]}, "properties": {}}, {"type": "Feature", "geometry": {"type": "Point", "coordinates": [30.213781, 60.024995]}, "properties": {}}, {"type": "Feature", "geometry": {"type": "Point", "coordinates": [-57.604767, -38.109856]}, "properties": {}}, {"type": "Feature", "geometry": {"type": "Point", "coordinates": [-52.3855, -24.062528]}, "properties": {}}, {"type": "Feature", "geometry": {"type": "Point", "coordinates": [-52.385278, -24.0625]}, "properties": {}}, {"type": "Feature", "geometry": {"type": "Point", "coordinates": [-88.310322, 36.624298]}, "properties": {}}, {"type": "Feature", "geometry": {"type": "Point", "coordinates": [74.974211, 18.849883]}, "properties": {}}, {"type": "Feature", "geometry": {"type": "Point", "coordinates": [79.691689, 11.684534]}, "properties": {}}, {"type": "Feature", "geometry": {"type": "Point", "coordinates": [74.974211, 18.849883]}, "properties": {}}, {"type": "Feature", "geometry": {"type": "Point", "coordinates": [70.575762, 21.31437]}, "properties": {}}, {"type": "Feature", "geometry": {"type": "Point", "coordinates": [74.959564, 16.336409]}, "properties": {}}, {"type": "Feature", "geometry": {"type": "Point", "coordinates": [44.380428, 33.270691]}, "properties": {}}, {"type": "Feature", "geometry": {"type": "Point", "coordinates": [51.647659, 32.677502]}, "properties": {}}, {"type": "Feature", "geometry": {"type": "Point", "coordinates": [44.380428, 33.270691]}, "properties": {}}, {"type": "Feature", "geometry": {"type": "Point", "coordinates": [3.402162, 43.320983]}, "properties": {}}, {"type": "Feature", "geometry": {"type": "Point", "coordinates": [51.647659, 32.677502]}, "properties": {}}, {"type": "Feature", "geometry": {"type": "Point", "coordinates": [76.50639, 19.516376]}, "properties": {}}, {"type": "Feature", "geometry": {"type": "Point", "coordinates": [81.435202, 21.929304]}, "properties": {}}, {"type": "Feature", "geometry": {"type": "Point", "coordinates": [70.335594, 22.69343]}, "properties": {}}, {"type": "Feature", "geometry": {"type": "Point", "coordinates": [81.45073, 21.930199]}, "properties": {}}, {"type": "Feature", "geometry": {"type": "Point", "coordinates": [75.879157, 26.856117]}, "properties": {}}, {"type": "Feature", "geometry": {"type": "Point", "coordinates": [3.331222, 43.402346]}, "properties": {}}, {"type": "Feature", "geometry": {"type": "Point", "coordinates": [-3.328831, 36.940484]}, "properties": {}}, {"type": "Feature", "geometry": {"type": "Point", "coordinates": [75.365808, 11.973937]}, "properties": {}}, {"type": "Feature", "geometry": {"type": "Point", "coordinates": [11.767308, 43.133178]}, "properties": {}}, {"type": "Feature", "geometry": {"type": "Point", "coordinates": [4.412962, 43.820456]}, "properties": {}}, {"type": "Feature", "geometry": {"type": "Point", "coordinates": [-1.327595, 43.27931]}, "properties": {}}, {"type": "Feature", "geometry": {"type": "Point", "coordinates": [4.428379, 43.823451]}, "properties": {}}, {"type": "Feature", "geometry": {"type": "Point", "coordinates": [4.724801, 44.201702]}, "properties": {}}, {"type": "Feature", "geometry": {"type": "Point", "coordinates": [-73.981611, 40.690018]}, "properties": {}}, {"type": "Feature", "geometry": {"type": "Point", "coordinates": [4.793808, 44.043946]}, "properties": {}}, {"type": "Feature", "geometry": {"type": "Point", "coordinates": [4.99668, 44.008919]}, "properties": {}}, {"type": "Feature", "geometry": {"type": "Point", "coordinates": [-73.981537, 40.690061]}, "properties": {}}, {"type": "Feature", "geometry": {"type": "Point", "coordinates": [10.121928, 44.166357]}, "properties": {}}, {"type": "Feature", "geometry": {"type": "Point", "coordinates": [3.114531, 43.304202]}, "properties": {}}, {"type": "Feature", "geometry": {"type": "Point", "coordinates": [-0.323141, 43.729648]}, "properties": {}}, {"type": "Feature", "geometry": {"type": "Point", "coordinates": [0.032177, 45.955337]}, "properties": {}}, {"type": "Feature", "geometry": {"type": "Point", "coordinates": [12.735579, 42.565348]}, "properties": {}}, {"type": "Feature", "geometry": {"type": "Point", "coordinates": [0.796574, 44.170589]}, "properties": {}}, {"type": "Feature", "geometry": {"type": "Point", "coordinates": [-0.149863, 46.231836]}, "properties": {}}, {"type": "Feature", "geometry": {"type": "Point", "coordinates": [12.292311, 44.177085]}, "properties": {}}, {"type": "Feature", "geometry": {"type": "Point", "coordinates": [-0.000488, 45.753838]}, "properties": {}}, {"type": "Feature", "geometry": {"type": "Point", "coordinates": [36.192742, 36.318159]}, "properties": {}}, {"type": "Feature", "geometry": {"type": "Point", "coordinates": [0.222873, 45.80381]}, "properties": {}}, {"type": "Feature", "geometry": {"type": "Point", "coordinates": [1.475624, 43.373857]}, "properties": {}}, {"type": "Feature", "geometry": {"type": "Point", "coordinates": [4.104611, 43.657688]}, "properties": {}}, {"type": "Feature", "geometry": {"type": "Point", "coordinates": [4.692483, 44.261591]}, "properties": {}}, {"type": "Feature", "geometry": {"type": "Point", "coordinates": [0.86516, 43.611789]}, "properties": {}}, {"type": "Feature", "geometry": {"type": "Point", "coordinates": [4.967278, 43.924671]}, "properties": {}}, {"type": "Feature", "geometry": {"type": "Point", "coordinates": [4.068618, 43.662224]}, "properties": {}}, {"type": "Feature", "geometry": {"type": "Point", "coordinates": [15.13318, 41.856378]}, "properties": {}}, {"type": "Feature", "geometry": {"type": "Point", "coordinates": [2.476034, 43.223833]}, "properties": {}}, {"type": "Feature", "geometry": {"type": "Point", "coordinates": [4.066412, 43.651318]}, "properties": {}}, {"type": "Feature", "geometry": {"type": "Point", "coordinates": [2.240798, 36.250141]}, "properties": {}}, {"type": "Feature", "geometry": {"type": "Point", "coordinates": [1.047212, 44.457212]}, "properties": {}}, {"type": "Feature", "geometry": {"type": "Point", "coordinates": [0.27322, 46.518032]}, "properties": {}}, {"type": "Feature", "geometry": {"type": "Point", "coordinates": [11.532392, 42.605818]}, "properties": {}}, {"type": "Feature", "geometry": {"type": "Point", "coordinates": [5.546275, 45.324983]}, "properties": {}}, {"type": "Feature", "geometry": {"type": "Point", "coordinates": [38.574848, 37.786475]}, "properties": {}}, {"type": "Feature", "geometry": {"type": "Point", "coordinates": [33.861331, 35.100138]}, "properties": {}}, {"type": "Feature", "geometry": {"type": "Point", "coordinates": [12.085028, 44.167313]}, "properties": {}}, {"type": "Feature", "geometry": {"type": "Point", "coordinates": [11.157785, 43.869702]}, "properties": {}}, {"type": "Feature", "geometry": {"type": "Point", "coordinates": [17.729904, 40.740404]}, "properties": {}}, {"type": "Feature", "geometry": {"type": "Point", "coordinates": [12.325556, 41.7925]}, "properties": {}}, {"type": "Feature", "geometry": {"type": "Point", "coordinates": [4.763122, 45.744478]}, "properties": {}}, {"type": "Feature", "geometry": {"type": "Point", "coordinates": [4.989857, 43.89915]}, "properties": {}}, {"type": "Feature", "geometry": {"type": "Point", "coordinates": [-0.311143, 46.079945]}, "properties": {}}, {"type": "Feature", "geometry": {"type": "Point", "coordinates": [4.895607, 45.749139]}, "properties": {}}, {"type": "Feature", "geometry": {"type": "Point", "coordinates": [0.561007, 46.580554]}, "properties": {}}, {"type": "Feature", "geometry": {"type": "Point", "coordinates": [0.478666, 44.02748]}, "properties": {}}, {"type": "Feature", "geometry": {"type": "Point", "coordinates": [5.878156, 43.944023]}, "properties": {}}, {"type": "Feature", "geometry": {"type": "Point", "coordinates": [4.039595, 43.649486]}, "properties": {}}, {"type": "Feature", "geometry": {"type": "Point", "coordinates": [4.937931, 43.973149]}, "properties": {}}, {"type": "Feature", "geometry": {"type": "Point", "coordinates": [-0.948325, 46.182747]}, "properties": {}}, {"type": "Feature", "geometry": {"type": "Point", "coordinates": [5.103709, 43.861554]}, "properties": {}}, {"type": "Feature", "geometry": {"type": "Point", "coordinates": [-4.766573, 48.416129]}, "properties": {}}, {"type": "Feature", "geometry": {"type": "Point", "coordinates": [18.198687, 40.376693]}, "properties": {}}, {"type": "Feature", "geometry": {"type": "Point", "coordinates": [13.772966, 42.700977]}, "properties": {}}, {"type": "Feature", "geometry": {"type": "Point", "coordinates": [10.407791, 43.762474]}, "properties": {}}, {"type": "Feature", "geometry": {"type": "Point", "coordinates": [3.182583, 50.524662]}, "properties": {}}, {"type": "Feature", "geometry": {"type": "Point", "coordinates": [13.621979, 43.239598]}, "properties": {}}, {"type": "Feature", "geometry": {"type": "Point", "coordinates": [18.070556, 40.0025]}, "properties": {}}, {"type": "Feature", "geometry": {"type": "Point", "coordinates": [2.387107, 43.168865]}, "properties": {}}, {"type": "Feature", "geometry": {"type": "Point", "coordinates": [10.079925, 36.792792]}, "properties": {}}, {"type": "Feature", "geometry": {"type": "Point", "coordinates": [13.512782, 43.217287]}, "properties": {}}, {"type": "Feature", "geometry": {"type": "Point", "coordinates": [-74.110504, 4.905829]}, "properties": {}}, {"type": "Feature", "geometry": {"type": "Point", "coordinates": [10.828935, 43.342904]}, "properties": {}}, {"type": "Feature", "geometry": {"type": "Point", "coordinates": [4.045108, 43.700361]}, "properties": {}}, {"type": "Feature", "geometry": {"type": "Point", "coordinates": [11.740182, 42.229585]}, "properties": {}}, {"type": "Feature", "geometry": {"type": "Point", "coordinates": [5.563604, 43.47033]}, "properties": {}}, {"type": "Feature", "geometry": {"type": "Point", "coordinates": [0.145009, 45.768399]}, "properties": {}}, {"type": "Feature", "geometry": {"type": "Point", "coordinates": [4.931078, 43.972663]}, "properties": {}}, {"type": "Feature", "geometry": {"type": "Point", "coordinates": [4.815927, 44.152722]}, "properties": {}}, {"type": "Feature", "geometry": {"type": "Point", "coordinates": [32.586699, 36.087455]}, "properties": {}}, {"type": "Feature", "geometry": {"type": "Point", "coordinates": [0.55976, 43.799465]}, "properties": {}}, {"type": "Feature", "geometry": {"type": "Point", "coordinates": [5.011667, 45.671389]}, "properties": {}}, {"type": "Feature", "geometry": {"type": "Point", "coordinates": [12.863925, 43.815272]}, "properties": {}}, {"type": "Feature", "geometry": {"type": "Point", "coordinates": [-0.271442, 45.664512]}, "properties": {}}, {"type": "Feature", "geometry": {"type": "Point", "coordinates": [13.690939, 43.360729]}, "properties": {}}, {"type": "Feature", "geometry": {"type": "Point", "coordinates": [3.167136, 43.373902]}, "properties": {}}, {"type": "Feature", "geometry": {"type": "Point", "coordinates": [3.167136, 43.373902]}, "properties": {}}, {"type": "Feature", "geometry": {"type": "Point", "coordinates": [4.757122, 45.35184]}, "properties": {}}, {"type": "Feature", "geometry": {"type": "Point", "coordinates": [4.019683, 43.654482]}, "properties": {}}, {"type": "Feature", "geometry": {"type": "Point", "coordinates": [1.905943, 43.518829]}, "properties": {}}, {"type": "Feature", "geometry": {"type": "Point", "coordinates": [9.198288, 45.502672]}, "properties": {}}, {"type": "Feature", "geometry": {"type": "Point", "coordinates": [34.735, 31.995]}, "properties": {}}, {"type": "Feature", "geometry": {"type": "Point", "coordinates": [34.934772, 32.121885]}, "properties": {}}, {"type": "Feature", "geometry": {"type": "Point", "coordinates": [5.55898, 50.55159]}, "properties": {}}, {"type": "Feature", "geometry": {"type": "Point", "coordinates": [15.122432, 41.767036]}, "properties": {}}, {"type": "Feature", "geometry": {"type": "Point", "coordinates": [4.238498, 44.139651]}, "properties": {}}, {"type": "Feature", "geometry": {"type": "Point", "coordinates": [33.137617, 37.164025]}, "properties": {}}, {"type": "Feature", "geometry": {"type": "Point", "coordinates": [12.039499, 44.186253]}, "properties": {}}, {"type": "Feature", "geometry": {"type": "Point", "coordinates": [4.077079, 43.6578]}, "properties": {}}, {"type": "Feature", "geometry": {"type": "Point", "coordinates": [2.96633, 42.656681]}, "properties": {}}, {"type": "Feature", "geometry": {"type": "Point", "coordinates": [1.402012, 43.939015]}, "properties": {}}, {"type": "Feature", "geometry": {"type": "Point", "coordinates": [10.675435, 44.634038]}, "properties": {}}, {"type": "Feature", "geometry": {"type": "Point", "coordinates": [1.624434, 43.479997]}, "properties": {}}, {"type": "Feature", "geometry": {"type": "Point", "coordinates": [2.426253, 48.604322]}, "properties": {}}, {"type": "Feature", "geometry": {"type": "Point", "coordinates": [-0.125127, 45.795809]}, "properties": {}}, {"type": "Feature", "geometry": {"type": "Point", "coordinates": [1.182543, 44.355717]}, "properties": {}}, {"type": "Feature", "geometry": {"type": "Point", "coordinates": [0.203727, 46.715032]}, "properties": {}}, {"type": "Feature", "geometry": {"type": "Point", "coordinates": [5.591038, 43.957384]}, "properties": {}}, {"type": "Feature", "geometry": {"type": "Point", "coordinates": [0.108258, 46.164634]}, "properties": {}}, {"type": "Feature", "geometry": {"type": "Point", "coordinates": [0.503095, 43.767097]}, "properties": {}}, {"type": "Feature", "geometry": {"type": "Point", "coordinates": [0.507944, 43.941444]}, "properties": {}}, {"type": "Feature", "geometry": {"type": "Point", "coordinates": [12.063867, 44.26533]}, "properties": {}}, {"type": "Feature", "geometry": {"type": "Point", "coordinates": [-0.506848, 45.841847]}, "properties": {}}, {"type": "Feature", "geometry": {"type": "Point", "coordinates": [4.651646, 46.932303]}, "properties": {}}, {"type": "Feature", "geometry": {"type": "Point", "coordinates": [-0.718208, 45.684045]}, "properties": {}}, {"type": "Feature", "geometry": {"type": "Point", "coordinates": [-0.668758, 46.820407]}, "properties": {}}, {"type": "Feature", "geometry": {"type": "Point", "coordinates": [10.524347, 44.844104]}, "properties": {}}, {"type": "Feature", "geometry": {"type": "Point", "coordinates": [5.071067, 43.730475]}, "properties": {}}, {"type": "Feature", "geometry": {"type": "Point", "coordinates": [4.700112, 44.709154]}, "properties": {}}, {"type": "Feature", "geometry": {"type": "Point", "coordinates": [9.986125, 45.625417]}, "properties": {}}, {"type": "Feature", "geometry": {"type": "Point", "coordinates": [4.837515, 44.178733]}, "properties": {}}, {"type": "Feature", "geometry": {"type": "Point", "coordinates": [1.398658, 43.939449]}, "properties": {}}, {"type": "Feature", "geometry": {"type": "Point", "coordinates": [5.198602, 43.554453]}, "properties": {}}, {"type": "Feature", "geometry": {"type": "Point", "coordinates": [6.183977, 43.939989]}, "properties": {}}, {"type": "Feature", "geometry": {"type": "Point", "coordinates": [0.354638, 43.708804]}, "properties": {}}, {"type": "Feature", "geometry": {"type": "Point", "coordinates": [2.334287, 48.515835]}, "properties": {}}, {"type": "Feature", "geometry": {"type": "Point", "coordinates": [0.203333, 45.684444]}, "properties": {}}, {"type": "Feature", "geometry": {"type": "Point", "coordinates": [5.801807, 43.729788]}, "properties": {}}, {"type": "Feature", "geometry": {"type": "Point", "coordinates": [10.438047, 43.611509]}, "properties": {}}, {"type": "Feature", "geometry": {"type": "Point", "coordinates": [10.749784, 43.887845]}, "properties": {}}, {"type": "Feature", "geometry": {"type": "Point", "coordinates": [-0.424283, 45.97915]}, "properties": {}}, {"type": "Feature", "geometry": {"type": "Point", "coordinates": [-0.559078, 45.722791]}, "properties": {}}, {"type": "Feature", "geometry": {"type": "Point", "coordinates": [4.929936, 43.97467]}, "properties": {}}, {"type": "Feature", "geometry": {"type": "Point", "coordinates": [4.902603, 44.094128]}, "properties": {}}, {"type": "Feature", "geometry": {"type": "Point", "coordinates": [16.603103, 40.82195]}, "properties": {}}, {"type": "Feature", "geometry": {"type": "Point", "coordinates": [8.973665, 44.91316]}, "properties": {}}, {"type": "Feature", "geometry": {"type": "Point", "coordinates": [0.593456, 46.574844]}, "properties": {}}, {"type": "Feature", "geometry": {"type": "Point", "coordinates": [5.023928, 43.955782]}, "properties": {}}, {"type": "Feature", "geometry": {"type": "Point", "coordinates": [3.978575, 43.612678]}, "properties": {}}, {"type": "Feature", "geometry": {"type": "Point", "coordinates": [10.539168, 44.904419]}, "properties": {}}, {"type": "Feature", "geometry": {"type": "Point", "coordinates": [0.204464, 45.705526]}, "properties": {}}, {"type": "Feature", "geometry": {"type": "Point", "coordinates": [0.566406, 43.644134]}, "properties": {}}, {"type": "Feature", "geometry": {"type": "Point", "coordinates": [32.912158, 45.465545]}, "properties": {}}, {"type": "Feature", "geometry": {"type": "Point", "coordinates": [4.228332, 43.737813]}, "properties": {}}, {"type": "Feature", "geometry": {"type": "Point", "coordinates": [6.206292, 43.312633]}, "properties": {}}, {"type": "Feature", "geometry": {"type": "Point", "coordinates": [4.068392, 43.660805]}, "properties": {}}, {"type": "Feature", "geometry": {"type": "Point", "coordinates": [4.930472, 43.973871]}, "properties": {}}, {"type": "Feature", "geometry": {"type": "Point", "coordinates": [4.93084, 43.973446]}, "properties": {}}, {"type": "Feature", "geometry": {"type": "Point", "coordinates": [2.960639, 43.302167]}, "properties": {}}, {"type": "Feature", "geometry": {"type": "Point", "coordinates": [6.188758, 49.310291]}, "properties": {}}, {"type": "Feature", "geometry": {"type": "Point", "coordinates": [4.663616, 43.904712]}, "properties": {}}, {"type": "Feature", "geometry": {"type": "Point", "coordinates": [2.388082, 43.168633]}, "properties": {}}, {"type": "Feature", "geometry": {"type": "Point", "coordinates": [11.211352, 44.521907]}, "properties": {}}, {"type": "Feature", "geometry": {"type": "Point", "coordinates": [-0.294072, 46.199767]}, "properties": {}}, {"type": "Feature", "geometry": {"type": "Point", "coordinates": [3.012067, 43.338607]}, "properties": {}}, {"type": "Feature", "geometry": {"type": "Point", "coordinates": [4.72018, 44.192059]}, "properties": {}}, {"type": "Feature", "geometry": {"type": "Point", "coordinates": [4.720967, 44.192262]}, "properties": {}}, {"type": "Feature", "geometry": {"type": "Point", "coordinates": [12.596157, 43.064694]}, "properties": {}}, {"type": "Feature", "geometry": {"type": "Point", "coordinates": [-0.345969, 47.328242]}, "properties": {}}, {"type": "Feature", "geometry": {"type": "Point", "coordinates": [5.996901, 43.853935]}, "properties": {}}, {"type": "Feature", "geometry": {"type": "Point", "coordinates": [5.804967, 43.731605]}, "properties": {}}, {"type": "Feature", "geometry": {"type": "Point", "coordinates": [2.201719, 43.527946]}, "properties": {}}, {"type": "Feature", "geometry": {"type": "Point", "coordinates": [1.865297, 43.485602]}, "properties": {}}, {"type": "Feature", "geometry": {"type": "Point", "coordinates": [0.224975, 45.755862]}, "properties": {}}, {"type": "Feature", "geometry": {"type": "Point", "coordinates": [16.60328, 40.821889]}, "properties": {}}]}