{"type": "FeatureCollection", "name": "Acacia senegal Willd.", "features": [{"type": "Feature", "geometry": {"type": "Point", "coordinates": [16.181637, -23.661804]}, "properties": {}}, {"type": "Feature", "geometry": {"type": "Point", "coordinates": [75.7855, 26.9663]}, "properties": {}}, {"type": "Feature", "geometry": {"type": "Point", "coordinates": [75.8141, 26.8704]}, "properties": {}}, {"type": "Feature", "geometry": {"type": "Point", "coordinates": [31.456662, 2.325756]}, "properties": {}}, {"type": "Feature", "geometry": {"type": "Point", "coordinates": [31.4746, 2.254025]}, "properties": {}}, {"type": "Feature", "geometry": {"type": "Point", "coordinates": [31.496512, 2.280611]}, "properties": {}}, {"type": "Feature", "geometry": {"type": "Point", "coordinates": [31.443042, 1.89822]}, "properties": {}}, {"type": "Feature", "geometry": {"type": "Point", "coordinates": [31.538032, 2.333436]}, "properties": {}}, {"type": "Feature", "geometry": {"type": "Point", "coordinates": [31.563715, 2.257441]}, "properties": {}}, {"type": "Feature", "geometry": {"type": "Point", "coordinates": [31.469309, 1.89894]}, "properties": {}}, {"type": "Feature", "geometry": {"type": "Point", "coordinates": [31.465228, 1.906479]}, "properties": {}}, {"type": "Feature", "geometry": {"type": "Point", "coordinates": [31.426803, 2.313869]}, "properties": {}}, {"type": "Feature", "geometry": {"type": "Point", "coordinates": [31.477428, 1.886273]}, "properties": {}}, {"type": "Feature", "geometry": {"type": "Point", "coordinates": [31.563742, 2.27354]}, "properties": {}}, {"type": "Feature", "geometry": {"type": "Point", "coordinates": [40.11943, -1.85691]}, "properties": {}}, {"type": "Feature", "geometry": {"type": "Point", "coordinates": [37.98113, -0.31141]}, "properties": {}}, {"type": "Feature", "geometry": {"type": "Point", "coordinates": [37.95926, -0.29266]}, "properties": {}}, {"type": "Feature", "geometry": {"type": "Point", "coordinates": [1.952816, 7.547195]}, "properties": {}}, {"type": "Feature", "geometry": {"type": "Point", "coordinates": [1.952216, 7.565295]}, "properties": {}}, {"type": "Feature", "geometry": {"type": "Point", "coordinates": [2.101151, 8.567351]}, "properties": {}}, {"type": "Feature", "geometry": {"type": "Point", "coordinates": [1.952216, 7.565295]}, "properties": {}}, {"type": "Feature", "geometry": {"type": "Point", "coordinates": [1.938016, 7.533595]}, "properties": {}}, {"type": "Feature", "geometry": {"type": "Point", "coordinates": [1.938016, 7.533595]}, "properties": {}}, {"type": "Feature", "geometry": {"type": "Point", "coordinates": [1.936016, 7.565895]}, "properties": {}}, {"type": "Feature", "geometry": {"type": "Point", "coordinates": [2.084568, 8.782313]}, "properties": {}}, {"type": "Feature", "geometry": {"type": "Point", "coordinates": [1.925016, 7.551695]}, "properties": {}}, {"type": "Feature", "geometry": {"type": "Point", "coordinates": [1.925016, 7.551695]}, "properties": {}}, {"type": "Feature", "geometry": {"type": "Point", "coordinates": [1.951616, 7.532995]}, "properties": {}}, {"type": "Feature", "geometry": {"type": "Point", "coordinates": [1.952216, 7.565295]}, "properties": {}}, {"type": "Feature", "geometry": {"type": "Point", "coordinates": [1.952216, 7.565295]}, "properties": {}}, {"type": "Feature", "geometry": {"type": "Point", "coordinates": [1.925016, 7.551695]}, "properties": {}}, {"type": "Feature", "geometry": {"type": "Point", "coordinates": [2.046595, 8.820651]}, "properties": {}}, {"type": "Feature", "geometry": {"type": "Point", "coordinates": [1.925016, 7.551695]}, "properties": {}}, {"type": "Feature", "geometry": {"type": "Point", "coordinates": [1.925016, 7.551695]}, "properties": {}}, {"type": "Feature", "geometry": {"type": "Point", "coordinates": [1.936016, 7.565895]}, "properties": {}}, {"type": "Feature", "geometry": {"type": "Point", "coordinates": [1.925016, 7.551695]}, "properties": {}}, {"type": "Feature", "geometry": {"type": "Point", "coordinates": [2.084568, 8.782313]}, "properties": {}}, {"type": "Feature", "geometry": {"type": "Point", "coordinates": [1.815429, 7.746896]}, "properties": {}}, {"type": "Feature", "geometry": {"type": "Point", "coordinates": [2.114751, 8.566751]}, "properties": {}}, {"type": "Feature", "geometry": {"type": "Point", "coordinates": [1.760899, 8.826593]}, "properties": {}}, {"type": "Feature", "geometry": {"type": "Point", "coordinates": [39.604065, -0.66925]}, "properties": {}}, {"type": "Feature", "geometry": {"type": "Point", "coordinates": [1.749661, 9.686033]}, "properties": {}}, {"type": "Feature", "geometry": {"type": "Point", "coordinates": [1.756701, 9.707032]}, "properties": {}}, {"type": "Feature", "geometry": {"type": "Point", "coordinates": [1.917612, 9.418652]}, "properties": {}}, {"type": "Feature", "geometry": {"type": "Point", "coordinates": [1.5928, 9.68693]}, "properties": {}}, {"type": "Feature", "geometry": {"type": "Point", "coordinates": [1.574238, 9.793101]}, "properties": {}}, {"type": "Feature", "geometry": {"type": "Point", "coordinates": [1.497783, 9.780168]}, "properties": {}}, {"type": "Feature", "geometry": {"type": "Point", "coordinates": [1.853139, 9.84715]}, "properties": {}}, {"type": "Feature", "geometry": {"type": "Point", "coordinates": [1.529176, 9.908308]}, "properties": {}}, {"type": "Feature", "geometry": {"type": "Point", "coordinates": [1.778456, 9.890291]}, "properties": {}}, {"type": "Feature", "geometry": {"type": "Point", "coordinates": [1.511379, 9.249324]}, "properties": {}}, {"type": "Feature", "geometry": {"type": "Point", "coordinates": [1.56298, 9.318017]}, "properties": {}}, {"type": "Feature", "geometry": {"type": "Point", "coordinates": [1.526921, 9.789564]}, "properties": {}}, {"type": "Feature", "geometry": {"type": "Point", "coordinates": [1.907577, 9.531497]}, "properties": {}}, {"type": "Feature", "geometry": {"type": "Point", "coordinates": [1.818249, 9.567559]}, "properties": {}}, {"type": "Feature", "geometry": {"type": "Point", "coordinates": [2.354333, 7.111486]}, "properties": {}}, {"type": "Feature", "geometry": {"type": "Point", "coordinates": [2.400235, 7.146128]}, "properties": {}}, {"type": "Feature", "geometry": {"type": "Point", "coordinates": [2.392407, 7.162445]}, "properties": {}}, {"type": "Feature", "geometry": {"type": "Point", "coordinates": [2.485648, 7.255366]}, "properties": {}}, {"type": "Feature", "geometry": {"type": "Point", "coordinates": [2.486, 7.256958]}, "properties": {}}, {"type": "Feature", "geometry": {"type": "Point", "coordinates": [2.476845, 7.214108]}, "properties": {}}, {"type": "Feature", "geometry": {"type": "Point", "coordinates": [2.463773, 7.223455]}, "properties": {}}, {"type": "Feature", "geometry": {"type": "Point", "coordinates": [2.452696, 7.222899]}, "properties": {}}, {"type": "Feature", "geometry": {"type": "Point", "coordinates": [2.393122, 7.155834]}, "properties": {}}, {"type": "Feature", "geometry": {"type": "Point", "coordinates": [2.399207, 7.170224]}, "properties": {}}, {"type": "Feature", "geometry": {"type": "Point", "coordinates": [6.507445, 5.653225]}, "properties": {}}, {"type": "Feature", "geometry": {"type": "Point", "coordinates": [6.554262, 5.691677]}, "properties": {}}, {"type": "Feature", "geometry": {"type": "Point", "coordinates": [6.53706, 5.689097]}, "properties": {}}, {"type": "Feature", "geometry": {"type": "Point", "coordinates": [6.519873, 5.668008]}, "properties": {}}, {"type": "Feature", "geometry": {"type": "Point", "coordinates": [6.528292, 5.651823]}, "properties": {}}, {"type": "Feature", "geometry": {"type": "Point", "coordinates": [6.533817, 5.696733]}, "properties": {}}, {"type": "Feature", "geometry": {"type": "Point", "coordinates": [2.251936, 10.413078]}, "properties": {}}, {"type": "Feature", "geometry": {"type": "Point", "coordinates": [32.3667, 1.35016]}, "properties": {}}, {"type": "Feature", "geometry": {"type": "Point", "coordinates": [32.45017, 1.25009]}, "properties": {}}, {"type": "Feature", "geometry": {"type": "Point", "coordinates": [32.23358, 1.40017]}, "properties": {}}, {"type": "Feature", "geometry": {"type": "Point", "coordinates": [32.45017, 1.25026]}, "properties": {}}, {"type": "Feature", "geometry": {"type": "Point", "coordinates": [32.45018, 1.25024]}, "properties": {}}, {"type": "Feature", "geometry": {"type": "Point", "coordinates": [32.41677, 1.28357]}, "properties": {}}, {"type": "Feature", "geometry": {"type": "Point", "coordinates": [32.41676, 1.30017]}, "properties": {}}, {"type": "Feature", "geometry": {"type": "Point", "coordinates": [32.41675, 1.30012]}, "properties": {}}, {"type": "Feature", "geometry": {"type": "Point", "coordinates": [32.41678, 1.28356]}, "properties": {}}, {"type": "Feature", "geometry": {"type": "Point", "coordinates": [32.45005, 1.25008]}, "properties": {}}, {"type": "Feature", "geometry": {"type": "Point", "coordinates": [32.23352, 1.40018]}, "properties": {}}, {"type": "Feature", "geometry": {"type": "Point", "coordinates": [32.41686, 1.28346]}, "properties": {}}, {"type": "Feature", "geometry": {"type": "Point", "coordinates": [32.41675, 1.31668]}, "properties": {}}, {"type": "Feature", "geometry": {"type": "Point", "coordinates": [32.45018, 1.25023]}, "properties": {}}, {"type": "Feature", "geometry": {"type": "Point", "coordinates": [32.45019, 1.25017]}, "properties": {}}, {"type": "Feature", "geometry": {"type": "Point", "coordinates": [32.4336, 1.25022]}, "properties": {}}, {"type": "Feature", "geometry": {"type": "Point", "coordinates": [32.41676, 1.3167]}, "properties": {}}, {"type": "Feature", "geometry": {"type": "Point", "coordinates": [32.43338, 1.26676]}, "properties": {}}, {"type": "Feature", "geometry": {"type": "Point", "coordinates": [32.41675, 1.30012]}, "properties": {}}, {"type": "Feature", "geometry": {"type": "Point", "coordinates": [32.41681, 1.28352]}, "properties": {}}, {"type": "Feature", "geometry": {"type": "Point", "coordinates": [2.440225, 11.215458]}, "properties": {}}, {"type": "Feature", "geometry": {"type": "Point", "coordinates": [-1.8457, 11.6967]}, "properties": {}}, {"type": "Feature", "geometry": {"type": "Point", "coordinates": [3.67991, 10.504363]}, "properties": {}}, {"type": "Feature", "geometry": {"type": "Point", "coordinates": [3.684263, 10.480659]}, "properties": {}}, {"type": "Feature", "geometry": {"type": "Point", "coordinates": [2.335729, 11.210496]}, "properties": {}}, {"type": "Feature", "geometry": {"type": "Point", "coordinates": [3.271096, 10.197053]}, "properties": {}}, {"type": "Feature", "geometry": {"type": "Point", "coordinates": [3.340718, 10.313921]}, "properties": {}}, {"type": "Feature", "geometry": {"type": "Point", "coordinates": [54.44639, 17.07056]}, "properties": {}}, {"type": "Feature", "geometry": {"type": "Point", "coordinates": [54.44639, 17.07056]}, "properties": {}}, {"type": "Feature", "geometry": {"type": "Point", "coordinates": [3.142423, 10.350283]}, "properties": {}}, {"type": "Feature", "geometry": {"type": "Point", "coordinates": [2.556627, 10.187341]}, "properties": {}}, {"type": "Feature", "geometry": {"type": "Point", "coordinates": [2.563746, 10.188807]}, "properties": {}}, {"type": "Feature", "geometry": {"type": "Point", "coordinates": [2.553638, 10.196418]}, "properties": {}}, {"type": "Feature", "geometry": {"type": "Point", "coordinates": [2.557339, 10.20704]}, "properties": {}}, {"type": "Feature", "geometry": {"type": "Point", "coordinates": [2.562691, 10.205908]}, "properties": {}}, {"type": "Feature", "geometry": {"type": "Point", "coordinates": [2.560584, 10.204277]}, "properties": {}}, {"type": "Feature", "geometry": {"type": "Point", "coordinates": [2.557181, 10.209274]}, "properties": {}}, {"type": "Feature", "geometry": {"type": "Point", "coordinates": [2.558337, 10.211582]}, "properties": {}}, {"type": "Feature", "geometry": {"type": "Point", "coordinates": [2.697773, 10.386115]}, "properties": {}}, {"type": "Feature", "geometry": {"type": "Point", "coordinates": [2.696723, 10.3852]}, "properties": {}}, {"type": "Feature", "geometry": {"type": "Point", "coordinates": [2.699227, 10.384524]}, "properties": {}}, {"type": "Feature", "geometry": {"type": "Point", "coordinates": [2.697592, 10.384478]}, "properties": {}}, {"type": "Feature", "geometry": {"type": "Point", "coordinates": [2.698523, 10.403363]}, "properties": {}}, {"type": "Feature", "geometry": {"type": "Point", "coordinates": [2.702326, 10.401196]}, "properties": {}}, {"type": "Feature", "geometry": {"type": "Point", "coordinates": [2.696782, 10.390202]}, "properties": {}}, {"type": "Feature", "geometry": {"type": "Point", "coordinates": [2.715666, 10.399083]}, "properties": {}}, {"type": "Feature", "geometry": {"type": "Point", "coordinates": [2.701294, 10.40067]}, "properties": {}}, {"type": "Feature", "geometry": {"type": "Point", "coordinates": [40.41667, 8.315]}, "properties": {}}, {"type": "Feature", "geometry": {"type": "Point", "coordinates": [40.52333, 7.83]}, "properties": {}}, {"type": "Feature", "geometry": {"type": "Point", "coordinates": [40.416667, 8.315]}, "properties": {}}, {"type": "Feature", "geometry": {"type": "Point", "coordinates": [40.523333, 7.83]}, "properties": {}}, {"type": "Feature", "geometry": {"type": "Point", "coordinates": [1.961014, 11.06934]}, "properties": {}}, {"type": "Feature", "geometry": {"type": "Point", "coordinates": [-17.09952, 14.55343]}, "properties": {}}, {"type": "Feature", "geometry": {"type": "Point", "coordinates": [2.198297, 11.377424]}, "properties": {}}, {"type": "Feature", "geometry": {"type": "Point", "coordinates": [2.195178, 11.399727]}, "properties": {}}, {"type": "Feature", "geometry": {"type": "Point", "coordinates": [2.125028, 11.253622]}, "properties": {}}, {"type": "Feature", "geometry": {"type": "Point", "coordinates": [2.173992, 11.216716]}, "properties": {}}, {"type": "Feature", "geometry": {"type": "Point", "coordinates": [2.560318, 11.296953]}, "properties": {}}, {"type": "Feature", "geometry": {"type": "Point", "coordinates": [2.192657, 11.217194]}, "properties": {}}, {"type": "Feature", "geometry": {"type": "Point", "coordinates": [2.218311, 11.213371]}, "properties": {}}, {"type": "Feature", "geometry": {"type": "Point", "coordinates": [2.265087, 11.202576]}, "properties": {}}, {"type": "Feature", "geometry": {"type": "Point", "coordinates": [2.346842, 11.115777]}, "properties": {}}, {"type": "Feature", "geometry": {"type": "Point", "coordinates": [3.1056, 11.980927]}, "properties": {}}, {"type": "Feature", "geometry": {"type": "Point", "coordinates": [10.509386, 9.756821]}, "properties": {}}, {"type": "Feature", "geometry": {"type": "Point", "coordinates": [-1.50418, 12.38085]}, "properties": {}}, {"type": "Feature", "geometry": {"type": "Point", "coordinates": [42.05367, 6.49733]}, "properties": {}}, {"type": "Feature", "geometry": {"type": "Point", "coordinates": [42.053667, 6.497333]}, "properties": {}}, {"type": "Feature", "geometry": {"type": "Point", "coordinates": [41.522333, 6.2625]}, "properties": {}}, {"type": "Feature", "geometry": {"type": "Point", "coordinates": [42.135167, 6.440667]}, "properties": {}}, {"type": "Feature", "geometry": {"type": "Point", "coordinates": [3.3817, 10.2901]}, "properties": {}}, {"type": "Feature", "geometry": {"type": "Point", "coordinates": [-40.25, -14.351944]}, "properties": {}}, {"type": "Feature", "geometry": {"type": "Point", "coordinates": [2.5397, 7.0025]}, "properties": {}}, {"type": "Feature", "geometry": {"type": "Point", "coordinates": [36.113975, -3.52181]}, "properties": {}}, {"type": "Feature", "geometry": {"type": "Point", "coordinates": [36.113975, -3.52181]}, "properties": {}}, {"type": "Feature", "geometry": {"type": "Point", "coordinates": [36.113975, -3.52181]}, "properties": {}}, {"type": "Feature", "geometry": {"type": "Point", "coordinates": [36.113975, -3.52181]}, "properties": {}}, {"type": "Feature", "geometry": {"type": "Point", "coordinates": [36.113975, -3.52181]}, "properties": {}}, {"type": "Feature", "geometry": {"type": "Point", "coordinates": [36.113975, -3.52181]}, "properties": {}}, {"type": "Feature", "geometry": {"type": "Point", "coordinates": [36.113975, -3.52181]}, "properties": {}}, {"type": "Feature", "geometry": {"type": "Point", "coordinates": [36.113975, -3.52181]}, "properties": {}}, {"type": "Feature", "geometry": {"type": "Point", "coordinates": [36.113975, -3.52181]}, "properties": {}}, {"type": "Feature", "geometry": {"type": "Point", "coordinates": [36.113975, -3.52181]}, "properties": {}}, {"type": "Feature", "geometry": {"type": "Point", "coordinates": [36.113975, -3.52181]}, "properties": {}}, {"type": "Feature", "geometry": {"type": "Point", "coordinates": [36.113975, -3.52181]}, "properties": {}}, {"type": "Feature", "geometry": {"type": "Point", "coordinates": [2.5655, 7.049]}, "properties": {}}, {"type": "Feature", "geometry": {"type": "Point", "coordinates": [2.6035, 7.0302]}, "properties": {}}, {"type": "Feature", "geometry": {"type": "Point", "coordinates": [3.381188, 10.027574]}, "properties": {}}, {"type": "Feature", "geometry": {"type": "Point", "coordinates": [3.380601, 10.027854]}, "properties": {}}, {"type": "Feature", "geometry": {"type": "Point", "coordinates": [3.383164, 10.031072]}, "properties": {}}, {"type": "Feature", "geometry": {"type": "Point", "coordinates": [3.383417, 10.036183]}, "properties": {}}, {"type": "Feature", "geometry": {"type": "Point", "coordinates": [3.38027, 10.026656]}, "properties": {}}, {"type": "Feature", "geometry": {"type": "Point", "coordinates": [3.373717, 10.02186]}, "properties": {}}, {"type": "Feature", "geometry": {"type": "Point", "coordinates": [3.381351, 10.02607]}, "properties": {}}, {"type": "Feature", "geometry": {"type": "Point", "coordinates": [3.378466, 10.037309]}, "properties": {}}, {"type": "Feature", "geometry": {"type": "Point", "coordinates": [3.379432, 10.026737]}, "properties": {}}, {"type": "Feature", "geometry": {"type": "Point", "coordinates": [3.379605, 10.027101]}, "properties": {}}, {"type": "Feature", "geometry": {"type": "Point", "coordinates": [3.381551, 10.0277]}, "properties": {}}, {"type": "Feature", "geometry": {"type": "Point", "coordinates": [3.382941, 10.036019]}, "properties": {}}, {"type": "Feature", "geometry": {"type": "Point", "coordinates": [3.383259, 10.031419]}, "properties": {}}, {"type": "Feature", "geometry": {"type": "Point", "coordinates": [3.377428, 10.034753]}, "properties": {}}, {"type": "Feature", "geometry": {"type": "Point", "coordinates": [3.37406, 10.021699]}, "properties": {}}, {"type": "Feature", "geometry": {"type": "Point", "coordinates": [3.376995, 10.034948]}, "properties": {}}, {"type": "Feature", "geometry": {"type": "Point", "coordinates": [3.381276, 10.028436]}, "properties": {}}, {"type": "Feature", "geometry": {"type": "Point", "coordinates": [3.373832, 10.02141]}, "properties": {}}, {"type": "Feature", "geometry": {"type": "Point", "coordinates": [3.380014, 10.027596]}, "properties": {}}, {"type": "Feature", "geometry": {"type": "Point", "coordinates": [3.382892, 10.035445]}, "properties": {}}, {"type": "Feature", "geometry": {"type": "Point", "coordinates": [3.380071, 10.026929]}, "properties": {}}, {"type": "Feature", "geometry": {"type": "Point", "coordinates": [3.380547, 10.026315]}, "properties": {}}, {"type": "Feature", "geometry": {"type": "Point", "coordinates": [3.373808, 10.02215]}, "properties": {}}, {"type": "Feature", "geometry": {"type": "Point", "coordinates": [3.380892, 10.026928]}, "properties": {}}, {"type": "Feature", "geometry": {"type": "Point", "coordinates": [3.379565, 10.026396]}, "properties": {}}, {"type": "Feature", "geometry": {"type": "Point", "coordinates": [3.379589, 10.027432]}, "properties": {}}, {"type": "Feature", "geometry": {"type": "Point", "coordinates": [3.380118, 10.028197]}, "properties": {}}, {"type": "Feature", "geometry": {"type": "Point", "coordinates": [3.380788, 10.028292]}, "properties": {}}, {"type": "Feature", "geometry": {"type": "Point", "coordinates": [3.374517, 10.022051]}, "properties": {}}, {"type": "Feature", "geometry": {"type": "Point", "coordinates": [3.383029, 10.036541]}, "properties": {}}, {"type": "Feature", "geometry": {"type": "Point", "coordinates": [3.380266, 10.028784]}, "properties": {}}, {"type": "Feature", "geometry": {"type": "Point", "coordinates": [3.381746, 10.031738]}, "properties": {}}, {"type": "Feature", "geometry": {"type": "Point", "coordinates": [3.382184, 10.031008]}, "properties": {}}, {"type": "Feature", "geometry": {"type": "Point", "coordinates": [3.379803, 10.016519]}, "properties": {}}, {"type": "Feature", "geometry": {"type": "Point", "coordinates": [2.5973, 6.9098]}, "properties": {}}, {"type": "Feature", "geometry": {"type": "Point", "coordinates": [2.5788, 6.9596]}, "properties": {}}, {"type": "Feature", "geometry": {"type": "Point", "coordinates": [2.5178, 6.9029]}, "properties": {}}, {"type": "Feature", "geometry": {"type": "Point", "coordinates": [1.1166, 10.9333]}, "properties": {}}, {"type": "Feature", "geometry": {"type": "Point", "coordinates": [2.448566, 10.983416]}, "properties": {}}, {"type": "Feature", "geometry": {"type": "Point", "coordinates": [2.49228, 10.929845]}, "properties": {}}, {"type": "Feature", "geometry": {"type": "Point", "coordinates": [2.477157, 10.938321]}, "properties": {}}, {"type": "Feature", "geometry": {"type": "Point", "coordinates": [2.487968, 10.93114]}, "properties": {}}, {"type": "Feature", "geometry": {"type": "Point", "coordinates": [2.690538, 10.90277]}, "properties": {}}, {"type": "Feature", "geometry": {"type": "Point", "coordinates": [2.477998, 10.938684]}, "properties": {}}, {"type": "Feature", "geometry": {"type": "Point", "coordinates": [2.482423, 10.93076]}, "properties": {}}, {"type": "Feature", "geometry": {"type": "Point", "coordinates": [2.480568, 10.92921]}, "properties": {}}, {"type": "Feature", "geometry": {"type": "Point", "coordinates": [2.491273, 10.930305]}, "properties": {}}, {"type": "Feature", "geometry": {"type": "Point", "coordinates": [2.585254, 10.820428]}, "properties": {}}, {"type": "Feature", "geometry": {"type": "Point", "coordinates": [2.489168, 10.930518]}, "properties": {}}, {"type": "Feature", "geometry": {"type": "Point", "coordinates": [2.538506, 10.845449]}, "properties": {}}, {"type": "Feature", "geometry": {"type": "Point", "coordinates": [2.691362, 10.902174]}, "properties": {}}, {"type": "Feature", "geometry": {"type": "Point", "coordinates": [2.483509, 10.932218]}, "properties": {}}, {"type": "Feature", "geometry": {"type": "Point", "coordinates": [1.562588, 9.286955]}, "properties": {}}, {"type": "Feature", "geometry": {"type": "Point", "coordinates": [1.633916, 8.893584]}, "properties": {}}, {"type": "Feature", "geometry": {"type": "Point", "coordinates": [3.102136, 10.192808]}, "properties": {}}, {"type": "Feature", "geometry": {"type": "Point", "coordinates": [3.102765, 10.191497]}, "properties": {}}, {"type": "Feature", "geometry": {"type": "Point", "coordinates": [3.101551, 10.19242]}, "properties": {}}, {"type": "Feature", "geometry": {"type": "Point", "coordinates": [3.097909, 10.194175]}, "properties": {}}, {"type": "Feature", "geometry": {"type": "Point", "coordinates": [3.097936, 10.194347]}, "properties": {}}, {"type": "Feature", "geometry": {"type": "Point", "coordinates": [3.096265, 10.194158]}, "properties": {}}, {"type": "Feature", "geometry": {"type": "Point", "coordinates": [3.09811, 10.194347]}, "properties": {}}, {"type": "Feature", "geometry": {"type": "Point", "coordinates": [3.098146, 10.194257]}, "properties": {}}, {"type": "Feature", "geometry": {"type": "Point", "coordinates": [3.098, 10.194293]}, "properties": {}}, {"type": "Feature", "geometry": {"type": "Point", "coordinates": [3.38185, 10.021208]}, "properties": {}}, {"type": "Feature", "geometry": {"type": "Point", "coordinates": [3.383737, 10.031181]}, "properties": {}}, {"type": "Feature", "geometry": {"type": "Point", "coordinates": [3.378834, 10.0232]}, "properties": {}}, {"type": "Feature", "geometry": {"type": "Point", "coordinates": [3.38452, 10.03118]}, "properties": {}}, {"type": "Feature", "geometry": {"type": "Point", "coordinates": [3.383676, 10.034479]}, "properties": {}}, {"type": "Feature", "geometry": {"type": "Point", "coordinates": [3.382188, 10.035112]}, "properties": {}}, {"type": "Feature", "geometry": {"type": "Point", "coordinates": [3.380462, 10.020547]}, "properties": {}}, {"type": "Feature", "geometry": {"type": "Point", "coordinates": [3.381397, 10.020072]}, "properties": {}}, {"type": "Feature", "geometry": {"type": "Point", "coordinates": [3.382303, 10.025561]}, "properties": {}}, {"type": "Feature", "geometry": {"type": "Point", "coordinates": [3.376492, 10.034985]}, "properties": {}}, {"type": "Feature", "geometry": {"type": "Point", "coordinates": [3.381605, 10.01958]}, "properties": {}}, {"type": "Feature", "geometry": {"type": "Point", "coordinates": [3.385993, 10.034779]}, "properties": {}}, {"type": "Feature", "geometry": {"type": "Point", "coordinates": [3.380012, 10.025592]}, "properties": {}}, {"type": "Feature", "geometry": {"type": "Point", "coordinates": [3.376911, 10.03328]}, "properties": {}}, {"type": "Feature", "geometry": {"type": "Point", "coordinates": [3.384933, 10.034656]}, "properties": {}}, {"type": "Feature", "geometry": {"type": "Point", "coordinates": [3.381998, 10.035085]}, "properties": {}}, {"type": "Feature", "geometry": {"type": "Point", "coordinates": [3.381456, 10.025471]}, "properties": {}}, {"type": "Feature", "geometry": {"type": "Point", "coordinates": [3.376391, 10.0347]}, "properties": {}}, {"type": "Feature", "geometry": {"type": "Point", "coordinates": [3.380825, 10.020842]}, "properties": {}}, {"type": "Feature", "geometry": {"type": "Point", "coordinates": [3.384886, 10.031802]}, "properties": {}}, {"type": "Feature", "geometry": {"type": "Point", "coordinates": [3.375849, 10.033441]}, "properties": {}}, {"type": "Feature", "geometry": {"type": "Point", "coordinates": [3.378814, 10.022401]}, "properties": {}}, {"type": "Feature", "geometry": {"type": "Point", "coordinates": [3.382607, 10.034478]}, "properties": {}}, {"type": "Feature", "geometry": {"type": "Point", "coordinates": [3.385194, 10.031344]}, "properties": {}}, {"type": "Feature", "geometry": {"type": "Point", "coordinates": [3.384849, 10.034227]}, "properties": {}}, {"type": "Feature", "geometry": {"type": "Point", "coordinates": [3.378252, 10.022381]}, "properties": {}}, {"type": "Feature", "geometry": {"type": "Point", "coordinates": [3.382207, 10.03579]}, "properties": {}}, {"type": "Feature", "geometry": {"type": "Point", "coordinates": [3.382289, 10.035328]}, "properties": {}}, {"type": "Feature", "geometry": {"type": "Point", "coordinates": [3.372478, 10.022136]}, "properties": {}}, {"type": "Feature", "geometry": {"type": "Point", "coordinates": [3.380851, 10.025233]}, "properties": {}}, {"type": "Feature", "geometry": {"type": "Point", "coordinates": [3.37712, 10.034278]}, "properties": {}}, {"type": "Feature", "geometry": {"type": "Point", "coordinates": [3.378362, 10.023162]}, "properties": {}}, {"type": "Feature", "geometry": {"type": "Point", "coordinates": [3.37437, 10.02105]}, "properties": {}}, {"type": "Feature", "geometry": {"type": "Point", "coordinates": [3.096475, 10.19414]}, "properties": {}}, {"type": "Feature", "geometry": {"type": "Point", "coordinates": [3.096568, 10.197115]}, "properties": {}}, {"type": "Feature", "geometry": {"type": "Point", "coordinates": [3.096676, 10.194284]}, "properties": {}}, {"type": "Feature", "geometry": {"type": "Point", "coordinates": [3.096349, 10.197233]}, "properties": {}}, {"type": "Feature", "geometry": {"type": "Point", "coordinates": [3.096568, 10.19697]}, "properties": {}}, {"type": "Feature", "geometry": {"type": "Point", "coordinates": [3.096586, 10.196871]}, "properties": {}}, {"type": "Feature", "geometry": {"type": "Point", "coordinates": [3.097216, 10.197314]}, "properties": {}}, {"type": "Feature", "geometry": {"type": "Point", "coordinates": [2.462687, 11.004766]}, "properties": {}}, {"type": "Feature", "geometry": {"type": "Point", "coordinates": [2.458141, 11.003176]}, "properties": {}}, {"type": "Feature", "geometry": {"type": "Point", "coordinates": [2.463177, 11.007209]}, "properties": {}}, {"type": "Feature", "geometry": {"type": "Point", "coordinates": [2.404877, 11.080244]}, "properties": {}}, {"type": "Feature", "geometry": {"type": "Point", "coordinates": [2.459468, 11.003124]}, "properties": {}}, {"type": "Feature", "geometry": {"type": "Point", "coordinates": [2.464824, 11.002148]}, "properties": {}}, {"type": "Feature", "geometry": {"type": "Point", "coordinates": [2.408958, 11.062961]}, "properties": {}}, {"type": "Feature", "geometry": {"type": "Point", "coordinates": [2.4589, 11.003231]}, "properties": {}}, {"type": "Feature", "geometry": {"type": "Point", "coordinates": [2.468692, 10.994341]}, "properties": {}}, {"type": "Feature", "geometry": {"type": "Point", "coordinates": [2.586335, 10.819688]}, "properties": {}}, {"type": "Feature", "geometry": {"type": "Point", "coordinates": [2.458381, 11.001765]}, "properties": {}}, {"type": "Feature", "geometry": {"type": "Point", "coordinates": [2.454851, 11.000213]}, "properties": {}}, {"type": "Feature", "geometry": {"type": "Point", "coordinates": [2.407581, 11.064903]}, "properties": {}}, {"type": "Feature", "geometry": {"type": "Point", "coordinates": [1.626225, 8.93942]}, "properties": {}}, {"type": "Feature", "geometry": {"type": "Point", "coordinates": [1.545414, 9.2775]}, "properties": {}}, {"type": "Feature", "geometry": {"type": "Point", "coordinates": [2.5787, 6.9596]}, "properties": {}}, {"type": "Feature", "geometry": {"type": "Point", "coordinates": [2.69463, 11.427287]}, "properties": {}}, {"type": "Feature", "geometry": {"type": "Point", "coordinates": [2.377902, 11.676188]}, "properties": {}}, {"type": "Feature", "geometry": {"type": "Point", "coordinates": [2.379712, 11.67517]}, "properties": {}}, {"type": "Feature", "geometry": {"type": "Point", "coordinates": [2.382599, 11.676514]}, "properties": {}}, {"type": "Feature", "geometry": {"type": "Point", "coordinates": [2.403607, 11.660299]}, "properties": {}}, {"type": "Feature", "geometry": {"type": "Point", "coordinates": [2.426691, 11.633036]}, "properties": {}}, {"type": "Feature", "geometry": {"type": "Point", "coordinates": [39.808, 6.268833]}, "properties": {}}, {"type": "Feature", "geometry": {"type": "Point", "coordinates": [7.633333, 11.183333]}, "properties": {}}, {"type": "Feature", "geometry": {"type": "Point", "coordinates": [1.74948, 9.685852]}, "properties": {}}, {"type": "Feature", "geometry": {"type": "Point", "coordinates": [1.756519, 9.70685]}, "properties": {}}, {"type": "Feature", "geometry": {"type": "Point", "coordinates": [1.917431, 9.418471]}, "properties": {}}, {"type": "Feature", "geometry": {"type": "Point", "coordinates": [1.592618, 9.686748]}, "properties": {}}, {"type": "Feature", "geometry": {"type": "Point", "coordinates": [1.497602, 9.779987]}, "properties": {}}, {"type": "Feature", "geometry": {"type": "Point", "coordinates": [1.852957, 9.846969]}, "properties": {}}, {"type": "Feature", "geometry": {"type": "Point", "coordinates": [1.778274, 9.89011]}, "properties": {}}, {"type": "Feature", "geometry": {"type": "Point", "coordinates": [1.528995, 9.908127]}, "properties": {}}, {"type": "Feature", "geometry": {"type": "Point", "coordinates": [1.562798, 9.317835]}, "properties": {}}, {"type": "Feature", "geometry": {"type": "Point", "coordinates": [1.574056, 9.792919]}, "properties": {}}, {"type": "Feature", "geometry": {"type": "Point", "coordinates": [1.511198, 9.249143]}, "properties": {}}, {"type": "Feature", "geometry": {"type": "Point", "coordinates": [1.526739, 9.789382]}, "properties": {}}, {"type": "Feature", "geometry": {"type": "Point", "coordinates": [1.907395, 9.531316]}, "properties": {}}, {"type": "Feature", "geometry": {"type": "Point", "coordinates": [1.818067, 9.567377]}, "properties": {}}, {"type": "Feature", "geometry": {"type": "Point", "coordinates": [33.8252, -6.3566]}, "properties": {}}]}