{"type": "FeatureCollection", "name": "Humulus lupulus", "features": [{"type": "Feature", "geometry": {"type": "Point", "coordinates": [19.089689, 47.697383]}, "properties": {}}, {"type": "Feature", "geometry": {"type": "Point", "coordinates": [41.498244, 49.894705]}, "properties": {}}, {"type": "Feature", "geometry": {"type": "Point", "coordinates": [7.700678, 44.499416]}, "properties": {}}, {"type": "Feature", "geometry": {"type": "Point", "coordinates": [171.050768, -44.728956]}, "properties": {}}, {"type": "Feature", "geometry": {"type": "Point", "coordinates": [83.306597, 53.178836]}, "properties": {}}, {"type": "Feature", "geometry": {"type": "Point", "coordinates": [52.212954, 54.878651]}, "properties": {}}, {"type": "Feature", "geometry": {"type": "Point", "coordinates": [-8.265162, 40.282913]}, "properties": {}}, {"type": "Feature", "geometry": {"type": "Point", "coordinates": [15.742372, 47.147545]}, "properties": {}}, {"type": "Feature", "geometry": {"type": "Point", "coordinates": [38.719323, 55.347289]}, "properties": {}}, {"type": "Feature", "geometry": {"type": "Point", "coordinates": [24.442222, 46.338226]}, "properties": {}}, {"type": "Feature", "geometry": {"type": "Point", "coordinates": [83.050001, 54.735585]}, "properties": {}}, {"type": "Feature", "geometry": {"type": "Point", "coordinates": [26.456815, 46.417207]}, "properties": {}}, {"type": "Feature", "geometry": {"type": "Point", "coordinates": [16.268309, 47.999761]}, "properties": {}}, {"type": "Feature", "geometry": {"type": "Point", "coordinates": [15.758648, 47.149385]}, "properties": {}}, {"type": "Feature", "geometry": {"type": "Point", "coordinates": [12.15332, 57.43536]}, "properties": {}}, {"type": "Feature", "geometry": {"type": "Point", "coordinates": [10.541892, 59.898565]}, "properties": {}}, {"type": "Feature", "geometry": {"type": "Point", "coordinates": [8.476319, 49.973663]}, "properties": {}}, {"type": "Feature", "geometry": {"type": "Point", "coordinates": [18.26271, 57.61436]}, "properties": {}}, {"type": "Feature", "geometry": {"type": "Point", "coordinates": [12.8941, 56.63961]}, "properties": {}}, {"type": "Feature", "geometry": {"type": "Point", "coordinates": [15.05408, 57.40532]}, "properties": {}}, {"type": "Feature", "geometry": {"type": "Point", "coordinates": [13.65475, 56.02966]}, "properties": {}}, {"type": "Feature", "geometry": {"type": "Point", "coordinates": [11.903616, 54.721113]}, "properties": {}}, {"type": "Feature", "geometry": {"type": "Point", "coordinates": [12.633449, 55.662747]}, "properties": {}}, {"type": "Feature", "geometry": {"type": "Point", "coordinates": [17.6548, 59.78763]}, "properties": {}}, {"type": "Feature", "geometry": {"type": "Point", "coordinates": [6.42784, 46.56428]}, "properties": {}}, {"type": "Feature", "geometry": {"type": "Point", "coordinates": [6.42784, 46.56428]}, "properties": {}}, {"type": "Feature", "geometry": {"type": "Point", "coordinates": [6.42784, 46.56428]}, "properties": {}}, {"type": "Feature", "geometry": {"type": "Point", "coordinates": [44.933792, 53.237259]}, "properties": {}}, {"type": "Feature", "geometry": {"type": "Point", "coordinates": [84.94348, 56.467195]}, "properties": {}}, {"type": "Feature", "geometry": {"type": "Point", "coordinates": [39.692961, 45.200261]}, "properties": {}}, {"type": "Feature", "geometry": {"type": "Point", "coordinates": [43.176528, 56.988369]}, "properties": {}}, {"type": "Feature", "geometry": {"type": "Point", "coordinates": [40.449697, 56.145209]}, "properties": {}}, {"type": "Feature", "geometry": {"type": "Point", "coordinates": [68.319005, 58.255577]}, "properties": {}}, {"type": "Feature", "geometry": {"type": "Point", "coordinates": [7.700678, 44.499416]}, "properties": {}}, {"type": "Feature", "geometry": {"type": "Point", "coordinates": [17.100432, 47.997326]}, "properties": {}}, {"type": "Feature", "geometry": {"type": "Point", "coordinates": [52.721465, 58.138123]}, "properties": {}}, {"type": "Feature", "geometry": {"type": "Point", "coordinates": [7.5524, 50.344377]}, "properties": {}}, {"type": "Feature", "geometry": {"type": "Point", "coordinates": [31.711883, 58.541997]}, "properties": {}}, {"type": "Feature", "geometry": {"type": "Point", "coordinates": [35.335611, 52.155864]}, "properties": {}}, {"type": "Feature", "geometry": {"type": "Point", "coordinates": [15.732483, 47.12366]}, "properties": {}}, {"type": "Feature", "geometry": {"type": "Point", "coordinates": [19.920296, 50.051217]}, "properties": {}}, {"type": "Feature", "geometry": {"type": "Point", "coordinates": [15.882718, 46.804998]}, "properties": {}}, {"type": "Feature", "geometry": {"type": "Point", "coordinates": [9.644836, 45.665403]}, "properties": {}}, {"type": "Feature", "geometry": {"type": "Point", "coordinates": [37.155096, 54.747214]}, "properties": {}}, {"type": "Feature", "geometry": {"type": "Point", "coordinates": [4.517936, 52.259086]}, "properties": {}}, {"type": "Feature", "geometry": {"type": "Point", "coordinates": [40.449697, 56.145209]}, "properties": {}}, {"type": "Feature", "geometry": {"type": "Point", "coordinates": [17.230885, 49.623482]}, "properties": {}}, {"type": "Feature", "geometry": {"type": "Point", "coordinates": [6.106914, 49.74763]}, "properties": {}}, {"type": "Feature", "geometry": {"type": "Point", "coordinates": [-0.603988, 52.943455]}, "properties": {}}, {"type": "Feature", "geometry": {"type": "Point", "coordinates": [15.961492, 46.972443]}, "properties": {}}, {"type": "Feature", "geometry": {"type": "Point", "coordinates": [35.692303, 52.349339]}, "properties": {}}, {"type": "Feature", "geometry": {"type": "Point", "coordinates": [60.159736, 55.013633]}, "properties": {}}, {"type": "Feature", "geometry": {"type": "Point", "coordinates": [7.604232, 44.931632]}, "properties": {}}, {"type": "Feature", "geometry": {"type": "Point", "coordinates": [171.274911, -44.182076]}, "properties": {}}, {"type": "Feature", "geometry": {"type": "Point", "coordinates": [17.113085, 47.989447]}, "properties": {}}, {"type": "Feature", "geometry": {"type": "Point", "coordinates": [51.255681, 53.917676]}, "properties": {}}, {"type": "Feature", "geometry": {"type": "Point", "coordinates": [52.627493, 58.143458]}, "properties": {}}, {"type": "Feature", "geometry": {"type": "Point", "coordinates": [43.156019, 56.992611]}, "properties": {}}, {"type": "Feature", "geometry": {"type": "Point", "coordinates": [35.683553, 52.343522]}, "properties": {}}, {"type": "Feature", "geometry": {"type": "Point", "coordinates": [15.663735, 46.913925]}, "properties": {}}, {"type": "Feature", "geometry": {"type": "Point", "coordinates": [5.130589, 43.397646]}, "properties": {}}, {"type": "Feature", "geometry": {"type": "Point", "coordinates": [29.238168, 48.408838]}, "properties": {}}, {"type": "Feature", "geometry": {"type": "Point", "coordinates": [35.327258, 52.158306]}, "properties": {}}, {"type": "Feature", "geometry": {"type": "Point", "coordinates": [25.94271, 45.824944]}, "properties": {}}, {"type": "Feature", "geometry": {"type": "Point", "coordinates": [7.700678, 44.499416]}, "properties": {}}, {"type": "Feature", "geometry": {"type": "Point", "coordinates": [15.752095, 47.147722]}, "properties": {}}, {"type": "Feature", "geometry": {"type": "Point", "coordinates": [-7.640031, 41.156078]}, "properties": {}}, {"type": "Feature", "geometry": {"type": "Point", "coordinates": [41.721376, 55.868414]}, "properties": {}}, {"type": "Feature", "geometry": {"type": "Point", "coordinates": [65.394904, 57.162104]}, "properties": {}}, {"type": "Feature", "geometry": {"type": "Point", "coordinates": [52.72368, 58.13763]}, "properties": {}}, {"type": "Feature", "geometry": {"type": "Point", "coordinates": [16.469859, 48.197475]}, "properties": {}}, {"type": "Feature", "geometry": {"type": "Point", "coordinates": [18.871725, 46.6293]}, "properties": {}}, {"type": "Feature", "geometry": {"type": "Point", "coordinates": [14.787798, 47.186565]}, "properties": {}}, {"type": "Feature", "geometry": {"type": "Point", "coordinates": [16.469693, 48.197603]}, "properties": {}}, {"type": "Feature", "geometry": {"type": "Point", "coordinates": [-0.399117, 52.028575]}, "properties": {}}, {"type": "Feature", "geometry": {"type": "Point", "coordinates": [7.332164, 47.73853]}, "properties": {}}, {"type": "Feature", "geometry": {"type": "Point", "coordinates": [34.375372, 53.275199]}, "properties": {}}, {"type": "Feature", "geometry": {"type": "Point", "coordinates": [16.470637, 48.196867]}, "properties": {}}, {"type": "Feature", "geometry": {"type": "Point", "coordinates": [-3.523683, 40.139676]}, "properties": {}}, {"type": "Feature", "geometry": {"type": "Point", "coordinates": [4.456957, 50.880609]}, "properties": {}}, {"type": "Feature", "geometry": {"type": "Point", "coordinates": [60.135039, 55.142824]}, "properties": {}}, {"type": "Feature", "geometry": {"type": "Point", "coordinates": [39.673203, 45.220426]}, "properties": {}}, {"type": "Feature", "geometry": {"type": "Point", "coordinates": [60.138644, 55.13834]}, "properties": {}}, {"type": "Feature", "geometry": {"type": "Point", "coordinates": [28.11573, 38.447602]}, "properties": {}}, {"type": "Feature", "geometry": {"type": "Point", "coordinates": [51.6002, 54.128736]}, "properties": {}}, {"type": "Feature", "geometry": {"type": "Point", "coordinates": [4.65, 51.55]}, "properties": {}}, {"type": "Feature", "geometry": {"type": "Point", "coordinates": [4.5, 51.8]}, "properties": {}}, {"type": "Feature", "geometry": {"type": "Point", "coordinates": [5.1, 52.0]}, "properties": {}}, {"type": "Feature", "geometry": {"type": "Point", "coordinates": [5.45, 51.75]}, "properties": {}}, {"type": "Feature", "geometry": {"type": "Point", "coordinates": [5.65, 50.85]}, "properties": {}}, {"type": "Feature", "geometry": {"type": "Point", "coordinates": [5.5, 51.6]}, "properties": {}}, {"type": "Feature", "geometry": {"type": "Point", "coordinates": [5.4, 51.55]}, "properties": {}}, {"type": "Feature", "geometry": {"type": "Point", "coordinates": [5.75, 51.7]}, "properties": {}}, {"type": "Feature", "geometry": {"type": "Point", "coordinates": [5.55, 52.05]}, "properties": {}}, {"type": "Feature", "geometry": {"type": "Point", "coordinates": [4.5, 52.25]}, "properties": {}}, {"type": "Feature", "geometry": {"type": "Point", "coordinates": [4.5, 52.25]}, "properties": {}}, {"type": "Feature", "geometry": {"type": "Point", "coordinates": [5.65, 50.75]}, "properties": {}}, {"type": "Feature", "geometry": {"type": "Point", "coordinates": [6.0, 52.5]}, "properties": {}}, {"type": "Feature", "geometry": {"type": "Point", "coordinates": [4.2, 52.05]}, "properties": {}}, {"type": "Feature", "geometry": {"type": "Point", "coordinates": [5.65, 51.45]}, "properties": {}}, {"type": "Feature", "geometry": {"type": "Point", "coordinates": [5.45, 51.6]}, "properties": {}}, {"type": "Feature", "geometry": {"type": "Point", "coordinates": [5.25, 51.55]}, "properties": {}}, {"type": "Feature", "geometry": {"type": "Point", "coordinates": [5.55, 52.05]}, "properties": {}}, {"type": "Feature", "geometry": {"type": "Point", "coordinates": [5.65, 51.95]}, "properties": {}}, {"type": "Feature", "geometry": {"type": "Point", "coordinates": [5.1, 51.55]}, "properties": {}}, {"type": "Feature", "geometry": {"type": "Point", "coordinates": [13.508454, 48.187525]}, "properties": {}}, {"type": "Feature", "geometry": {"type": "Point", "coordinates": [6.25, 52.3]}, "properties": {}}, {"type": "Feature", "geometry": {"type": "Point", "coordinates": [170.972136, -42.707178]}, "properties": {}}, {"type": "Feature", "geometry": {"type": "Point", "coordinates": [-0.399117, 52.028575]}, "properties": {}}, {"type": "Feature", "geometry": {"type": "Point", "coordinates": [13.508454, 48.187525]}, "properties": {}}, {"type": "Feature", "geometry": {"type": "Point", "coordinates": [26.102473, 52.111406]}, "properties": {}}, {"type": "Feature", "geometry": {"type": "Point", "coordinates": [51.212454, 53.96623]}, "properties": {}}, {"type": "Feature", "geometry": {"type": "Point", "coordinates": [51.206357, 53.967307]}, "properties": {}}, {"type": "Feature", "geometry": {"type": "Point", "coordinates": [61.322661, 55.151964]}, "properties": {}}, {"type": "Feature", "geometry": {"type": "Point", "coordinates": [11.907554, 54.720139]}, "properties": {}}, {"type": "Feature", "geometry": {"type": "Point", "coordinates": [17.55089, 59.85561]}, "properties": {}}, {"type": "Feature", "geometry": {"type": "Point", "coordinates": [47.27708, 56.123223]}, "properties": {}}, {"type": "Feature", "geometry": {"type": "Point", "coordinates": [16.274528, 48.001196]}, "properties": {}}, {"type": "Feature", "geometry": {"type": "Point", "coordinates": [37.716875, 55.559578]}, "properties": {}}, {"type": "Feature", "geometry": {"type": "Point", "coordinates": [17.116652, 47.987477]}, "properties": {}}, {"type": "Feature", "geometry": {"type": "Point", "coordinates": [10.542161, 59.898596]}, "properties": {}}, {"type": "Feature", "geometry": {"type": "Point", "coordinates": [4.0, 51.85]}, "properties": {}}, {"type": "Feature", "geometry": {"type": "Point", "coordinates": [4.8, 51.4]}, "properties": {}}, {"type": "Feature", "geometry": {"type": "Point", "coordinates": [5.25, 51.65]}, "properties": {}}, {"type": "Feature", "geometry": {"type": "Point", "coordinates": [4.7, 51.7]}, "properties": {}}, {"type": "Feature", "geometry": {"type": "Point", "coordinates": [3.7, 51.7]}, "properties": {}}, {"type": "Feature", "geometry": {"type": "Point", "coordinates": [4.35, 52.05]}, "properties": {}}, {"type": "Feature", "geometry": {"type": "Point", "coordinates": [5.8, 51.75]}, "properties": {}}, {"type": "Feature", "geometry": {"type": "Point", "coordinates": [10.18364, 52.581722]}, "properties": {}}, {"type": "Feature", "geometry": {"type": "Point", "coordinates": [37.831107, 55.402195]}, "properties": {}}, {"type": "Feature", "geometry": {"type": "Point", "coordinates": [51.222329, 53.970787]}, "properties": {}}, {"type": "Feature", "geometry": {"type": "Point", "coordinates": [15.46802, 46.886042]}, "properties": {}}, {"type": "Feature", "geometry": {"type": "Point", "coordinates": [49.532266, 53.432198]}, "properties": {}}, {"type": "Feature", "geometry": {"type": "Point", "coordinates": [16.468293, 48.201532]}, "properties": {}}, {"type": "Feature", "geometry": {"type": "Point", "coordinates": [7.700678, 44.499416]}, "properties": {}}, {"type": "Feature", "geometry": {"type": "Point", "coordinates": [16.468493, 48.198731]}, "properties": {}}, {"type": "Feature", "geometry": {"type": "Point", "coordinates": [16.467648, 48.199457]}, "properties": {}}, {"type": "Feature", "geometry": {"type": "Point", "coordinates": [26.217362, 50.534264]}, "properties": {}}, {"type": "Feature", "geometry": {"type": "Point", "coordinates": [16.464323, 48.201978]}, "properties": {}}, {"type": "Feature", "geometry": {"type": "Point", "coordinates": [16.48237, 48.213748]}, "properties": {}}, {"type": "Feature", "geometry": {"type": "Point", "coordinates": [51.219501, 53.970989]}, "properties": {}}, {"type": "Feature", "geometry": {"type": "Point", "coordinates": [16.481894, 48.212686]}, "properties": {}}, {"type": "Feature", "geometry": {"type": "Point", "coordinates": [16.482375, 48.213967]}, "properties": {}}, {"type": "Feature", "geometry": {"type": "Point", "coordinates": [16.470848, 48.200375]}, "properties": {}}, {"type": "Feature", "geometry": {"type": "Point", "coordinates": [26.218268, 50.534107]}, "properties": {}}, {"type": "Feature", "geometry": {"type": "Point", "coordinates": [15.465648, 46.887207]}, "properties": {}}, {"type": "Feature", "geometry": {"type": "Point", "coordinates": [33.429855, 50.381947]}, "properties": {}}, {"type": "Feature", "geometry": {"type": "Point", "coordinates": [51.206311, 53.96728]}, "properties": {}}, {"type": "Feature", "geometry": {"type": "Point", "coordinates": [16.463672, 48.203272]}, "properties": {}}, {"type": "Feature", "geometry": {"type": "Point", "coordinates": [12.220988, 48.060005]}, "properties": {}}, {"type": "Feature", "geometry": {"type": "Point", "coordinates": [31.7965, 47.294488]}, "properties": {}}, {"type": "Feature", "geometry": {"type": "Point", "coordinates": [31.245878, 58.511794]}, "properties": {}}, {"type": "Feature", "geometry": {"type": "Point", "coordinates": [7.700678, 44.499416]}, "properties": {}}, {"type": "Feature", "geometry": {"type": "Point", "coordinates": [31.730313, 58.550648]}, "properties": {}}, {"type": "Feature", "geometry": {"type": "Point", "coordinates": [16.451039, 48.221376]}, "properties": {}}, {"type": "Feature", "geometry": {"type": "Point", "coordinates": [-81.320798, 41.170946]}, "properties": {}}, {"type": "Feature", "geometry": {"type": "Point", "coordinates": [27.259647, 53.695953]}, "properties": {}}, {"type": "Feature", "geometry": {"type": "Point", "coordinates": [23.993963, 54.603188]}, "properties": {}}, {"type": "Feature", "geometry": {"type": "Point", "coordinates": [51.001376, 53.874178]}, "properties": {}}, {"type": "Feature", "geometry": {"type": "Point", "coordinates": [16.42838, 48.239158]}, "properties": {}}, {"type": "Feature", "geometry": {"type": "Point", "coordinates": [58.635683, 53.802047]}, "properties": {}}, {"type": "Feature", "geometry": {"type": "Point", "coordinates": [51.255861, 53.917312]}, "properties": {}}, {"type": "Feature", "geometry": {"type": "Point", "coordinates": [16.454037, 48.221034]}, "properties": {}}, {"type": "Feature", "geometry": {"type": "Point", "coordinates": [16.432148, 48.237781]}, "properties": {}}, {"type": "Feature", "geometry": {"type": "Point", "coordinates": [31.722415, 58.56394]}, "properties": {}}, {"type": "Feature", "geometry": {"type": "Point", "coordinates": [16.457417, 48.225471]}, "properties": {}}, {"type": "Feature", "geometry": {"type": "Point", "coordinates": [-0.603983, 52.943436]}, "properties": {}}, {"type": "Feature", "geometry": {"type": "Point", "coordinates": [16.425794, 48.242355]}, "properties": {}}, {"type": "Feature", "geometry": {"type": "Point", "coordinates": [58.638069, 53.807224]}, "properties": {}}, {"type": "Feature", "geometry": {"type": "Point", "coordinates": [26.254597, 50.529895]}, "properties": {}}, {"type": "Feature", "geometry": {"type": "Point", "coordinates": [3.55, 51.45]}, "properties": {}}, {"type": "Feature", "geometry": {"type": "Point", "coordinates": [5.85, 51.85]}, "properties": {}}, {"type": "Feature", "geometry": {"type": "Point", "coordinates": [5.05, 51.85]}, "properties": {}}, {"type": "Feature", "geometry": {"type": "Point", "coordinates": [6.25, 52.05]}, "properties": {}}, {"type": "Feature", "geometry": {"type": "Point", "coordinates": [5.45, 51.6]}, "properties": {}}, {"type": "Feature", "geometry": {"type": "Point", "coordinates": [9.52573, 47.141003]}, "properties": {}}, {"type": "Feature", "geometry": {"type": "Point", "coordinates": [13.585089, 47.99327]}, "properties": {}}, {"type": "Feature", "geometry": {"type": "Point", "coordinates": [5.8, 51.15]}, "properties": {}}, {"type": "Feature", "geometry": {"type": "Point", "coordinates": [13.399822, 47.968697]}, "properties": {}}, {"type": "Feature", "geometry": {"type": "Point", "coordinates": [13.48766, 48.220592]}, "properties": {}}, {"type": "Feature", "geometry": {"type": "Point", "coordinates": [172.617068, -41.690775]}, "properties": {}}, {"type": "Feature", "geometry": {"type": "Point", "coordinates": [4.234346, 43.62063]}, "properties": {}}, {"type": "Feature", "geometry": {"type": "Point", "coordinates": [50.992388, 53.868227]}, "properties": {}}, {"type": "Feature", "geometry": {"type": "Point", "coordinates": [50.993764, 53.867717]}, "properties": {}}, {"type": "Feature", "geometry": {"type": "Point", "coordinates": [31.734223, 58.528818]}, "properties": {}}, {"type": "Feature", "geometry": {"type": "Point", "coordinates": [173.23078, -41.305465]}, "properties": {}}, {"type": "Feature", "geometry": {"type": "Point", "coordinates": [16.856633, 47.989747]}, "properties": {}}, {"type": "Feature", "geometry": {"type": "Point", "coordinates": [172.837953, -41.410408]}, "properties": {}}, {"type": "Feature", "geometry": {"type": "Point", "coordinates": [47.237707, 56.121941]}, "properties": {}}, {"type": "Feature", "geometry": {"type": "Point", "coordinates": [51.255814, 53.917347]}, "properties": {}}, {"type": "Feature", "geometry": {"type": "Point", "coordinates": [16.41675, 48.301005]}, "properties": {}}, {"type": "Feature", "geometry": {"type": "Point", "coordinates": [1.520956, 48.92618]}, "properties": {}}, {"type": "Feature", "geometry": {"type": "Point", "coordinates": [13.605763, 47.994189]}, "properties": {}}, {"type": "Feature", "geometry": {"type": "Point", "coordinates": [6.75, 52.35]}, "properties": {}}, {"type": "Feature", "geometry": {"type": "Point", "coordinates": [16.452812, 48.217388]}, "properties": {}}, {"type": "Feature", "geometry": {"type": "Point", "coordinates": [13.585089, 47.99327]}, "properties": {}}, {"type": "Feature", "geometry": {"type": "Point", "coordinates": [83.1269, 54.851028]}, "properties": {}}, {"type": "Feature", "geometry": {"type": "Point", "coordinates": [15.05376, 57.40512]}, "properties": {}}, {"type": "Feature", "geometry": {"type": "Point", "coordinates": [10.598548, 59.893545]}, "properties": {}}, {"type": "Feature", "geometry": {"type": "Point", "coordinates": [5.4, 51.6]}, "properties": {}}, {"type": "Feature", "geometry": {"type": "Point", "coordinates": [59.502442, 55.343943]}, "properties": {}}, {"type": "Feature", "geometry": {"type": "Point", "coordinates": [171.246033, -44.091642]}, "properties": {}}, {"type": "Feature", "geometry": {"type": "Point", "coordinates": [10.765258, 63.498005]}, "properties": {}}, {"type": "Feature", "geometry": {"type": "Point", "coordinates": [58.111586, 55.286881]}, "properties": {}}, {"type": "Feature", "geometry": {"type": "Point", "coordinates": [5.891633, 43.922302]}, "properties": {}}, {"type": "Feature", "geometry": {"type": "Point", "coordinates": [83.706204, 53.54283]}, "properties": {}}, {"type": "Feature", "geometry": {"type": "Point", "coordinates": [77.078864, 43.433055]}, "properties": {}}, {"type": "Feature", "geometry": {"type": "Point", "coordinates": [30.561479, 50.416943]}, "properties": {}}, {"type": "Feature", "geometry": {"type": "Point", "coordinates": [5.891598, 43.922288]}, "properties": {}}, {"type": "Feature", "geometry": {"type": "Point", "coordinates": [33.255792, 58.034796]}, "properties": {}}, {"type": "Feature", "geometry": {"type": "Point", "coordinates": [15.788193, 47.234388]}, "properties": {}}, {"type": "Feature", "geometry": {"type": "Point", "coordinates": [-0.604059, 52.943394]}, "properties": {}}, {"type": "Feature", "geometry": {"type": "Point", "coordinates": [-0.525242, 51.303533]}, "properties": {}}, {"type": "Feature", "geometry": {"type": "Point", "coordinates": [9.881697, 45.421993]}, "properties": {}}, {"type": "Feature", "geometry": {"type": "Point", "coordinates": [173.397389, -41.231533]}, "properties": {}}, {"type": "Feature", "geometry": {"type": "Point", "coordinates": [47.170395, 56.107108]}, "properties": {}}, {"type": "Feature", "geometry": {"type": "Point", "coordinates": [49.358914, 53.506469]}, "properties": {}}, {"type": "Feature", "geometry": {"type": "Point", "coordinates": [13.0404, 55.60545]}, "properties": {}}, {"type": "Feature", "geometry": {"type": "Point", "coordinates": [11.332054, 50.702763]}, "properties": {}}, {"type": "Feature", "geometry": {"type": "Point", "coordinates": [17.55082, 59.85571]}, "properties": {}}, {"type": "Feature", "geometry": {"type": "Point", "coordinates": [10.373978, 59.714749]}, "properties": {}}, {"type": "Feature", "geometry": {"type": "Point", "coordinates": [13.413708, 48.340196]}, "properties": {}}, {"type": "Feature", "geometry": {"type": "Point", "coordinates": [5.95, 51.2]}, "properties": {}}, {"type": "Feature", "geometry": {"type": "Point", "coordinates": [5.6, 51.65]}, "properties": {}}, {"type": "Feature", "geometry": {"type": "Point", "coordinates": [6.3, 51.95]}, "properties": {}}, {"type": "Feature", "geometry": {"type": "Point", "coordinates": [-1.641911, 42.829818]}, "properties": {}}, {"type": "Feature", "geometry": {"type": "Point", "coordinates": [5.25, 51.65]}, "properties": {}}, {"type": "Feature", "geometry": {"type": "Point", "coordinates": [4.55, 51.95]}, "properties": {}}, {"type": "Feature", "geometry": {"type": "Point", "coordinates": [3.85, 51.2]}, "properties": {}}, {"type": "Feature", "geometry": {"type": "Point", "coordinates": [6.95, 53.1]}, "properties": {}}, {"type": "Feature", "geometry": {"type": "Point", "coordinates": [3.95, 51.25]}, "properties": {}}, {"type": "Feature", "geometry": {"type": "Point", "coordinates": [5.6, 51.65]}, "properties": {}}, {"type": "Feature", "geometry": {"type": "Point", "coordinates": [5.65, 51.95]}, "properties": {}}, {"type": "Feature", "geometry": {"type": "Point", "coordinates": [5.5, 51.45]}, "properties": {}}, {"type": "Feature", "geometry": {"type": "Point", "coordinates": [6.05, 52.1]}, "properties": {}}, {"type": "Feature", "geometry": {"type": "Point", "coordinates": [13.221241, 47.415361]}, "properties": {}}, {"type": "Feature", "geometry": {"type": "Point", "coordinates": [3.55, 51.45]}, "properties": {}}, {"type": "Feature", "geometry": {"type": "Point", "coordinates": [4.6, 51.85]}, "properties": {}}, {"type": "Feature", "geometry": {"type": "Point", "coordinates": [8.459278, 49.319607]}, "properties": {}}, {"type": "Feature", "geometry": {"type": "Point", "coordinates": [-1.565439, 47.278827]}, "properties": {}}, {"type": "Feature", "geometry": {"type": "Point", "coordinates": [14.298835, 53.076665]}, "properties": {}}, {"type": "Feature", "geometry": {"type": "Point", "coordinates": [4.813376, 43.973802]}, "properties": {}}, {"type": "Feature", "geometry": {"type": "Point", "coordinates": [39.263669, 45.514736]}, "properties": {}}, {"type": "Feature", "geometry": {"type": "Point", "coordinates": [23.214421, 41.179712]}, "properties": {}}, {"type": "Feature", "geometry": {"type": "Point", "coordinates": [172.55398, -41.711883]}, "properties": {}}, {"type": "Feature", "geometry": {"type": "Point", "coordinates": [171.24567, -44.091484]}, "properties": {}}, {"type": "Feature", "geometry": {"type": "Point", "coordinates": [16.407958, 48.488065]}, "properties": {}}, {"type": "Feature", "geometry": {"type": "Point", "coordinates": [39.424157, 45.394516]}, "properties": {}}, {"type": "Feature", "geometry": {"type": "Point", "coordinates": [61.528406, 55.149961]}, "properties": {}}, {"type": "Feature", "geometry": {"type": "Point", "coordinates": [61.552985, 55.135831]}, "properties": {}}, {"type": "Feature", "geometry": {"type": "Point", "coordinates": [26.133313, 44.401112]}, "properties": {}}, {"type": "Feature", "geometry": {"type": "Point", "coordinates": [26.220846, 50.532375]}, "properties": {}}, {"type": "Feature", "geometry": {"type": "Point", "coordinates": [-71.538942, -41.071511]}, "properties": {}}, {"type": "Feature", "geometry": {"type": "Point", "coordinates": [7.310938, 47.960358]}, "properties": {}}, {"type": "Feature", "geometry": {"type": "Point", "coordinates": [15.87185, 46.726752]}, "properties": {}}, {"type": "Feature", "geometry": {"type": "Point", "coordinates": [-2.562767, 51.461608]}, "properties": {}}, {"type": "Feature", "geometry": {"type": "Point", "coordinates": [83.077862, 54.855543]}, "properties": {}}, {"type": "Feature", "geometry": {"type": "Point", "coordinates": [16.323507, 50.863862]}, "properties": {}}, {"type": "Feature", "geometry": {"type": "Point", "coordinates": [37.465311, 54.875533]}, "properties": {}}, {"type": "Feature", "geometry": {"type": "Point", "coordinates": [172.67568, -43.44922]}, "properties": {}}, {"type": "Feature", "geometry": {"type": "Point", "coordinates": [175.307351, -40.676257]}, "properties": {}}, {"type": "Feature", "geometry": {"type": "Point", "coordinates": [16.323773, 50.863708]}, "properties": {}}, {"type": "Feature", "geometry": {"type": "Point", "coordinates": [10.44434, 45.144228]}, "properties": {}}, {"type": "Feature", "geometry": {"type": "Point", "coordinates": [15.486821, 46.917341]}, "properties": {}}, {"type": "Feature", "geometry": {"type": "Point", "coordinates": [-1.467708, 47.357426]}, "properties": {}}, {"type": "Feature", "geometry": {"type": "Point", "coordinates": [50.089624, 53.445571]}, "properties": {}}, {"type": "Feature", "geometry": {"type": "Point", "coordinates": [-0.473109, 46.213677]}, "properties": {}}, {"type": "Feature", "geometry": {"type": "Point", "coordinates": [40.326866, 56.100395]}, "properties": {}}, {"type": "Feature", "geometry": {"type": "Point", "coordinates": [-0.472975, 46.213715]}, "properties": {}}, {"type": "Feature", "geometry": {"type": "Point", "coordinates": [34.455677, 53.20475]}, "properties": {}}, {"type": "Feature", "geometry": {"type": "Point", "coordinates": [6.135657, 43.202893]}, "properties": {}}, {"type": "Feature", "geometry": {"type": "Point", "coordinates": [-0.546544, 51.307638]}, "properties": {}}, {"type": "Feature", "geometry": {"type": "Point", "coordinates": [7.546314, 45.070973]}, "properties": {}}, {"type": "Feature", "geometry": {"type": "Point", "coordinates": [13.415413, 52.517362]}, "properties": {}}, {"type": "Feature", "geometry": {"type": "Point", "coordinates": [30.502759, 50.47081]}, "properties": {}}, {"type": "Feature", "geometry": {"type": "Point", "coordinates": [16.281853, 47.998633]}, "properties": {}}, {"type": "Feature", "geometry": {"type": "Point", "coordinates": [30.567885, 50.411583]}, "properties": {}}, {"type": "Feature", "geometry": {"type": "Point", "coordinates": [33.526553, 44.594207]}, "properties": {}}, {"type": "Feature", "geometry": {"type": "Point", "coordinates": [0.01151, 49.124294]}, "properties": {}}, {"type": "Feature", "geometry": {"type": "Point", "coordinates": [7.436359, 47.669439]}, "properties": {}}, {"type": "Feature", "geometry": {"type": "Point", "coordinates": [5.5, 51.5]}, "properties": {}}, {"type": "Feature", "geometry": {"type": "Point", "coordinates": [5.5, 51.7]}, "properties": {}}, {"type": "Feature", "geometry": {"type": "Point", "coordinates": [5.5, 51.7]}, "properties": {}}, {"type": "Feature", "geometry": {"type": "Point", "coordinates": [5.3, 51.7]}, "properties": {}}, {"type": "Feature", "geometry": {"type": "Point", "coordinates": [6.25, 52.1]}, "properties": {}}, {"type": "Feature", "geometry": {"type": "Point", "coordinates": [5.4, 51.6]}, "properties": {}}, {"type": "Feature", "geometry": {"type": "Point", "coordinates": [5.6, 51.5]}, "properties": {}}, {"type": "Feature", "geometry": {"type": "Point", "coordinates": [31.884342, 49.209977]}, "properties": {}}, {"type": "Feature", "geometry": {"type": "Point", "coordinates": [51.309162, 53.883627]}, "properties": {}}, {"type": "Feature", "geometry": {"type": "Point", "coordinates": [1.434706, 52.602036]}, "properties": {}}, {"type": "Feature", "geometry": {"type": "Point", "coordinates": [-0.491558, 51.519186]}, "properties": {}}, {"type": "Feature", "geometry": {"type": "Point", "coordinates": [76.938481, 43.217561]}, "properties": {}}, {"type": "Feature", "geometry": {"type": "Point", "coordinates": [20.6944, 47.955936]}, "properties": {}}, {"type": "Feature", "geometry": {"type": "Point", "coordinates": [4.35, 51.45]}, "properties": {}}, {"type": "Feature", "geometry": {"type": "Point", "coordinates": [7.947854, 44.807518]}, "properties": {}}, {"type": "Feature", "geometry": {"type": "Point", "coordinates": [61.528408, 55.149928]}, "properties": {}}, {"type": "Feature", "geometry": {"type": "Point", "coordinates": [15.365598, 48.359342]}, "properties": {}}, {"type": "Feature", "geometry": {"type": "Point", "coordinates": [-0.375286, 51.394563]}, "properties": {}}, {"type": "Feature", "geometry": {"type": "Point", "coordinates": [17.524275, 47.929012]}, "properties": {}}, {"type": "Feature", "geometry": {"type": "Point", "coordinates": [5.142868, 51.631789]}, "properties": {}}]}