{"type": "FeatureCollection", "name": "Achillea millefolium", "features": [{"type": "Feature", "geometry": {"type": "Point", "coordinates": [11.010292, 50.804485]}, "properties": {}}, {"type": "Feature", "geometry": {"type": "Point", "coordinates": [-123.065872, 49.227753]}, "properties": {}}, {"type": "Feature", "geometry": {"type": "Point", "coordinates": [2.77302, 45.52723]}, "properties": {}}, {"type": "Feature", "geometry": {"type": "Point", "coordinates": [-3.240083, 50.698841]}, "properties": {}}, {"type": "Feature", "geometry": {"type": "Point", "coordinates": [-122.654434, 45.662623]}, "properties": {}}, {"type": "Feature", "geometry": {"type": "Point", "coordinates": [14.89358, 48.56447]}, "properties": {}}, {"type": "Feature", "geometry": {"type": "Point", "coordinates": [6.143143, 46.266113]}, "properties": {}}, {"type": "Feature", "geometry": {"type": "Point", "coordinates": [-96.542105, 32.478828]}, "properties": {}}, {"type": "Feature", "geometry": {"type": "Point", "coordinates": [-94.187833, 35.336396]}, "properties": {}}, {"type": "Feature", "geometry": {"type": "Point", "coordinates": [-1.095607, 51.251315]}, "properties": {}}, {"type": "Feature", "geometry": {"type": "Point", "coordinates": [-0.254006, 51.386617]}, "properties": {}}, {"type": "Feature", "geometry": {"type": "Point", "coordinates": [-118.457628, 34.044955]}, "properties": {}}, {"type": "Feature", "geometry": {"type": "Point", "coordinates": [-0.294453, 51.444722]}, "properties": {}}, {"type": "Feature", "geometry": {"type": "Point", "coordinates": [-3.24883, 50.682447]}, "properties": {}}, {"type": "Feature", "geometry": {"type": "Point", "coordinates": [6.146011, 46.268893]}, "properties": {}}, {"type": "Feature", "geometry": {"type": "Point", "coordinates": [-2.494318, 51.488338]}, "properties": {}}, {"type": "Feature", "geometry": {"type": "Point", "coordinates": [-1.476383, 51.866072]}, "properties": {}}, {"type": "Feature", "geometry": {"type": "Point", "coordinates": [-1.108933, 53.957063]}, "properties": {}}, {"type": "Feature", "geometry": {"type": "Point", "coordinates": [14.893379, 48.564521]}, "properties": {}}, {"type": "Feature", "geometry": {"type": "Point", "coordinates": [174.985955, -40.947531]}, "properties": {}}, {"type": "Feature", "geometry": {"type": "Point", "coordinates": [-123.183966, 49.095316]}, "properties": {}}, {"type": "Feature", "geometry": {"type": "Point", "coordinates": [-2.958696, 51.309693]}, "properties": {}}, {"type": "Feature", "geometry": {"type": "Point", "coordinates": [-123.321666, 48.405964]}, "properties": {}}, {"type": "Feature", "geometry": {"type": "Point", "coordinates": [-0.065186, 51.462509]}, "properties": {}}, {"type": "Feature", "geometry": {"type": "Point", "coordinates": [-4.524444, 48.400833]}, "properties": {}}, {"type": "Feature", "geometry": {"type": "Point", "coordinates": [-3.443401, 51.463276]}, "properties": {}}, {"type": "Feature", "geometry": {"type": "Point", "coordinates": [-1.295621, 51.070066]}, "properties": {}}, {"type": "Feature", "geometry": {"type": "Point", "coordinates": [-111.845836, 40.505129]}, "properties": {}}, {"type": "Feature", "geometry": {"type": "Point", "coordinates": [-122.495712, 37.496803]}, "properties": {}}, {"type": "Feature", "geometry": {"type": "Point", "coordinates": [-0.306992, 51.474775]}, "properties": {}}, {"type": "Feature", "geometry": {"type": "Point", "coordinates": [-3.458012, 51.467982]}, "properties": {}}, {"type": "Feature", "geometry": {"type": "Point", "coordinates": [-1.094878, 51.252]}, "properties": {}}, {"type": "Feature", "geometry": {"type": "Point", "coordinates": [171.297267, -44.244813]}, "properties": {}}, {"type": "Feature", "geometry": {"type": "Point", "coordinates": [31.254813, 58.501506]}, "properties": {}}, {"type": "Feature", "geometry": {"type": "Point", "coordinates": [-3.4434, 51.463248]}, "properties": {}}, {"type": "Feature", "geometry": {"type": "Point", "coordinates": [0.17325, 52.157705]}, "properties": {}}, {"type": "Feature", "geometry": {"type": "Point", "coordinates": [2.333953, 48.81958]}, "properties": {}}, {"type": "Feature", "geometry": {"type": "Point", "coordinates": [173.005583, -41.164283]}, "properties": {}}, {"type": "Feature", "geometry": {"type": "Point", "coordinates": [31.307566, 58.518175]}, "properties": {}}, {"type": "Feature", "geometry": {"type": "Point", "coordinates": [-0.791076, 51.050008]}, "properties": {}}, {"type": "Feature", "geometry": {"type": "Point", "coordinates": [-123.012542, 46.80318]}, "properties": {}}, {"type": "Feature", "geometry": {"type": "Point", "coordinates": [46.428856, 55.495563]}, "properties": {}}, {"type": "Feature", "geometry": {"type": "Point", "coordinates": [174.76308, -41.312548]}, "properties": {}}, {"type": "Feature", "geometry": {"type": "Point", "coordinates": [6.141037, 46.256937]}, "properties": {}}, {"type": "Feature", "geometry": {"type": "Point", "coordinates": [-0.0383, 51.502567]}, "properties": {}}, {"type": "Feature", "geometry": {"type": "Point", "coordinates": [-1.099305, 51.252054]}, "properties": {}}, {"type": "Feature", "geometry": {"type": "Point", "coordinates": [-122.651172, 45.374622]}, "properties": {}}, {"type": "Feature", "geometry": {"type": "Point", "coordinates": [168.310407, -45.990708]}, "properties": {}}, {"type": "Feature", "geometry": {"type": "Point", "coordinates": [-1.294753, 51.070436]}, "properties": {}}, {"type": "Feature", "geometry": {"type": "Point", "coordinates": [172.688299, -43.312401]}, "properties": {}}, {"type": "Feature", "geometry": {"type": "Point", "coordinates": [-1.13429, 53.996228]}, "properties": {}}, {"type": "Feature", "geometry": {"type": "Point", "coordinates": [-1.098377, 53.95373]}, "properties": {}}, {"type": "Feature", "geometry": {"type": "Point", "coordinates": [170.24765, -45.20028]}, "properties": {}}, {"type": "Feature", "geometry": {"type": "Point", "coordinates": [-124.045273, 44.623612]}, "properties": {}}, {"type": "Feature", "geometry": {"type": "Point", "coordinates": [-69.287142, -52.770422]}, "properties": {}}, {"type": "Feature", "geometry": {"type": "Point", "coordinates": [-122.758892, 37.840829]}, "properties": {}}, {"type": "Feature", "geometry": {"type": "Point", "coordinates": [174.982403, -41.2503]}, "properties": {}}, {"type": "Feature", "geometry": {"type": "Point", "coordinates": [6.140767, 46.256861]}, "properties": {}}, {"type": "Feature", "geometry": {"type": "Point", "coordinates": [-1.13743, 52.98291]}, "properties": {}}, {"type": "Feature", "geometry": {"type": "Point", "coordinates": [-1.099305, 51.252054]}, "properties": {}}, {"type": "Feature", "geometry": {"type": "Point", "coordinates": [-0.065101, 51.462494]}, "properties": {}}, {"type": "Feature", "geometry": {"type": "Point", "coordinates": [-0.066003, 51.462325]}, "properties": {}}, {"type": "Feature", "geometry": {"type": "Point", "coordinates": [172.780117, -43.714067]}, "properties": {}}, {"type": "Feature", "geometry": {"type": "Point", "coordinates": [-0.660283, 52.918186]}, "properties": {}}, {"type": "Feature", "geometry": {"type": "Point", "coordinates": [-3.443465, 51.46328]}, "properties": {}}, {"type": "Feature", "geometry": {"type": "Point", "coordinates": [172.995653, -41.111749]}, "properties": {}}, {"type": "Feature", "geometry": {"type": "Point", "coordinates": [-2.761126, 52.388227]}, "properties": {}}, {"type": "Feature", "geometry": {"type": "Point", "coordinates": [-0.151492, 51.482678]}, "properties": {}}, {"type": "Feature", "geometry": {"type": "Point", "coordinates": [-2.681259, 51.485461]}, "properties": {}}, {"type": "Feature", "geometry": {"type": "Point", "coordinates": [-2.970883, 53.38355]}, "properties": {}}, {"type": "Feature", "geometry": {"type": "Point", "coordinates": [-0.065192, 51.462509]}, "properties": {}}, {"type": "Feature", "geometry": {"type": "Point", "coordinates": [0.155034, 51.97074]}, "properties": {}}, {"type": "Feature", "geometry": {"type": "Point", "coordinates": [174.986041, -40.947617]}, "properties": {}}, {"type": "Feature", "geometry": {"type": "Point", "coordinates": [-118.554703, 34.396046]}, "properties": {}}, {"type": "Feature", "geometry": {"type": "Point", "coordinates": [-1.07976, 53.955738]}, "properties": {}}, {"type": "Feature", "geometry": {"type": "Point", "coordinates": [-1.095607, 51.251315]}, "properties": {}}, {"type": "Feature", "geometry": {"type": "Point", "coordinates": [-123.531101, 48.42917]}, "properties": {}}, {"type": "Feature", "geometry": {"type": "Point", "coordinates": [-2.975844, 53.411594]}, "properties": {}}, {"type": "Feature", "geometry": {"type": "Point", "coordinates": [2.249709, 42.075661]}, "properties": {}}, {"type": "Feature", "geometry": {"type": "Point", "coordinates": [176.271888, -38.149675]}, "properties": {}}, {"type": "Feature", "geometry": {"type": "Point", "coordinates": [-118.457596, 34.045016]}, "properties": {}}, {"type": "Feature", "geometry": {"type": "Point", "coordinates": [-2.24946, 51.211038]}, "properties": {}}, {"type": "Feature", "geometry": {"type": "Point", "coordinates": [-1.609322, 52.433696]}, "properties": {}}, {"type": "Feature", "geometry": {"type": "Point", "coordinates": [169.119617, -44.699572]}, "properties": {}}, {"type": "Feature", "geometry": {"type": "Point", "coordinates": [-1.294692, 51.070528]}, "properties": {}}, {"type": "Feature", "geometry": {"type": "Point", "coordinates": [-3.248158, 50.675724]}, "properties": {}}, {"type": "Feature", "geometry": {"type": "Point", "coordinates": [-124.116864, 40.98483]}, "properties": {}}, {"type": "Feature", "geometry": {"type": "Point", "coordinates": [-1.094878, 51.252]}, "properties": {}}, {"type": "Feature", "geometry": {"type": "Point", "coordinates": [-1.094878, 51.252]}, "properties": {}}, {"type": "Feature", "geometry": {"type": "Point", "coordinates": [-1.094878, 51.252]}, "properties": {}}, {"type": "Feature", "geometry": {"type": "Point", "coordinates": [16.41651, 56.58221]}, "properties": {}}, {"type": "Feature", "geometry": {"type": "Point", "coordinates": [17.62903, 62.6561]}, "properties": {}}, {"type": "Feature", "geometry": {"type": "Point", "coordinates": [13.24701, 55.52209]}, "properties": {}}, {"type": "Feature", "geometry": {"type": "Point", "coordinates": [11.90712, 58.34167]}, "properties": {}}, {"type": "Feature", "geometry": {"type": "Point", "coordinates": [15.18756, 60.14268]}, "properties": {}}, {"type": "Feature", "geometry": {"type": "Point", "coordinates": [10.521491, 59.917662]}, "properties": {}}, {"type": "Feature", "geometry": {"type": "Point", "coordinates": [8.501898, 58.295822]}, "properties": {}}, {"type": "Feature", "geometry": {"type": "Point", "coordinates": [12.634354, 55.662778]}, "properties": {}}, {"type": "Feature", "geometry": {"type": "Point", "coordinates": [12.544434, 55.666867]}, "properties": {}}, {"type": "Feature", "geometry": {"type": "Point", "coordinates": [12.597297, 56.046632]}, "properties": {}}, {"type": "Feature", "geometry": {"type": "Point", "coordinates": [12.05517, 57.6987]}, "properties": {}}, {"type": "Feature", "geometry": {"type": "Point", "coordinates": [18.26194, 57.6178]}, "properties": {}}, {"type": "Feature", "geometry": {"type": "Point", "coordinates": [16.41198, 56.58649]}, "properties": {}}, {"type": "Feature", "geometry": {"type": "Point", "coordinates": [15.04459, 57.41628]}, "properties": {}}, {"type": "Feature", "geometry": {"type": "Point", "coordinates": [20.0314, 63.66827]}, "properties": {}}, {"type": "Feature", "geometry": {"type": "Point", "coordinates": [11.902015, 54.721208]}, "properties": {}}, {"type": "Feature", "geometry": {"type": "Point", "coordinates": [14.748332, 55.106913]}, "properties": {}}, {"type": "Feature", "geometry": {"type": "Point", "coordinates": [11.246863, 55.434657]}, "properties": {}}, {"type": "Feature", "geometry": {"type": "Point", "coordinates": [6.395373, 50.885113]}, "properties": {}}, {"type": "Feature", "geometry": {"type": "Point", "coordinates": [11.91666, 58.34601]}, "properties": {}}, {"type": "Feature", "geometry": {"type": "Point", "coordinates": [16.57315, 59.02899]}, "properties": {}}, {"type": "Feature", "geometry": {"type": "Point", "coordinates": [11.91205, 58.35461]}, "properties": {}}, {"type": "Feature", "geometry": {"type": "Point", "coordinates": [16.3665, 56.68471]}, "properties": {}}, {"type": "Feature", "geometry": {"type": "Point", "coordinates": [12.00664, 58.36025]}, "properties": {}}, {"type": "Feature", "geometry": {"type": "Point", "coordinates": [12.205799, 54.938678]}, "properties": {}}, {"type": "Feature", "geometry": {"type": "Point", "coordinates": [9.543622, 56.240362]}, "properties": {}}, {"type": "Feature", "geometry": {"type": "Point", "coordinates": [9.850437, 56.186807]}, "properties": {}}, {"type": "Feature", "geometry": {"type": "Point", "coordinates": [6.49384, 46.51986]}, "properties": {}}, {"type": "Feature", "geometry": {"type": "Point", "coordinates": [6.68992, 46.47635]}, "properties": {}}, {"type": "Feature", "geometry": {"type": "Point", "coordinates": [6.95155, 46.34284]}, "properties": {}}, {"type": "Feature", "geometry": {"type": "Point", "coordinates": [-1.082638, 52.947555]}, "properties": {}}, {"type": "Feature", "geometry": {"type": "Point", "coordinates": [-3.199187, 51.498797]}, "properties": {}}, {"type": "Feature", "geometry": {"type": "Point", "coordinates": [-72.488137, -51.714787]}, "properties": {}}, {"type": "Feature", "geometry": {"type": "Point", "coordinates": [-123.382287, 48.421005]}, "properties": {}}, {"type": "Feature", "geometry": {"type": "Point", "coordinates": [-97.184928, 33.04335]}, "properties": {}}, {"type": "Feature", "geometry": {"type": "Point", "coordinates": [171.275005, -44.181251]}, "properties": {}}, {"type": "Feature", "geometry": {"type": "Point", "coordinates": [-118.008659, 33.703728]}, "properties": {}}, {"type": "Feature", "geometry": {"type": "Point", "coordinates": [-6.020131, 54.323036]}, "properties": {}}, {"type": "Feature", "geometry": {"type": "Point", "coordinates": [170.597538, -45.714461]}, "properties": {}}, {"type": "Feature", "geometry": {"type": "Point", "coordinates": [-122.939165, 38.123052]}, "properties": {}}, {"type": "Feature", "geometry": {"type": "Point", "coordinates": [147.111767, -36.995384]}, "properties": {}}, {"type": "Feature", "geometry": {"type": "Point", "coordinates": [-83.934028, 35.329997]}, "properties": {}}, {"type": "Feature", "geometry": {"type": "Point", "coordinates": [-3.460165, 51.464493]}, "properties": {}}, {"type": "Feature", "geometry": {"type": "Point", "coordinates": [-116.586172, 33.032861]}, "properties": {}}, {"type": "Feature", "geometry": {"type": "Point", "coordinates": [-122.508621, 38.438121]}, "properties": {}}, {"type": "Feature", "geometry": {"type": "Point", "coordinates": [-122.435196, 37.699769]}, "properties": {}}, {"type": "Feature", "geometry": {"type": "Point", "coordinates": [-125.020668, 49.735898]}, "properties": {}}, {"type": "Feature", "geometry": {"type": "Point", "coordinates": [8.76708, 45.97924]}, "properties": {}}, {"type": "Feature", "geometry": {"type": "Point", "coordinates": [174.985902, -40.947421]}, "properties": {}}, {"type": "Feature", "geometry": {"type": "Point", "coordinates": [-2.761602, 53.377975]}, "properties": {}}, {"type": "Feature", "geometry": {"type": "Point", "coordinates": [-72.587479, -51.252573]}, "properties": {}}, {"type": "Feature", "geometry": {"type": "Point", "coordinates": [-124.158341, 41.142626]}, "properties": {}}, {"type": "Feature", "geometry": {"type": "Point", "coordinates": [168.829848, -44.937186]}, "properties": {}}, {"type": "Feature", "geometry": {"type": "Point", "coordinates": [-122.233187, 47.488547]}, "properties": {}}, {"type": "Feature", "geometry": {"type": "Point", "coordinates": [-3.454934, 51.461586]}, "properties": {}}, {"type": "Feature", "geometry": {"type": "Point", "coordinates": [-122.085918, 37.291532]}, "properties": {}}, {"type": "Feature", "geometry": {"type": "Point", "coordinates": [-75.890175, 38.455433]}, "properties": {}}, {"type": "Feature", "geometry": {"type": "Point", "coordinates": [-122.193734, 37.814496]}, "properties": {}}, {"type": "Feature", "geometry": {"type": "Point", "coordinates": [172.637358, -43.53837]}, "properties": {}}, {"type": "Feature", "geometry": {"type": "Point", "coordinates": [-121.430672, 38.581238]}, "properties": {}}, {"type": "Feature", "geometry": {"type": "Point", "coordinates": [-116.443993, 32.874953]}, "properties": {}}, {"type": "Feature", "geometry": {"type": "Point", "coordinates": [0.15042, 52.231462]}, "properties": {}}, {"type": "Feature", "geometry": {"type": "Point", "coordinates": [-3.197858, 51.495737]}, "properties": {}}, {"type": "Feature", "geometry": {"type": "Point", "coordinates": [-117.644735, 49.578528]}, "properties": {}}, {"type": "Feature", "geometry": {"type": "Point", "coordinates": [-122.111253, 36.961533]}, "properties": {}}, {"type": "Feature", "geometry": {"type": "Point", "coordinates": [-121.375419, 35.827781]}, "properties": {}}, {"type": "Feature", "geometry": {"type": "Point", "coordinates": [-0.422775, 54.32682]}, "properties": {}}, {"type": "Feature", "geometry": {"type": "Point", "coordinates": [148.378198, -35.936794]}, "properties": {}}, {"type": "Feature", "geometry": {"type": "Point", "coordinates": [-74.858997, 38.947745]}, "properties": {}}, {"type": "Feature", "geometry": {"type": "Point", "coordinates": [-123.445944, 48.508336]}, "properties": {}}, {"type": "Feature", "geometry": {"type": "Point", "coordinates": [-122.227608, 37.379775]}, "properties": {}}, {"type": "Feature", "geometry": {"type": "Point", "coordinates": [-3.198063, 51.499108]}, "properties": {}}, {"type": "Feature", "geometry": {"type": "Point", "coordinates": [-3.199713, 51.499097]}, "properties": {}}, {"type": "Feature", "geometry": {"type": "Point", "coordinates": [-122.88485, 38.060903]}, "properties": {}}, {"type": "Feature", "geometry": {"type": "Point", "coordinates": [-124.042946, 44.64022]}, "properties": {}}, {"type": "Feature", "geometry": {"type": "Point", "coordinates": [-123.285427, 49.372527]}, "properties": {}}, {"type": "Feature", "geometry": {"type": "Point", "coordinates": [-123.041458, 49.291466]}, "properties": {}}, {"type": "Feature", "geometry": {"type": "Point", "coordinates": [-123.099683, 49.27204]}, "properties": {}}, {"type": "Feature", "geometry": {"type": "Point", "coordinates": [15.856347, 46.874468]}, "properties": {}}, {"type": "Feature", "geometry": {"type": "Point", "coordinates": [-121.985847, 37.206117]}, "properties": {}}, {"type": "Feature", "geometry": {"type": "Point", "coordinates": [172.576547, -42.915362]}, "properties": {}}, {"type": "Feature", "geometry": {"type": "Point", "coordinates": [-75.880492, 38.779003]}, "properties": {}}, {"type": "Feature", "geometry": {"type": "Point", "coordinates": [175.301055, -37.806912]}, "properties": {}}, {"type": "Feature", "geometry": {"type": "Point", "coordinates": [-68.320071, -54.819441]}, "properties": {}}, {"type": "Feature", "geometry": {"type": "Point", "coordinates": [-117.058214, 47.267806]}, "properties": {}}, {"type": "Feature", "geometry": {"type": "Point", "coordinates": [-1.695874, 52.381851]}, "properties": {}}, {"type": "Feature", "geometry": {"type": "Point", "coordinates": [-122.174305, 37.428397]}, "properties": {}}, {"type": "Feature", "geometry": {"type": "Point", "coordinates": [-72.344728, -51.259212]}, "properties": {}}, {"type": "Feature", "geometry": {"type": "Point", "coordinates": [-119.227472, 34.291568]}, "properties": {}}, {"type": "Feature", "geometry": {"type": "Point", "coordinates": [-122.945433, 38.11877]}, "properties": {}}, {"type": "Feature", "geometry": {"type": "Point", "coordinates": [-122.376821, 37.708614]}, "properties": {}}, {"type": "Feature", "geometry": {"type": "Point", "coordinates": [-123.002956, 49.284719]}, "properties": {}}, {"type": "Feature", "geometry": {"type": "Point", "coordinates": [-122.175995, 37.309505]}, "properties": {}}, {"type": "Feature", "geometry": {"type": "Point", "coordinates": [-121.730125, 36.816845]}, "properties": {}}, {"type": "Feature", "geometry": {"type": "Point", "coordinates": [-123.037603, 38.0]}, "properties": {}}, {"type": "Feature", "geometry": {"type": "Point", "coordinates": [-123.252346, 49.264889]}, "properties": {}}, {"type": "Feature", "geometry": {"type": "Point", "coordinates": [-122.511653, 37.55492]}, "properties": {}}, {"type": "Feature", "geometry": {"type": "Point", "coordinates": [-1.063348, 53.957665]}, "properties": {}}, {"type": "Feature", "geometry": {"type": "Point", "coordinates": [-1.740383, 52.731777]}, "properties": {}}, {"type": "Feature", "geometry": {"type": "Point", "coordinates": [-91.6913, 37.460787]}, "properties": {}}, {"type": "Feature", "geometry": {"type": "Point", "coordinates": [-121.757217, 37.304681]}, "properties": {}}, {"type": "Feature", "geometry": {"type": "Point", "coordinates": [-80.146378, 41.730604]}, "properties": {}}, {"type": "Feature", "geometry": {"type": "Point", "coordinates": [-2.892326, 53.413786]}, "properties": {}}, {"type": "Feature", "geometry": {"type": "Point", "coordinates": [-72.863433, -50.965117]}, "properties": {}}, {"type": "Feature", "geometry": {"type": "Point", "coordinates": [-111.61428, 33.430653]}, "properties": {}}, {"type": "Feature", "geometry": {"type": "Point", "coordinates": [-122.368995, 37.810238]}, "properties": {}}, {"type": "Feature", "geometry": {"type": "Point", "coordinates": [-122.210037, 37.0409]}, "properties": {}}, {"type": "Feature", "geometry": {"type": "Point", "coordinates": [-3.461574, 51.464833]}, "properties": {}}, {"type": "Feature", "geometry": {"type": "Point", "coordinates": [25.768397, 62.235314]}, "properties": {}}, {"type": "Feature", "geometry": {"type": "Point", "coordinates": [172.788607, -43.767361]}, "properties": {}}, {"type": "Feature", "geometry": {"type": "Point", "coordinates": [170.482889, -44.003078]}, "properties": {}}, {"type": "Feature", "geometry": {"type": "Point", "coordinates": [-121.764232, 38.541042]}, "properties": {}}, {"type": "Feature", "geometry": {"type": "Point", "coordinates": [-1.12217, 51.26861]}, "properties": {}}, {"type": "Feature", "geometry": {"type": "Point", "coordinates": [25.777344, 62.144666]}, "properties": {}}, {"type": "Feature", "geometry": {"type": "Point", "coordinates": [-3.170958, 51.436508]}, "properties": {}}, {"type": "Feature", "geometry": {"type": "Point", "coordinates": [-122.064844, 36.953255]}, "properties": {}}, {"type": "Feature", "geometry": {"type": "Point", "coordinates": [-121.193857, 35.635338]}, "properties": {}}, {"type": "Feature", "geometry": {"type": "Point", "coordinates": [-71.809233, -40.728834]}, "properties": {}}, {"type": "Feature", "geometry": {"type": "Point", "coordinates": [169.135225, -44.599036]}, "properties": {}}, {"type": "Feature", "geometry": {"type": "Point", "coordinates": [-83.775153, 42.48417]}, "properties": {}}, {"type": "Feature", "geometry": {"type": "Point", "coordinates": [-97.882057, 30.194595]}, "properties": {}}, {"type": "Feature", "geometry": {"type": "Point", "coordinates": [-68.350546, -54.808715]}, "properties": {}}, {"type": "Feature", "geometry": {"type": "Point", "coordinates": [36.0539, 51.737722]}, "properties": {}}, {"type": "Feature", "geometry": {"type": "Point", "coordinates": [-122.108931, 37.229972]}, "properties": {}}, {"type": "Feature", "geometry": {"type": "Point", "coordinates": [170.158307, -44.183941]}, "properties": {}}, {"type": "Feature", "geometry": {"type": "Point", "coordinates": [-98.465216, 30.782864]}, "properties": {}}, {"type": "Feature", "geometry": {"type": "Point", "coordinates": [-123.064789, 38.318837]}, "properties": {}}, {"type": "Feature", "geometry": {"type": "Point", "coordinates": [170.481938, -44.004533]}, "properties": {}}, {"type": "Feature", "geometry": {"type": "Point", "coordinates": [-123.821734, 39.375656]}, "properties": {}}, {"type": "Feature", "geometry": {"type": "Point", "coordinates": [-3.198305, 51.499205]}, "properties": {}}, {"type": "Feature", "geometry": {"type": "Point", "coordinates": [-120.621712, 35.035807]}, "properties": {}}, {"type": "Feature", "geometry": {"type": "Point", "coordinates": [-1.806631, 51.070137]}, "properties": {}}, {"type": "Feature", "geometry": {"type": "Point", "coordinates": [-123.31474, 48.497105]}, "properties": {}}, {"type": "Feature", "geometry": {"type": "Point", "coordinates": [-124.160747, 41.140584]}, "properties": {}}, {"type": "Feature", "geometry": {"type": "Point", "coordinates": [-72.90482, -49.297988]}, "properties": {}}, {"type": "Feature", "geometry": {"type": "Point", "coordinates": [-122.064872, 36.95295]}, "properties": {}}, {"type": "Feature", "geometry": {"type": "Point", "coordinates": [-118.374917, 33.829722]}, "properties": {}}, {"type": "Feature", "geometry": {"type": "Point", "coordinates": [-121.757142, 37.304544]}, "properties": {}}, {"type": "Feature", "geometry": {"type": "Point", "coordinates": [-121.829545, 37.179372]}, "properties": {}}, {"type": "Feature", "geometry": {"type": "Point", "coordinates": [176.255997, -38.139697]}, "properties": {}}, {"type": "Feature", "geometry": {"type": "Point", "coordinates": [172.292709, -43.36055]}, "properties": {}}, {"type": "Feature", "geometry": {"type": "Point", "coordinates": [175.301055, -37.806912]}, "properties": {}}, {"type": "Feature", "geometry": {"type": "Point", "coordinates": [-121.914073, 37.882264]}, "properties": {}}, {"type": "Feature", "geometry": {"type": "Point", "coordinates": [-122.494605, 37.740483]}, "properties": {}}, {"type": "Feature", "geometry": {"type": "Point", "coordinates": [-123.146019, 49.272658]}, "properties": {}}, {"type": "Feature", "geometry": {"type": "Point", "coordinates": [-75.101592, 45.596178]}, "properties": {}}, {"type": "Feature", "geometry": {"type": "Point", "coordinates": [171.75924, -43.034605]}, "properties": {}}, {"type": "Feature", "geometry": {"type": "Point", "coordinates": [-1.748626, 52.727734]}, "properties": {}}, {"type": "Feature", "geometry": {"type": "Point", "coordinates": [-124.404258, 42.592712]}, "properties": {}}, {"type": "Feature", "geometry": {"type": "Point", "coordinates": [-72.905388, -49.297505]}, "properties": {}}, {"type": "Feature", "geometry": {"type": "Point", "coordinates": [-121.756789, 37.304458]}, "properties": {}}, {"type": "Feature", "geometry": {"type": "Point", "coordinates": [-122.255822, 47.510445]}, "properties": {}}, {"type": "Feature", "geometry": {"type": "Point", "coordinates": [-70.880737, -53.115944]}, "properties": {}}, {"type": "Feature", "geometry": {"type": "Point", "coordinates": [-117.271263, 33.012622]}, "properties": {}}, {"type": "Feature", "geometry": {"type": "Point", "coordinates": [-121.784571, 36.679331]}, "properties": {}}, {"type": "Feature", "geometry": {"type": "Point", "coordinates": [-123.808038, 39.304376]}, "properties": {}}, {"type": "Feature", "geometry": {"type": "Point", "coordinates": [-67.738395, -53.789341]}, "properties": {}}, {"type": "Feature", "geometry": {"type": "Point", "coordinates": [-122.647209, 38.346687]}, "properties": {}}, {"type": "Feature", "geometry": {"type": "Point", "coordinates": [-0.34099, 51.386379]}, "properties": {}}, {"type": "Feature", "geometry": {"type": "Point", "coordinates": [-122.064145, 36.952468]}, "properties": {}}, {"type": "Feature", "geometry": {"type": "Point", "coordinates": [-0.17436, 51.461623]}, "properties": {}}, {"type": "Feature", "geometry": {"type": "Point", "coordinates": [-121.256604, 35.66268]}, "properties": {}}, {"type": "Feature", "geometry": {"type": "Point", "coordinates": [170.597009, -45.715329]}, "properties": {}}, {"type": "Feature", "geometry": {"type": "Point", "coordinates": [-69.682002, -52.313564]}, "properties": {}}, {"type": "Feature", "geometry": {"type": "Point", "coordinates": [5.089137, 53.297474]}, "properties": {}}, {"type": "Feature", "geometry": {"type": "Point", "coordinates": [-0.499438, 52.407207]}, "properties": {}}, {"type": "Feature", "geometry": {"type": "Point", "coordinates": [172.363629, -43.391085]}, "properties": {}}, {"type": "Feature", "geometry": {"type": "Point", "coordinates": [-176.548339, -43.796964]}, "properties": {}}, {"type": "Feature", "geometry": {"type": "Point", "coordinates": [-122.617817, 45.360933]}, "properties": {}}, {"type": "Feature", "geometry": {"type": "Point", "coordinates": [-121.856967, 37.441418]}, "properties": {}}, {"type": "Feature", "geometry": {"type": "Point", "coordinates": [-122.516148, 37.524091]}, "properties": {}}, {"type": "Feature", "geometry": {"type": "Point", "coordinates": [-119.46233, 49.917957]}, "properties": {}}, {"type": "Feature", "geometry": {"type": "Point", "coordinates": [-120.880785, 35.288094]}, "properties": {}}, {"type": "Feature", "geometry": {"type": "Point", "coordinates": [-118.001495, 33.704712]}, "properties": {}}, {"type": "Feature", "geometry": {"type": "Point", "coordinates": [-71.662833, -40.760338]}, "properties": {}}, {"type": "Feature", "geometry": {"type": "Point", "coordinates": [-75.428616, 40.167278]}, "properties": {}}, {"type": "Feature", "geometry": {"type": "Point", "coordinates": [-0.192071, 51.455406]}, "properties": {}}, {"type": "Feature", "geometry": {"type": "Point", "coordinates": [176.255705, -38.138103]}, "properties": {}}, {"type": "Feature", "geometry": {"type": "Point", "coordinates": [2.21196, 42.11325]}, "properties": {}}, {"type": "Feature", "geometry": {"type": "Point", "coordinates": [-3.1956, 51.491888]}, "properties": {}}, {"type": "Feature", "geometry": {"type": "Point", "coordinates": [168.349275, -44.8442]}, "properties": {}}, {"type": "Feature", "geometry": {"type": "Point", "coordinates": [-123.264254, 48.408587]}, "properties": {}}, {"type": "Feature", "geometry": {"type": "Point", "coordinates": [-1.925322, 52.4392]}, "properties": {}}, {"type": "Feature", "geometry": {"type": "Point", "coordinates": [-1.808664, 51.063498]}, "properties": {}}, {"type": "Feature", "geometry": {"type": "Point", "coordinates": [-1.752369, 52.734271]}, "properties": {}}, {"type": "Feature", "geometry": {"type": "Point", "coordinates": [9.182398, 45.5773]}, "properties": {}}, {"type": "Feature", "geometry": {"type": "Point", "coordinates": [-122.275422, 47.51953]}, "properties": {}}, {"type": "Feature", "geometry": {"type": "Point", "coordinates": [-0.272847, 51.45545]}, "properties": {}}, {"type": "Feature", "geometry": {"type": "Point", "coordinates": [-0.183586, 51.459798]}, "properties": {}}, {"type": "Feature", "geometry": {"type": "Point", "coordinates": [-1.810146, 51.070587]}, "properties": {}}, {"type": "Feature", "geometry": {"type": "Point", "coordinates": [-122.25698, 47.515513]}, "properties": {}}, {"type": "Feature", "geometry": {"type": "Point", "coordinates": [15.871172, 46.800832]}, "properties": {}}, {"type": "Feature", "geometry": {"type": "Point", "coordinates": [10.963678, 52.156797]}, "properties": {}}, {"type": "Feature", "geometry": {"type": "Point", "coordinates": [-118.469537, 33.430508]}, "properties": {}}, {"type": "Feature", "geometry": {"type": "Point", "coordinates": [15.942645, 46.986625]}, "properties": {}}, {"type": "Feature", "geometry": {"type": "Point", "coordinates": [-70.2639, 43.818653]}, "properties": {}}, {"type": "Feature", "geometry": {"type": "Point", "coordinates": [173.221771, -41.31989]}, "properties": {}}, {"type": "Feature", "geometry": {"type": "Point", "coordinates": [-0.184397, 51.462295]}, "properties": {}}, {"type": "Feature", "geometry": {"type": "Point", "coordinates": [-119.290383, 50.76642]}, "properties": {}}, {"type": "Feature", "geometry": {"type": "Point", "coordinates": [-72.508713, -51.703413]}, "properties": {}}, {"type": "Feature", "geometry": {"type": "Point", "coordinates": [-123.047344, 49.275678]}, "properties": {}}, {"type": "Feature", "geometry": {"type": "Point", "coordinates": [-122.530678, 37.825242]}, "properties": {}}, {"type": "Feature", "geometry": {"type": "Point", "coordinates": [-8.946738, 51.90607]}, "properties": {}}, {"type": "Feature", "geometry": {"type": "Point", "coordinates": [0.124237, 52.192023]}, "properties": {}}, {"type": "Feature", "geometry": {"type": "Point", "coordinates": [-0.183587, 51.457949]}, "properties": {}}, {"type": "Feature", "geometry": {"type": "Point", "coordinates": [-123.316995, 48.43092]}, "properties": {}}, {"type": "Feature", "geometry": {"type": "Point", "coordinates": [-72.222551, -46.123174]}, "properties": {}}, {"type": "Feature", "geometry": {"type": "Point", "coordinates": [-118.374462, 33.830215]}, "properties": {}}, {"type": "Feature", "geometry": {"type": "Point", "coordinates": [-122.66658, 38.045228]}, "properties": {}}, {"type": "Feature", "geometry": {"type": "Point", "coordinates": [-122.23285, 47.489097]}, "properties": {}}]}