{"type": "FeatureCollection", "name": "Phaseolus vulgaris", "features": [{"type": "Feature", "geometry": {"type": "Point", "coordinates": [-70.512531, -33.346183]}, "properties": {}}, {"type": "Feature", "geometry": {"type": "Point", "coordinates": [92.71731, 23.730701]}, "properties": {}}, {"type": "Feature", "geometry": {"type": "Point", "coordinates": [-111.636147, 33.392722]}, "properties": {}}, {"type": "Feature", "geometry": {"type": "Point", "coordinates": [-98.130036, 19.026917]}, "properties": {}}, {"type": "Feature", "geometry": {"type": "Point", "coordinates": [-75.501541, 6.19356]}, "properties": {}}, {"type": "Feature", "geometry": {"type": "Point", "coordinates": [-98.991252, 19.32677]}, "properties": {}}, {"type": "Feature", "geometry": {"type": "Point", "coordinates": [-99.185766, 19.329048]}, "properties": {}}, {"type": "Feature", "geometry": {"type": "Point", "coordinates": [-99.156423, 19.40945]}, "properties": {}}, {"type": "Feature", "geometry": {"type": "Point", "coordinates": [-64.673203, 10.117186]}, "properties": {}}, {"type": "Feature", "geometry": {"type": "Point", "coordinates": [-96.616033, 16.777958]}, "properties": {}}, {"type": "Feature", "geometry": {"type": "Point", "coordinates": [-78.611337, -1.30775]}, "properties": {}}, {"type": "Feature", "geometry": {"type": "Point", "coordinates": [-78.600388, -1.31023]}, "properties": {}}, {"type": "Feature", "geometry": {"type": "Point", "coordinates": [8.39295, 47.05956]}, "properties": {}}, {"type": "Feature", "geometry": {"type": "Point", "coordinates": [8.39295, 47.05956]}, "properties": {}}, {"type": "Feature", "geometry": {"type": "Point", "coordinates": [-78.57888, -1.329825]}, "properties": {}}, {"type": "Feature", "geometry": {"type": "Point", "coordinates": [-78.545279, -1.335721]}, "properties": {}}, {"type": "Feature", "geometry": {"type": "Point", "coordinates": [-78.545372, -1.335695]}, "properties": {}}, {"type": "Feature", "geometry": {"type": "Point", "coordinates": [-78.545439, -1.335757]}, "properties": {}}, {"type": "Feature", "geometry": {"type": "Point", "coordinates": [77.486386, 13.130047]}, "properties": {}}, {"type": "Feature", "geometry": {"type": "Point", "coordinates": [85.867389, 20.295465]}, "properties": {}}, {"type": "Feature", "geometry": {"type": "Point", "coordinates": [171.201239, -42.438787]}, "properties": {}}, {"type": "Feature", "geometry": {"type": "Point", "coordinates": [170.09101, -44.979]}, "properties": {}}, {"type": "Feature", "geometry": {"type": "Point", "coordinates": [173.562723, -41.209269]}, "properties": {}}, {"type": "Feature", "geometry": {"type": "Point", "coordinates": [9.307888, 4.17188]}, "properties": {}}, {"type": "Feature", "geometry": {"type": "Point", "coordinates": [-96.953775, 18.839281]}, "properties": {}}, {"type": "Feature", "geometry": {"type": "Point", "coordinates": [-89.4402, -0.90093]}, "properties": {}}, {"type": "Feature", "geometry": {"type": "Point", "coordinates": [16.10321, 45.876222]}, "properties": {}}, {"type": "Feature", "geometry": {"type": "Point", "coordinates": [9.258778, 4.16235]}, "properties": {}}, {"type": "Feature", "geometry": {"type": "Point", "coordinates": [113.538608, 22.200587]}, "properties": {}}, {"type": "Feature", "geometry": {"type": "Point", "coordinates": [-74.1358, -13.052214]}, "properties": {}}, {"type": "Feature", "geometry": {"type": "Point", "coordinates": [113.551287, 22.197828]}, "properties": {}}, {"type": "Feature", "geometry": {"type": "Point", "coordinates": [-79.943582, -2.142253]}, "properties": {}}, {"type": "Feature", "geometry": {"type": "Point", "coordinates": [-116.723787, 32.224712]}, "properties": {}}, {"type": "Feature", "geometry": {"type": "Point", "coordinates": [15.505303, 58.518219]}, "properties": {}}, {"type": "Feature", "geometry": {"type": "Point", "coordinates": [28.843098, -2.501859]}, "properties": {}}, {"type": "Feature", "geometry": {"type": "Point", "coordinates": [5.05, 52.1]}, "properties": {}}, {"type": "Feature", "geometry": {"type": "Point", "coordinates": [5.35, 51.55]}, "properties": {}}, {"type": "Feature", "geometry": {"type": "Point", "coordinates": [5.45, 52.0]}, "properties": {}}, {"type": "Feature", "geometry": {"type": "Point", "coordinates": [10.565795, 5.171514]}, "properties": {}}, {"type": "Feature", "geometry": {"type": "Point", "coordinates": [14.335371, 10.592037]}, "properties": {}}, {"type": "Feature", "geometry": {"type": "Point", "coordinates": [75.588749, 21.026593]}, "properties": {}}, {"type": "Feature", "geometry": {"type": "Point", "coordinates": [4.42432, 51.28186]}, "properties": {}}, {"type": "Feature", "geometry": {"type": "Point", "coordinates": [25.294074, 50.10426]}, "properties": {}}, {"type": "Feature", "geometry": {"type": "Point", "coordinates": [16.69482, 59.01589]}, "properties": {}}, {"type": "Feature", "geometry": {"type": "Point", "coordinates": [-103.534606, 20.716478]}, "properties": {}}, {"type": "Feature", "geometry": {"type": "Point", "coordinates": [5.14283, 50.82642]}, "properties": {}}, {"type": "Feature", "geometry": {"type": "Point", "coordinates": [4.92866, 49.89371]}, "properties": {}}, {"type": "Feature", "geometry": {"type": "Point", "coordinates": [-84.407829, 33.596203]}, "properties": {}}, {"type": "Feature", "geometry": {"type": "Point", "coordinates": [38.656348, 55.40541]}, "properties": {}}, {"type": "Feature", "geometry": {"type": "Point", "coordinates": [4.41916, 51.27791]}, "properties": {}}, {"type": "Feature", "geometry": {"type": "Point", "coordinates": [4.35655, 50.90024]}, "properties": {}}, {"type": "Feature", "geometry": {"type": "Point", "coordinates": [-99.1862, 19.313192]}, "properties": {}}, {"type": "Feature", "geometry": {"type": "Point", "coordinates": [25.422544, 53.752926]}, "properties": {}}, {"type": "Feature", "geometry": {"type": "Point", "coordinates": [41.416535, 57.814847]}, "properties": {}}, {"type": "Feature", "geometry": {"type": "Point", "coordinates": [5.05, 52.1]}, "properties": {}}, {"type": "Feature", "geometry": {"type": "Point", "coordinates": [6.1, 51.85]}, "properties": {}}, {"type": "Feature", "geometry": {"type": "Point", "coordinates": [36.085282, 51.571797]}, "properties": {}}, {"type": "Feature", "geometry": {"type": "Point", "coordinates": [-6.981865, 42.442608]}, "properties": {}}, {"type": "Feature", "geometry": {"type": "Point", "coordinates": [16.3074, 56.70174]}, "properties": {}}, {"type": "Feature", "geometry": {"type": "Point", "coordinates": [-100.329826, 25.600515]}, "properties": {}}, {"type": "Feature", "geometry": {"type": "Point", "coordinates": [16.38022, 56.4558]}, "properties": {}}, {"type": "Feature", "geometry": {"type": "Point", "coordinates": [7.811973, 47.975227]}, "properties": {}}, {"type": "Feature", "geometry": {"type": "Point", "coordinates": [-89.232765, 43.175987]}, "properties": {}}, {"type": "Feature", "geometry": {"type": "Point", "coordinates": [11.018175, 48.425769]}, "properties": {}}, {"type": "Feature", "geometry": {"type": "Point", "coordinates": [151.083572, -33.901041]}, "properties": {}}, {"type": "Feature", "geometry": {"type": "Point", "coordinates": [49.681726, 37.27762]}, "properties": {}}, {"type": "Feature", "geometry": {"type": "Point", "coordinates": [-107.421623, 24.85241]}, "properties": {}}, {"type": "Feature", "geometry": {"type": "Point", "coordinates": [-101.132007, 20.21543]}, "properties": {}}, {"type": "Feature", "geometry": {"type": "Point", "coordinates": [117.790808, 26.393563]}, "properties": {}}, {"type": "Feature", "geometry": {"type": "Point", "coordinates": [-104.903031, 21.310271]}, "properties": {}}, {"type": "Feature", "geometry": {"type": "Point", "coordinates": [-101.179125, 19.701478]}, "properties": {}}, {"type": "Feature", "geometry": {"type": "Point", "coordinates": [-99.505207, 18.950267]}, "properties": {}}, {"type": "Feature", "geometry": {"type": "Point", "coordinates": [-99.511353, 18.952425]}, "properties": {}}, {"type": "Feature", "geometry": {"type": "Point", "coordinates": [-101.144811, 19.683786]}, "properties": {}}, {"type": "Feature", "geometry": {"type": "Point", "coordinates": [-74.309975, 4.612717]}, "properties": {}}, {"type": "Feature", "geometry": {"type": "Point", "coordinates": [-107.529051, 32.918283]}, "properties": {}}, {"type": "Feature", "geometry": {"type": "Point", "coordinates": [12.9568, 56.63197]}, "properties": {}}, {"type": "Feature", "geometry": {"type": "Point", "coordinates": [127.133578, 37.424956]}, "properties": {}}, {"type": "Feature", "geometry": {"type": "Point", "coordinates": [127.176861, 37.42871]}, "properties": {}}, {"type": "Feature", "geometry": {"type": "Point", "coordinates": [168.151, -46.3543]}, "properties": {}}, {"type": "Feature", "geometry": {"type": "Point", "coordinates": [120.379561, 23.592864]}, "properties": {}}, {"type": "Feature", "geometry": {"type": "Point", "coordinates": [12.95669, 56.6325]}, "properties": {}}, {"type": "Feature", "geometry": {"type": "Point", "coordinates": [-7.51795, 40.575132]}, "properties": {}}, {"type": "Feature", "geometry": {"type": "Point", "coordinates": [21.074711, 40.793145]}, "properties": {}}, {"type": "Feature", "geometry": {"type": "Point", "coordinates": [29.44492, -24.3525]}, "properties": {}}, {"type": "Feature", "geometry": {"type": "Point", "coordinates": [-89.45855, -0.877278]}, "properties": {}}, {"type": "Feature", "geometry": {"type": "Point", "coordinates": [11.486805, 43.825353]}, "properties": {}}, {"type": "Feature", "geometry": {"type": "Point", "coordinates": [-104.846302, 20.764389]}, "properties": {}}, {"type": "Feature", "geometry": {"type": "Point", "coordinates": [-93.110234, 17.511472]}, "properties": {}}, {"type": "Feature", "geometry": {"type": "Point", "coordinates": [-41.399722, -14.58]}, "properties": {}}, {"type": "Feature", "geometry": {"type": "Point", "coordinates": [-75.603477, 6.140377]}, "properties": {}}, {"type": "Feature", "geometry": {"type": "Point", "coordinates": [91.846311, 23.926072]}, "properties": {}}, {"type": "Feature", "geometry": {"type": "Point", "coordinates": [-100.442567, 20.699688]}, "properties": {}}, {"type": "Feature", "geometry": {"type": "Point", "coordinates": [145.267661, -38.041823]}, "properties": {}}, {"type": "Feature", "geometry": {"type": "Point", "coordinates": [29.905788, -29.942613]}, "properties": {}}, {"type": "Feature", "geometry": {"type": "Point", "coordinates": [-96.87109, 19.657995]}, "properties": {}}, {"type": "Feature", "geometry": {"type": "Point", "coordinates": [176.864036, -39.627395]}, "properties": {}}, {"type": "Feature", "geometry": {"type": "Point", "coordinates": [120.591403, 16.453042]}, "properties": {}}, {"type": "Feature", "geometry": {"type": "Point", "coordinates": [101.795454, 4.082878]}, "properties": {}}, {"type": "Feature", "geometry": {"type": "Point", "coordinates": [16.52069, 56.64455]}, "properties": {}}, {"type": "Feature", "geometry": {"type": "Point", "coordinates": [-92.692102, 16.680341]}, "properties": {}}, {"type": "Feature", "geometry": {"type": "Point", "coordinates": [-38.928333, -12.231667]}, "properties": {}}, {"type": "Feature", "geometry": {"type": "Point", "coordinates": [37.636097, 55.340478]}, "properties": {}}, {"type": "Feature", "geometry": {"type": "Point", "coordinates": [39.092736, 55.364895]}, "properties": {}}, {"type": "Feature", "geometry": {"type": "Point", "coordinates": [74.738647, 34.036297]}, "properties": {}}, {"type": "Feature", "geometry": {"type": "Point", "coordinates": [19.512987, 51.900674]}, "properties": {}}, {"type": "Feature", "geometry": {"type": "Point", "coordinates": [-92.329743, 17.174747]}, "properties": {}}, {"type": "Feature", "geometry": {"type": "Point", "coordinates": [-92.694544, 16.711181]}, "properties": {}}, {"type": "Feature", "geometry": {"type": "Point", "coordinates": [14.457192, 49.877914]}, "properties": {}}, {"type": "Feature", "geometry": {"type": "Point", "coordinates": [18.699942, 53.927689]}, "properties": {}}, {"type": "Feature", "geometry": {"type": "Point", "coordinates": [18.704189, 53.927349]}, "properties": {}}, {"type": "Feature", "geometry": {"type": "Point", "coordinates": [7.624531, 47.512573]}, "properties": {}}, {"type": "Feature", "geometry": {"type": "Point", "coordinates": [-99.624855, 19.405038]}, "properties": {}}, {"type": "Feature", "geometry": {"type": "Point", "coordinates": [11.994861, 49.164786]}, "properties": {}}, {"type": "Feature", "geometry": {"type": "Point", "coordinates": [3.70933, 51.02793]}, "properties": {}}, {"type": "Feature", "geometry": {"type": "Point", "coordinates": [-99.187125, 19.315522]}, "properties": {}}, {"type": "Feature", "geometry": {"type": "Point", "coordinates": [-89.608392, -0.91045]}, "properties": {}}, {"type": "Feature", "geometry": {"type": "Point", "coordinates": [-92.567911, 16.803825]}, "properties": {}}, {"type": "Feature", "geometry": {"type": "Point", "coordinates": [14.895313, 48.56369]}, "properties": {}}, {"type": "Feature", "geometry": {"type": "Point", "coordinates": [-92.187614, 16.19612]}, "properties": {}}, {"type": "Feature", "geometry": {"type": "Point", "coordinates": [103.54501, 52.812743]}, "properties": {}}, {"type": "Feature", "geometry": {"type": "Point", "coordinates": [39.660908, 54.587539]}, "properties": {}}, {"type": "Feature", "geometry": {"type": "Point", "coordinates": [34.45554, 53.201279]}, "properties": {}}, {"type": "Feature", "geometry": {"type": "Point", "coordinates": [37.916479, -0.700021]}, "properties": {}}, {"type": "Feature", "geometry": {"type": "Point", "coordinates": [103.545386, 52.812665]}, "properties": {}}, {"type": "Feature", "geometry": {"type": "Point", "coordinates": [31.27409, 58.481537]}, "properties": {}}, {"type": "Feature", "geometry": {"type": "Point", "coordinates": [7.60304, 47.01843]}, "properties": {}}, {"type": "Feature", "geometry": {"type": "Point", "coordinates": [11.681211, 48.36944]}, "properties": {}}, {"type": "Feature", "geometry": {"type": "Point", "coordinates": [34.430723, 53.186704]}, "properties": {}}, {"type": "Feature", "geometry": {"type": "Point", "coordinates": [17.65805, 59.84122]}, "properties": {}}, {"type": "Feature", "geometry": {"type": "Point", "coordinates": [-99.138183, 19.254519]}, "properties": {}}, {"type": "Feature", "geometry": {"type": "Point", "coordinates": [34.637772, -19.545254]}, "properties": {}}, {"type": "Feature", "geometry": {"type": "Point", "coordinates": [-102.554585, 20.559369]}, "properties": {}}, {"type": "Feature", "geometry": {"type": "Point", "coordinates": [-102.550212, 20.560747]}, "properties": {}}, {"type": "Feature", "geometry": {"type": "Point", "coordinates": [17.65808, 59.84122]}, "properties": {}}, {"type": "Feature", "geometry": {"type": "Point", "coordinates": [-79.132647, -4.650031]}, "properties": {}}, {"type": "Feature", "geometry": {"type": "Point", "coordinates": [6.474044, 51.831978]}, "properties": {}}, {"type": "Feature", "geometry": {"type": "Point", "coordinates": [168.231494, -16.642125]}, "properties": {}}, {"type": "Feature", "geometry": {"type": "Point", "coordinates": [75.130069, 33.827845]}, "properties": {}}, {"type": "Feature", "geometry": {"type": "Point", "coordinates": [103.545429, 52.812602]}, "properties": {}}, {"type": "Feature", "geometry": {"type": "Point", "coordinates": [168.231627, -16.642072]}, "properties": {}}, {"type": "Feature", "geometry": {"type": "Point", "coordinates": [-101.211341, 19.677075]}, "properties": {}}, {"type": "Feature", "geometry": {"type": "Point", "coordinates": [-99.171894, 19.307986]}, "properties": {}}, {"type": "Feature", "geometry": {"type": "Point", "coordinates": [-101.211658, 19.677981]}, "properties": {}}, {"type": "Feature", "geometry": {"type": "Point", "coordinates": [-101.227075, 19.649242]}, "properties": {}}, {"type": "Feature", "geometry": {"type": "Point", "coordinates": [-51.216075, -30.036767]}, "properties": {}}, {"type": "Feature", "geometry": {"type": "Point", "coordinates": [26.032226, 44.928812]}, "properties": {}}, {"type": "Feature", "geometry": {"type": "Point", "coordinates": [128.48625, 35.79022]}, "properties": {}}, {"type": "Feature", "geometry": {"type": "Point", "coordinates": [3.36337, 51.08182]}, "properties": {}}, {"type": "Feature", "geometry": {"type": "Point", "coordinates": [-101.134919, 19.70132]}, "properties": {}}, {"type": "Feature", "geometry": {"type": "Point", "coordinates": [25.877628, 52.538216]}, "properties": {}}, {"type": "Feature", "geometry": {"type": "Point", "coordinates": [-40.04164, -13.5222]}, "properties": {}}, {"type": "Feature", "geometry": {"type": "Point", "coordinates": [5.6, 51.95]}, "properties": {}}, {"type": "Feature", "geometry": {"type": "Point", "coordinates": [6.66796, 0.333564]}, "properties": {}}, {"type": "Feature", "geometry": {"type": "Point", "coordinates": [-77.841908, -0.419779]}, "properties": {}}, {"type": "Feature", "geometry": {"type": "Point", "coordinates": [168.229988, -16.636949]}, "properties": {}}, {"type": "Feature", "geometry": {"type": "Point", "coordinates": [-99.094113, 19.272798]}, "properties": {}}, {"type": "Feature", "geometry": {"type": "Point", "coordinates": [-78.614012, -1.699093]}, "properties": {}}, {"type": "Feature", "geometry": {"type": "Point", "coordinates": [-78.356676, -2.186255]}, "properties": {}}, {"type": "Feature", "geometry": {"type": "Point", "coordinates": [-109.968897, 27.492239]}, "properties": {}}, {"type": "Feature", "geometry": {"type": "Point", "coordinates": [-100.141009, 19.307745]}, "properties": {}}, {"type": "Feature", "geometry": {"type": "Point", "coordinates": [73.917427, 15.496709]}, "properties": {}}, {"type": "Feature", "geometry": {"type": "Point", "coordinates": [-85.644289, 12.730525]}, "properties": {}}, {"type": "Feature", "geometry": {"type": "Point", "coordinates": [-89.32917, 14.39783]}, "properties": {}}, {"type": "Feature", "geometry": {"type": "Point", "coordinates": [28.296232, -26.195937]}, "properties": {}}, {"type": "Feature", "geometry": {"type": "Point", "coordinates": [-97.083183, 19.05851]}, "properties": {}}, {"type": "Feature", "geometry": {"type": "Point", "coordinates": [-79.948905, 43.209337]}, "properties": {}}, {"type": "Feature", "geometry": {"type": "Point", "coordinates": [-75.181954, 9.901522]}, "properties": {}}, {"type": "Feature", "geometry": {"type": "Point", "coordinates": [-41.046389, -6.900278]}, "properties": {}}, {"type": "Feature", "geometry": {"type": "Point", "coordinates": [-67.146546, 18.219297]}, "properties": {}}, {"type": "Feature", "geometry": {"type": "Point", "coordinates": [110.442107, -7.007197]}, "properties": {}}, {"type": "Feature", "geometry": {"type": "Point", "coordinates": [-68.517457, -31.5406]}, "properties": {}}, {"type": "Feature", "geometry": {"type": "Point", "coordinates": [-92.614097, 16.733755]}, "properties": {}}, {"type": "Feature", "geometry": {"type": "Point", "coordinates": [115.798259, 25.606514]}, "properties": {}}, {"type": "Feature", "geometry": {"type": "Point", "coordinates": [120.591217, 16.452339]}, "properties": {}}, {"type": "Feature", "geometry": {"type": "Point", "coordinates": [-64.205303, -21.510404]}, "properties": {}}, {"type": "Feature", "geometry": {"type": "Point", "coordinates": [-75.5643, 6.18108]}, "properties": {}}, {"type": "Feature", "geometry": {"type": "Point", "coordinates": [5.76312, 50.65297]}, "properties": {}}, {"type": "Feature", "geometry": {"type": "Point", "coordinates": [26.711088, 58.363305]}, "properties": {}}, {"type": "Feature", "geometry": {"type": "Point", "coordinates": [16.320278, 38.568447]}, "properties": {}}, {"type": "Feature", "geometry": {"type": "Point", "coordinates": [89.877548, 27.4984]}, "properties": {}}, {"type": "Feature", "geometry": {"type": "Point", "coordinates": [20.588701, 48.578498]}, "properties": {}}, {"type": "Feature", "geometry": {"type": "Point", "coordinates": [30.676913, 49.58454]}, "properties": {}}, {"type": "Feature", "geometry": {"type": "Point", "coordinates": [-75.296816, 40.782862]}, "properties": {}}, {"type": "Feature", "geometry": {"type": "Point", "coordinates": [8.95589, 46.01883]}, "properties": {}}, {"type": "Feature", "geometry": {"type": "Point", "coordinates": [8.95589, 46.01883]}, "properties": {}}, {"type": "Feature", "geometry": {"type": "Point", "coordinates": [8.95589, 46.01883]}, "properties": {}}, {"type": "Feature", "geometry": {"type": "Point", "coordinates": [8.95589, 46.01883]}, "properties": {}}, {"type": "Feature", "geometry": {"type": "Point", "coordinates": [8.95589, 46.01883]}, "properties": {}}, {"type": "Feature", "geometry": {"type": "Point", "coordinates": [8.53098, 47.37317]}, "properties": {}}, {"type": "Feature", "geometry": {"type": "Point", "coordinates": [6.11068, 46.20113]}, "properties": {}}, {"type": "Feature", "geometry": {"type": "Point", "coordinates": [8.95589, 46.01883]}, "properties": {}}, {"type": "Feature", "geometry": {"type": "Point", "coordinates": [8.5319, 47.41814]}, "properties": {}}, {"type": "Feature", "geometry": {"type": "Point", "coordinates": [6.17545, 46.20188]}, "properties": {}}, {"type": "Feature", "geometry": {"type": "Point", "coordinates": [6.11068, 46.20113]}, "properties": {}}, {"type": "Feature", "geometry": {"type": "Point", "coordinates": [6.11068, 46.20113]}, "properties": {}}, {"type": "Feature", "geometry": {"type": "Point", "coordinates": [8.95589, 46.01883]}, "properties": {}}, {"type": "Feature", "geometry": {"type": "Point", "coordinates": [8.95589, 46.01883]}, "properties": {}}, {"type": "Feature", "geometry": {"type": "Point", "coordinates": [6.11068, 46.20113]}, "properties": {}}, {"type": "Feature", "geometry": {"type": "Point", "coordinates": [6.11177, 46.15616]}, "properties": {}}, {"type": "Feature", "geometry": {"type": "Point", "coordinates": [6.11068, 46.20113]}, "properties": {}}, {"type": "Feature", "geometry": {"type": "Point", "coordinates": [6.17545, 46.20188]}, "properties": {}}, {"type": "Feature", "geometry": {"type": "Point", "coordinates": [6.04591, 46.20035]}, "properties": {}}, {"type": "Feature", "geometry": {"type": "Point", "coordinates": [8.95589, 46.01883]}, "properties": {}}, {"type": "Feature", "geometry": {"type": "Point", "coordinates": [8.95589, 46.01883]}, "properties": {}}, {"type": "Feature", "geometry": {"type": "Point", "coordinates": [6.11068, 46.20113]}, "properties": {}}, {"type": "Feature", "geometry": {"type": "Point", "coordinates": [42.931328, 36.849487]}, "properties": {}}, {"type": "Feature", "geometry": {"type": "Point", "coordinates": [-3.212707, 36.928899]}, "properties": {}}, {"type": "Feature", "geometry": {"type": "Point", "coordinates": [-3.223786, 36.948869]}, "properties": {}}, {"type": "Feature", "geometry": {"type": "Point", "coordinates": [-3.212707, 36.928899]}, "properties": {}}, {"type": "Feature", "geometry": {"type": "Point", "coordinates": [-3.27736, 36.915411]}, "properties": {}}, {"type": "Feature", "geometry": {"type": "Point", "coordinates": [-3.27736, 36.915411]}, "properties": {}}, {"type": "Feature", "geometry": {"type": "Point", "coordinates": [-3.27736, 36.915411]}, "properties": {}}, {"type": "Feature", "geometry": {"type": "Point", "coordinates": [-3.253759, 36.931383]}, "properties": {}}, {"type": "Feature", "geometry": {"type": "Point", "coordinates": [-3.253759, 36.931383]}, "properties": {}}, {"type": "Feature", "geometry": {"type": "Point", "coordinates": [-3.253759, 36.931383]}, "properties": {}}, {"type": "Feature", "geometry": {"type": "Point", "coordinates": [-3.253759, 36.931383]}, "properties": {}}, {"type": "Feature", "geometry": {"type": "Point", "coordinates": [-3.253759, 36.931383]}, "properties": {}}, {"type": "Feature", "geometry": {"type": "Point", "coordinates": [-3.265575, 37.000333]}, "properties": {}}, {"type": "Feature", "geometry": {"type": "Point", "coordinates": [-3.253759, 36.931383]}, "properties": {}}, {"type": "Feature", "geometry": {"type": "Point", "coordinates": [-3.253759, 36.931383]}, "properties": {}}, {"type": "Feature", "geometry": {"type": "Point", "coordinates": [-3.29422, 36.937786]}, "properties": {}}, {"type": "Feature", "geometry": {"type": "Point", "coordinates": [-3.310853, 36.934391]}, "properties": {}}, {"type": "Feature", "geometry": {"type": "Point", "coordinates": [-3.212707, 36.928899]}, "properties": {}}, {"type": "Feature", "geometry": {"type": "Point", "coordinates": [-3.265575, 37.000333]}, "properties": {}}, {"type": "Feature", "geometry": {"type": "Point", "coordinates": [-3.212707, 36.928899]}, "properties": {}}, {"type": "Feature", "geometry": {"type": "Point", "coordinates": [-3.212707, 36.928899]}, "properties": {}}, {"type": "Feature", "geometry": {"type": "Point", "coordinates": [-3.212707, 36.928899]}, "properties": {}}, {"type": "Feature", "geometry": {"type": "Point", "coordinates": [-3.223786, 36.948869]}, "properties": {}}, {"type": "Feature", "geometry": {"type": "Point", "coordinates": [-3.223786, 36.948869]}, "properties": {}}, {"type": "Feature", "geometry": {"type": "Point", "coordinates": [-3.223786, 36.948869]}, "properties": {}}, {"type": "Feature", "geometry": {"type": "Point", "coordinates": [-3.253759, 36.931383]}, "properties": {}}, {"type": "Feature", "geometry": {"type": "Point", "coordinates": [-3.253759, 36.931383]}, "properties": {}}, {"type": "Feature", "geometry": {"type": "Point", "coordinates": [-3.253759, 36.931383]}, "properties": {}}, {"type": "Feature", "geometry": {"type": "Point", "coordinates": [-3.253759, 36.931383]}, "properties": {}}, {"type": "Feature", "geometry": {"type": "Point", "coordinates": [-3.223786, 36.948869]}, "properties": {}}, {"type": "Feature", "geometry": {"type": "Point", "coordinates": [-3.223786, 36.948869]}, "properties": {}}, {"type": "Feature", "geometry": {"type": "Point", "coordinates": [-3.223786, 36.948869]}, "properties": {}}, {"type": "Feature", "geometry": {"type": "Point", "coordinates": [-3.223786, 36.948869]}, "properties": {}}, {"type": "Feature", "geometry": {"type": "Point", "coordinates": [-3.223786, 36.948869]}, "properties": {}}, {"type": "Feature", "geometry": {"type": "Point", "coordinates": [8.46565, 47.41875]}, "properties": {}}, {"type": "Feature", "geometry": {"type": "Point", "coordinates": [8.53098, 47.37317]}, "properties": {}}, {"type": "Feature", "geometry": {"type": "Point", "coordinates": [18.23139, 59.78496]}, "properties": {}}, {"type": "Feature", "geometry": {"type": "Point", "coordinates": [6.17545, 46.20188]}, "properties": {}}, {"type": "Feature", "geometry": {"type": "Point", "coordinates": [8.46478, 47.37378]}, "properties": {}}, {"type": "Feature", "geometry": {"type": "Point", "coordinates": [8.95589, 46.01883]}, "properties": {}}, {"type": "Feature", "geometry": {"type": "Point", "coordinates": [-73.955755, 40.772472]}, "properties": {}}, {"type": "Feature", "geometry": {"type": "Point", "coordinates": [-1.670111, 49.557831]}, "properties": {}}, {"type": "Feature", "geometry": {"type": "Point", "coordinates": [26.709982, 58.360407]}, "properties": {}}, {"type": "Feature", "geometry": {"type": "Point", "coordinates": [26.711088, 58.363305]}, "properties": {}}, {"type": "Feature", "geometry": {"type": "Point", "coordinates": [6.17545, 46.20188]}, "properties": {}}, {"type": "Feature", "geometry": {"type": "Point", "coordinates": [8.53098, 47.37317]}, "properties": {}}, {"type": "Feature", "geometry": {"type": "Point", "coordinates": [-73.945722, 40.676963]}, "properties": {}}, {"type": "Feature", "geometry": {"type": "Point", "coordinates": [-87.504234, 41.568318]}, "properties": {}}, {"type": "Feature", "geometry": {"type": "Point", "coordinates": [22.813059, 49.790588]}, "properties": {}}, {"type": "Feature", "geometry": {"type": "Point", "coordinates": [76.94252, 13.363715]}, "properties": {}}, {"type": "Feature", "geometry": {"type": "Point", "coordinates": [-73.788944, 42.667256]}, "properties": {}}, {"type": "Feature", "geometry": {"type": "Point", "coordinates": [12.622483, 55.689953]}, "properties": {}}, {"type": "Feature", "geometry": {"type": "Point", "coordinates": [-75.334213, 40.717829]}, "properties": {}}, {"type": "Feature", "geometry": {"type": "Point", "coordinates": [43.9209, 56.2188]}, "properties": {}}, {"type": "Feature", "geometry": {"type": "Point", "coordinates": [-99.138314, 19.260242]}, "properties": {}}, {"type": "Feature", "geometry": {"type": "Point", "coordinates": [25.977131, 52.349965]}, "properties": {}}, {"type": "Feature", "geometry": {"type": "Point", "coordinates": [-73.828638, 41.098986]}, "properties": {}}, {"type": "Feature", "geometry": {"type": "Point", "coordinates": [8.85834, 47.23467]}, "properties": {}}, {"type": "Feature", "geometry": {"type": "Point", "coordinates": [24.264893, 50.853643]}, "properties": {}}, {"type": "Feature", "geometry": {"type": "Point", "coordinates": [15.200892, 49.266912]}, "properties": {}}, {"type": "Feature", "geometry": {"type": "Point", "coordinates": [15.03597, 58.51651]}, "properties": {}}, {"type": "Feature", "geometry": {"type": "Point", "coordinates": [18.09201, 59.31045]}, "properties": {}}, {"type": "Feature", "geometry": {"type": "Point", "coordinates": [-78.642502, -0.825269]}, "properties": {}}, {"type": "Feature", "geometry": {"type": "Point", "coordinates": [-78.183406, -1.826664]}, "properties": {}}, {"type": "Feature", "geometry": {"type": "Point", "coordinates": [10.209129, 59.734817]}, "properties": {}}, {"type": "Feature", "geometry": {"type": "Point", "coordinates": [-100.051206, 25.873426]}, "properties": {}}, {"type": "Feature", "geometry": {"type": "Point", "coordinates": [5.75, 51.65]}, "properties": {}}, {"type": "Feature", "geometry": {"type": "Point", "coordinates": [-100.405447, 21.533381]}, "properties": {}}, {"type": "Feature", "geometry": {"type": "Point", "coordinates": [-100.676094, 20.03904]}, "properties": {}}, {"type": "Feature", "geometry": {"type": "Point", "coordinates": [-100.676094, 20.03904]}, "properties": {}}, {"type": "Feature", "geometry": {"type": "Point", "coordinates": [-100.676285, 20.039478]}, "properties": {}}, {"type": "Feature", "geometry": {"type": "Point", "coordinates": [-100.676094, 20.03904]}, "properties": {}}, {"type": "Feature", "geometry": {"type": "Point", "coordinates": [-90.490229, 14.583444]}, "properties": {}}, {"type": "Feature", "geometry": {"type": "Point", "coordinates": [13.873223, 51.023769]}, "properties": {}}, {"type": "Feature", "geometry": {"type": "Point", "coordinates": [-91.482506, 15.329728]}, "properties": {}}, {"type": "Feature", "geometry": {"type": "Point", "coordinates": [-100.224305, 19.17057]}, "properties": {}}, {"type": "Feature", "geometry": {"type": "Point", "coordinates": [12.62288, 55.690167]}, "properties": {}}, {"type": "Feature", "geometry": {"type": "Point", "coordinates": [-8.698742, 40.458699]}, "properties": {}}, {"type": "Feature", "geometry": {"type": "Point", "coordinates": [18.09201, 59.31045]}, "properties": {}}, {"type": "Feature", "geometry": {"type": "Point", "coordinates": [127.100731, 37.441935]}, "properties": {}}, {"type": "Feature", "geometry": {"type": "Point", "coordinates": [127.100731, 37.441935]}, "properties": {}}, {"type": "Feature", "geometry": {"type": "Point", "coordinates": [175.22661, -37.76834]}, "properties": {}}, {"type": "Feature", "geometry": {"type": "Point", "coordinates": [-81.32224, 8.059847]}, "properties": {}}, {"type": "Feature", "geometry": {"type": "Point", "coordinates": [77.731583, 12.811953]}, "properties": {}}, {"type": "Feature", "geometry": {"type": "Point", "coordinates": [-101.539326, 17.628191]}, "properties": {}}, {"type": "Feature", "geometry": {"type": "Point", "coordinates": [-101.539326, 17.628191]}, "properties": {}}, {"type": "Feature", "geometry": {"type": "Point", "coordinates": [-101.539326, 17.628191]}, "properties": {}}, {"type": "Feature", "geometry": {"type": "Point", "coordinates": [-74.114105, 4.729957]}, "properties": {}}, {"type": "Feature", "geometry": {"type": "Point", "coordinates": [84.104759, 26.752647]}, "properties": {}}, {"type": "Feature", "geometry": {"type": "Point", "coordinates": [35.798658, -6.21518]}, "properties": {}}, {"type": "Feature", "geometry": {"type": "Point", "coordinates": [-76.42716, 8.815508]}, "properties": {}}, {"type": "Feature", "geometry": {"type": "Point", "coordinates": [86.658255, 20.262454]}, "properties": {}}, {"type": "Feature", "geometry": {"type": "Point", "coordinates": [77.698315, 17.719705]}, "properties": {}}, {"type": "Feature", "geometry": {"type": "Point", "coordinates": [-115.428195, 32.655812]}, "properties": {}}]}