{"type": "FeatureCollection", "name": "Capsella bursa-pastoris", "features": [{"type": "Feature", "geometry": {"type": "Point", "coordinates": [7.030321, 51.436272]}, "properties": {}}, {"type": "Feature", "geometry": {"type": "Point", "coordinates": [-0.051892, 51.50099]}, "properties": {}}, {"type": "Feature", "geometry": {"type": "Point", "coordinates": [-97.698463, 30.353605]}, "properties": {}}, {"type": "Feature", "geometry": {"type": "Point", "coordinates": [172.569342, -43.466889]}, "properties": {}}, {"type": "Feature", "geometry": {"type": "Point", "coordinates": [-1.09874, 53.953671]}, "properties": {}}, {"type": "Feature", "geometry": {"type": "Point", "coordinates": [-2.967592, 53.384639]}, "properties": {}}, {"type": "Feature", "geometry": {"type": "Point", "coordinates": [-2.938935, 53.383413]}, "properties": {}}, {"type": "Feature", "geometry": {"type": "Point", "coordinates": [-2.602814, 51.447306]}, "properties": {}}, {"type": "Feature", "geometry": {"type": "Point", "coordinates": [-2.291028, 51.826242]}, "properties": {}}, {"type": "Feature", "geometry": {"type": "Point", "coordinates": [-97.257972, 32.755582]}, "properties": {}}, {"type": "Feature", "geometry": {"type": "Point", "coordinates": [-98.332313, 29.67972]}, "properties": {}}, {"type": "Feature", "geometry": {"type": "Point", "coordinates": [0.260037, 50.859353]}, "properties": {}}, {"type": "Feature", "geometry": {"type": "Point", "coordinates": [-1.10091, 53.956886]}, "properties": {}}, {"type": "Feature", "geometry": {"type": "Point", "coordinates": [-1.9711, 51.724897]}, "properties": {}}, {"type": "Feature", "geometry": {"type": "Point", "coordinates": [-9.15282, 38.628593]}, "properties": {}}, {"type": "Feature", "geometry": {"type": "Point", "coordinates": [-0.233536, 51.397447]}, "properties": {}}, {"type": "Feature", "geometry": {"type": "Point", "coordinates": [-2.766471, 51.488381]}, "properties": {}}, {"type": "Feature", "geometry": {"type": "Point", "coordinates": [-97.768869, 30.463475]}, "properties": {}}, {"type": "Feature", "geometry": {"type": "Point", "coordinates": [-1.133368, 53.996411]}, "properties": {}}, {"type": "Feature", "geometry": {"type": "Point", "coordinates": [-58.572955, -34.600429]}, "properties": {}}, {"type": "Feature", "geometry": {"type": "Point", "coordinates": [121.664225, 30.88368]}, "properties": {}}, {"type": "Feature", "geometry": {"type": "Point", "coordinates": [-2.600908, 51.475375]}, "properties": {}}, {"type": "Feature", "geometry": {"type": "Point", "coordinates": [-70.900063, -53.125125]}, "properties": {}}, {"type": "Feature", "geometry": {"type": "Point", "coordinates": [-0.149286, 51.478264]}, "properties": {}}, {"type": "Feature", "geometry": {"type": "Point", "coordinates": [-2.478448, 51.528234]}, "properties": {}}, {"type": "Feature", "geometry": {"type": "Point", "coordinates": [1.364838, 51.32917]}, "properties": {}}, {"type": "Feature", "geometry": {"type": "Point", "coordinates": [-1.089981, 53.944023]}, "properties": {}}, {"type": "Feature", "geometry": {"type": "Point", "coordinates": [-98.471065, 29.363684]}, "properties": {}}, {"type": "Feature", "geometry": {"type": "Point", "coordinates": [-2.622152, 51.438444]}, "properties": {}}, {"type": "Feature", "geometry": {"type": "Point", "coordinates": [-3.243172, 50.67685]}, "properties": {}}, {"type": "Feature", "geometry": {"type": "Point", "coordinates": [-2.316989, 51.228686]}, "properties": {}}, {"type": "Feature", "geometry": {"type": "Point", "coordinates": [-1.52705, 55.15795]}, "properties": {}}, {"type": "Feature", "geometry": {"type": "Point", "coordinates": [-96.40007, 30.621391]}, "properties": {}}, {"type": "Feature", "geometry": {"type": "Point", "coordinates": [172.595137, -43.574582]}, "properties": {}}, {"type": "Feature", "geometry": {"type": "Point", "coordinates": [-0.005596, 51.55074]}, "properties": {}}, {"type": "Feature", "geometry": {"type": "Point", "coordinates": [-1.099305, 51.252054]}, "properties": {}}, {"type": "Feature", "geometry": {"type": "Point", "coordinates": [-1.095607, 51.251315]}, "properties": {}}, {"type": "Feature", "geometry": {"type": "Point", "coordinates": [34.957349, 31.929373]}, "properties": {}}, {"type": "Feature", "geometry": {"type": "Point", "coordinates": [-96.830073, 32.431343]}, "properties": {}}, {"type": "Feature", "geometry": {"type": "Point", "coordinates": [-2.272843, 53.540863]}, "properties": {}}, {"type": "Feature", "geometry": {"type": "Point", "coordinates": [-97.873089, 30.525286]}, "properties": {}}, {"type": "Feature", "geometry": {"type": "Point", "coordinates": [-3.110723, 36.781487]}, "properties": {}}, {"type": "Feature", "geometry": {"type": "Point", "coordinates": [-2.853347, 53.368894]}, "properties": {}}, {"type": "Feature", "geometry": {"type": "Point", "coordinates": [-96.623544, 32.725288]}, "properties": {}}, {"type": "Feature", "geometry": {"type": "Point", "coordinates": [-1.590102, 54.956696]}, "properties": {}}, {"type": "Feature", "geometry": {"type": "Point", "coordinates": [-97.90158, 29.941019]}, "properties": {}}, {"type": "Feature", "geometry": {"type": "Point", "coordinates": [-3.238928, 50.694422]}, "properties": {}}, {"type": "Feature", "geometry": {"type": "Point", "coordinates": [16.006611, 45.852505]}, "properties": {}}, {"type": "Feature", "geometry": {"type": "Point", "coordinates": [-97.699268, 30.24403]}, "properties": {}}, {"type": "Feature", "geometry": {"type": "Point", "coordinates": [-96.672133, 33.057114]}, "properties": {}}, {"type": "Feature", "geometry": {"type": "Point", "coordinates": [-97.010956, 30.651076]}, "properties": {}}, {"type": "Feature", "geometry": {"type": "Point", "coordinates": [10.959185, 52.157474]}, "properties": {}}, {"type": "Feature", "geometry": {"type": "Point", "coordinates": [-9.371958, 38.725105]}, "properties": {}}, {"type": "Feature", "geometry": {"type": "Point", "coordinates": [-1.294336, 51.070208]}, "properties": {}}, {"type": "Feature", "geometry": {"type": "Point", "coordinates": [114.399576, 22.65597]}, "properties": {}}, {"type": "Feature", "geometry": {"type": "Point", "coordinates": [-1.095607, 51.251315]}, "properties": {}}, {"type": "Feature", "geometry": {"type": "Point", "coordinates": [-121.930564, 37.328801]}, "properties": {}}, {"type": "Feature", "geometry": {"type": "Point", "coordinates": [-1.215898, 51.740043]}, "properties": {}}, {"type": "Feature", "geometry": {"type": "Point", "coordinates": [-97.209083, 32.789917]}, "properties": {}}, {"type": "Feature", "geometry": {"type": "Point", "coordinates": [-2.76085, 51.488111]}, "properties": {}}, {"type": "Feature", "geometry": {"type": "Point", "coordinates": [-3.183541, 55.954843]}, "properties": {}}, {"type": "Feature", "geometry": {"type": "Point", "coordinates": [-76.107117, 38.495736]}, "properties": {}}, {"type": "Feature", "geometry": {"type": "Point", "coordinates": [-1.139672, 52.94968]}, "properties": {}}, {"type": "Feature", "geometry": {"type": "Point", "coordinates": [-1.095607, 51.251315]}, "properties": {}}, {"type": "Feature", "geometry": {"type": "Point", "coordinates": [-0.276528, 39.274608]}, "properties": {}}, {"type": "Feature", "geometry": {"type": "Point", "coordinates": [-1.137245, 52.983528]}, "properties": {}}, {"type": "Feature", "geometry": {"type": "Point", "coordinates": [-1.099305, 51.252054]}, "properties": {}}, {"type": "Feature", "geometry": {"type": "Point", "coordinates": [6.831687, 43.63332]}, "properties": {}}, {"type": "Feature", "geometry": {"type": "Point", "coordinates": [-97.275531, 32.745281]}, "properties": {}}, {"type": "Feature", "geometry": {"type": "Point", "coordinates": [-1.100087, 51.2535]}, "properties": {}}, {"type": "Feature", "geometry": {"type": "Point", "coordinates": [-2.958789, 53.4197]}, "properties": {}}, {"type": "Feature", "geometry": {"type": "Point", "coordinates": [-0.658147, 52.919041]}, "properties": {}}, {"type": "Feature", "geometry": {"type": "Point", "coordinates": [16.41651, 56.58221]}, "properties": {}}, {"type": "Feature", "geometry": {"type": "Point", "coordinates": [12.90637, 56.75263]}, "properties": {}}, {"type": "Feature", "geometry": {"type": "Point", "coordinates": [11.873254, 54.765074]}, "properties": {}}, {"type": "Feature", "geometry": {"type": "Point", "coordinates": [12.610253, 55.666979]}, "properties": {}}, {"type": "Feature", "geometry": {"type": "Point", "coordinates": [9.932797, 55.017322]}, "properties": {}}, {"type": "Feature", "geometry": {"type": "Point", "coordinates": [12.440759, 55.763278]}, "properties": {}}, {"type": "Feature", "geometry": {"type": "Point", "coordinates": [11.903305, 54.720874]}, "properties": {}}, {"type": "Feature", "geometry": {"type": "Point", "coordinates": [11.867442, 54.763191]}, "properties": {}}, {"type": "Feature", "geometry": {"type": "Point", "coordinates": [-17.79513, 28.686504]}, "properties": {}}, {"type": "Feature", "geometry": {"type": "Point", "coordinates": [6.395373, 50.885113]}, "properties": {}}, {"type": "Feature", "geometry": {"type": "Point", "coordinates": [12.210263, 54.939856]}, "properties": {}}, {"type": "Feature", "geometry": {"type": "Point", "coordinates": [8.4378, 49.985435]}, "properties": {}}, {"type": "Feature", "geometry": {"type": "Point", "coordinates": [6.55826, 46.56536]}, "properties": {}}, {"type": "Feature", "geometry": {"type": "Point", "coordinates": [6.49305, 46.56484]}, "properties": {}}, {"type": "Feature", "geometry": {"type": "Point", "coordinates": [8.95714, 46.0638]}, "properties": {}}, {"type": "Feature", "geometry": {"type": "Point", "coordinates": [6.49384, 46.51986]}, "properties": {}}, {"type": "Feature", "geometry": {"type": "Point", "coordinates": [8.53375, 47.50807]}, "properties": {}}, {"type": "Feature", "geometry": {"type": "Point", "coordinates": [8.53561, 47.598]}, "properties": {}}, {"type": "Feature", "geometry": {"type": "Point", "coordinates": [6.49305, 46.56484]}, "properties": {}}, {"type": "Feature", "geometry": {"type": "Point", "coordinates": [6.42784, 46.56428]}, "properties": {}}, {"type": "Feature", "geometry": {"type": "Point", "coordinates": [11.184566, 46.553659]}, "properties": {}}, {"type": "Feature", "geometry": {"type": "Point", "coordinates": [-122.599938, 38.129372]}, "properties": {}}, {"type": "Feature", "geometry": {"type": "Point", "coordinates": [0.096915, 52.175687]}, "properties": {}}, {"type": "Feature", "geometry": {"type": "Point", "coordinates": [168.726075, -45.017303]}, "properties": {}}, {"type": "Feature", "geometry": {"type": "Point", "coordinates": [-99.735639, 32.480102]}, "properties": {}}, {"type": "Feature", "geometry": {"type": "Point", "coordinates": [-90.031867, 38.540875]}, "properties": {}}, {"type": "Feature", "geometry": {"type": "Point", "coordinates": [-77.522293, 43.237598]}, "properties": {}}, {"type": "Feature", "geometry": {"type": "Point", "coordinates": [11.184568, 46.553677]}, "properties": {}}, {"type": "Feature", "geometry": {"type": "Point", "coordinates": [-121.775567, 37.314658]}, "properties": {}}, {"type": "Feature", "geometry": {"type": "Point", "coordinates": [-117.207475, 33.098103]}, "properties": {}}, {"type": "Feature", "geometry": {"type": "Point", "coordinates": [14.313265, 48.812459]}, "properties": {}}, {"type": "Feature", "geometry": {"type": "Point", "coordinates": [2.527461, 41.814266]}, "properties": {}}, {"type": "Feature", "geometry": {"type": "Point", "coordinates": [-2.070725, 51.511161]}, "properties": {}}, {"type": "Feature", "geometry": {"type": "Point", "coordinates": [-0.277258, 51.96168]}, "properties": {}}, {"type": "Feature", "geometry": {"type": "Point", "coordinates": [-120.041197, 34.707138]}, "properties": {}}, {"type": "Feature", "geometry": {"type": "Point", "coordinates": [-118.449705, 34.067597]}, "properties": {}}, {"type": "Feature", "geometry": {"type": "Point", "coordinates": [-120.112878, 36.090197]}, "properties": {}}, {"type": "Feature", "geometry": {"type": "Point", "coordinates": [4.524308, 52.265278]}, "properties": {}}, {"type": "Feature", "geometry": {"type": "Point", "coordinates": [-1.563265, 42.026519]}, "properties": {}}, {"type": "Feature", "geometry": {"type": "Point", "coordinates": [-120.636399, 36.684302]}, "properties": {}}, {"type": "Feature", "geometry": {"type": "Point", "coordinates": [-122.232855, 47.49197]}, "properties": {}}, {"type": "Feature", "geometry": {"type": "Point", "coordinates": [-121.844963, 39.730672]}, "properties": {}}, {"type": "Feature", "geometry": {"type": "Point", "coordinates": [-2.998503, 53.35064]}, "properties": {}}, {"type": "Feature", "geometry": {"type": "Point", "coordinates": [-111.670503, 33.206128]}, "properties": {}}, {"type": "Feature", "geometry": {"type": "Point", "coordinates": [-97.390155, 32.906224]}, "properties": {}}, {"type": "Feature", "geometry": {"type": "Point", "coordinates": [-121.793172, 37.157322]}, "properties": {}}, {"type": "Feature", "geometry": {"type": "Point", "coordinates": [2.262669, 42.047959]}, "properties": {}}, {"type": "Feature", "geometry": {"type": "Point", "coordinates": [121.555917, 29.917776]}, "properties": {}}, {"type": "Feature", "geometry": {"type": "Point", "coordinates": [121.50128, 31.164197]}, "properties": {}}, {"type": "Feature", "geometry": {"type": "Point", "coordinates": [-2.892297, 53.413915]}, "properties": {}}, {"type": "Feature", "geometry": {"type": "Point", "coordinates": [121.330495, 24.360369]}, "properties": {}}, {"type": "Feature", "geometry": {"type": "Point", "coordinates": [-118.532713, 34.439347]}, "properties": {}}, {"type": "Feature", "geometry": {"type": "Point", "coordinates": [-118.297698, 34.157314]}, "properties": {}}, {"type": "Feature", "geometry": {"type": "Point", "coordinates": [-3.86473, 40.337033]}, "properties": {}}, {"type": "Feature", "geometry": {"type": "Point", "coordinates": [-119.84777, 39.516055]}, "properties": {}}, {"type": "Feature", "geometry": {"type": "Point", "coordinates": [-0.161926, 51.170882]}, "properties": {}}, {"type": "Feature", "geometry": {"type": "Point", "coordinates": [-97.788342, 30.182939]}, "properties": {}}, {"type": "Feature", "geometry": {"type": "Point", "coordinates": [-118.706078, 34.102436]}, "properties": {}}, {"type": "Feature", "geometry": {"type": "Point", "coordinates": [2.323675, 41.671297]}, "properties": {}}, {"type": "Feature", "geometry": {"type": "Point", "coordinates": [-101.157353, 19.68015]}, "properties": {}}, {"type": "Feature", "geometry": {"type": "Point", "coordinates": [3.09682, 36.717025]}, "properties": {}}, {"type": "Feature", "geometry": {"type": "Point", "coordinates": [-2.732978, 53.353275]}, "properties": {}}, {"type": "Feature", "geometry": {"type": "Point", "coordinates": [-97.198079, 32.74904]}, "properties": {}}, {"type": "Feature", "geometry": {"type": "Point", "coordinates": [-1.108679, 53.954802]}, "properties": {}}, {"type": "Feature", "geometry": {"type": "Point", "coordinates": [-121.768543, 36.662401]}, "properties": {}}, {"type": "Feature", "geometry": {"type": "Point", "coordinates": [-1.806618, 51.070149]}, "properties": {}}, {"type": "Feature", "geometry": {"type": "Point", "coordinates": [-117.031417, 32.742552]}, "properties": {}}, {"type": "Feature", "geometry": {"type": "Point", "coordinates": [0.876903, 51.146358]}, "properties": {}}, {"type": "Feature", "geometry": {"type": "Point", "coordinates": [9.739492, 45.358874]}, "properties": {}}, {"type": "Feature", "geometry": {"type": "Point", "coordinates": [-117.047994, 32.844871]}, "properties": {}}, {"type": "Feature", "geometry": {"type": "Point", "coordinates": [-96.623428, 32.72523]}, "properties": {}}, {"type": "Feature", "geometry": {"type": "Point", "coordinates": [-9.22865, 38.789078]}, "properties": {}}, {"type": "Feature", "geometry": {"type": "Point", "coordinates": [-97.197036, 32.748596]}, "properties": {}}, {"type": "Feature", "geometry": {"type": "Point", "coordinates": [-3.198305, 51.49923]}, "properties": {}}, {"type": "Feature", "geometry": {"type": "Point", "coordinates": [5.398682, 43.278329]}, "properties": {}}, {"type": "Feature", "geometry": {"type": "Point", "coordinates": [120.993368, 24.674816]}, "properties": {}}, {"type": "Feature", "geometry": {"type": "Point", "coordinates": [-118.297719, 34.157363]}, "properties": {}}, {"type": "Feature", "geometry": {"type": "Point", "coordinates": [-97.671768, 31.066249]}, "properties": {}}, {"type": "Feature", "geometry": {"type": "Point", "coordinates": [-1.739416, 52.733982]}, "properties": {}}, {"type": "Feature", "geometry": {"type": "Point", "coordinates": [-9.137364, 38.602756]}, "properties": {}}, {"type": "Feature", "geometry": {"type": "Point", "coordinates": [-117.695869, 33.75365]}, "properties": {}}, {"type": "Feature", "geometry": {"type": "Point", "coordinates": [-2.731875, 53.352479]}, "properties": {}}, {"type": "Feature", "geometry": {"type": "Point", "coordinates": [-6.337953, 54.166419]}, "properties": {}}, {"type": "Feature", "geometry": {"type": "Point", "coordinates": [-98.469553, 29.34568]}, "properties": {}}, {"type": "Feature", "geometry": {"type": "Point", "coordinates": [-2.761618, 53.377903]}, "properties": {}}, {"type": "Feature", "geometry": {"type": "Point", "coordinates": [-120.04124, 34.707162]}, "properties": {}}, {"type": "Feature", "geometry": {"type": "Point", "coordinates": [4.771416, 48.554443]}, "properties": {}}, {"type": "Feature", "geometry": {"type": "Point", "coordinates": [34.948725, 31.959469]}, "properties": {}}, {"type": "Feature", "geometry": {"type": "Point", "coordinates": [-97.833079, 30.102614]}, "properties": {}}, {"type": "Feature", "geometry": {"type": "Point", "coordinates": [-118.356772, 34.020272]}, "properties": {}}, {"type": "Feature", "geometry": {"type": "Point", "coordinates": [-97.137312, 30.689701]}, "properties": {}}, {"type": "Feature", "geometry": {"type": "Point", "coordinates": [-2.761631, 53.37785]}, "properties": {}}, {"type": "Feature", "geometry": {"type": "Point", "coordinates": [4.529694, 52.262653]}, "properties": {}}, {"type": "Feature", "geometry": {"type": "Point", "coordinates": [2.227968, 42.08713]}, "properties": {}}, {"type": "Feature", "geometry": {"type": "Point", "coordinates": [65.791363, 38.835638]}, "properties": {}}, {"type": "Feature", "geometry": {"type": "Point", "coordinates": [172.625339, -43.631828]}, "properties": {}}, {"type": "Feature", "geometry": {"type": "Point", "coordinates": [-6.338075, 54.166892]}, "properties": {}}, {"type": "Feature", "geometry": {"type": "Point", "coordinates": [-117.874392, 34.2428]}, "properties": {}}, {"type": "Feature", "geometry": {"type": "Point", "coordinates": [-122.025117, 38.209438]}, "properties": {}}, {"type": "Feature", "geometry": {"type": "Point", "coordinates": [-78.792874, 35.031484]}, "properties": {}}, {"type": "Feature", "geometry": {"type": "Point", "coordinates": [34.879215, 32.303673]}, "properties": {}}, {"type": "Feature", "geometry": {"type": "Point", "coordinates": [-95.381478, 29.914553]}, "properties": {}}, {"type": "Feature", "geometry": {"type": "Point", "coordinates": [-82.418879, 29.721246]}, "properties": {}}, {"type": "Feature", "geometry": {"type": "Point", "coordinates": [-117.64239, 33.675105]}, "properties": {}}, {"type": "Feature", "geometry": {"type": "Point", "coordinates": [10.250193, 45.521541]}, "properties": {}}, {"type": "Feature", "geometry": {"type": "Point", "coordinates": [-0.34099, 51.386379]}, "properties": {}}, {"type": "Feature", "geometry": {"type": "Point", "coordinates": [-121.895824, 37.287677]}, "properties": {}}, {"type": "Feature", "geometry": {"type": "Point", "coordinates": [-1.751301, 52.729741]}, "properties": {}}, {"type": "Feature", "geometry": {"type": "Point", "coordinates": [4.520069, 52.252625]}, "properties": {}}, {"type": "Feature", "geometry": {"type": "Point", "coordinates": [17.199863, 48.146317]}, "properties": {}}, {"type": "Feature", "geometry": {"type": "Point", "coordinates": [-6.254083, 54.098786]}, "properties": {}}, {"type": "Feature", "geometry": {"type": "Point", "coordinates": [-0.284107, 50.931392]}, "properties": {}}, {"type": "Feature", "geometry": {"type": "Point", "coordinates": [-80.949456, 35.385953]}, "properties": {}}, {"type": "Feature", "geometry": {"type": "Point", "coordinates": [-97.7241, 30.308562]}, "properties": {}}, {"type": "Feature", "geometry": {"type": "Point", "coordinates": [-2.998579, 53.350601]}, "properties": {}}, {"type": "Feature", "geometry": {"type": "Point", "coordinates": [7.850326, 43.831529]}, "properties": {}}, {"type": "Feature", "geometry": {"type": "Point", "coordinates": [137.835721, 34.808514]}, "properties": {}}, {"type": "Feature", "geometry": {"type": "Point", "coordinates": [139.320328, 35.610245]}, "properties": {}}, {"type": "Feature", "geometry": {"type": "Point", "coordinates": [-111.778442, 33.421973]}, "properties": {}}, {"type": "Feature", "geometry": {"type": "Point", "coordinates": [-97.199876, 32.679953]}, "properties": {}}, {"type": "Feature", "geometry": {"type": "Point", "coordinates": [-1.081726, 53.951287]}, "properties": {}}, {"type": "Feature", "geometry": {"type": "Point", "coordinates": [-118.284365, 34.134074]}, "properties": {}}, {"type": "Feature", "geometry": {"type": "Point", "coordinates": [-96.983764, 30.840973]}, "properties": {}}, {"type": "Feature", "geometry": {"type": "Point", "coordinates": [-121.451683, 38.56198]}, "properties": {}}, {"type": "Feature", "geometry": {"type": "Point", "coordinates": [120.379731, 23.59279]}, "properties": {}}, {"type": "Feature", "geometry": {"type": "Point", "coordinates": [-111.345422, 34.232303]}, "properties": {}}, {"type": "Feature", "geometry": {"type": "Point", "coordinates": [-96.937575, 30.176567]}, "properties": {}}, {"type": "Feature", "geometry": {"type": "Point", "coordinates": [-122.271038, 48.055168]}, "properties": {}}, {"type": "Feature", "geometry": {"type": "Point", "coordinates": [-121.79714, 37.398487]}, "properties": {}}, {"type": "Feature", "geometry": {"type": "Point", "coordinates": [-122.077011, 49.077667]}, "properties": {}}, {"type": "Feature", "geometry": {"type": "Point", "coordinates": [-122.321157, 37.591029]}, "properties": {}}, {"type": "Feature", "geometry": {"type": "Point", "coordinates": [-6.335406, 54.178769]}, "properties": {}}, {"type": "Feature", "geometry": {"type": "Point", "coordinates": [-97.20076, 32.71213]}, "properties": {}}, {"type": "Feature", "geometry": {"type": "Point", "coordinates": [-96.755387, 32.763303]}, "properties": {}}, {"type": "Feature", "geometry": {"type": "Point", "coordinates": [-75.729093, 38.773941]}, "properties": {}}, {"type": "Feature", "geometry": {"type": "Point", "coordinates": [-111.613344, 33.403942]}, "properties": {}}, {"type": "Feature", "geometry": {"type": "Point", "coordinates": [-97.87252, 30.214533]}, "properties": {}}, {"type": "Feature", "geometry": {"type": "Point", "coordinates": [-0.271738, 51.328604]}, "properties": {}}, {"type": "Feature", "geometry": {"type": "Point", "coordinates": [13.795436, 45.665747]}, "properties": {}}, {"type": "Feature", "geometry": {"type": "Point", "coordinates": [-1.750775, 52.730868]}, "properties": {}}, {"type": "Feature", "geometry": {"type": "Point", "coordinates": [-9.134921, 38.601716]}, "properties": {}}, {"type": "Feature", "geometry": {"type": "Point", "coordinates": [-123.26376, 44.557223]}, "properties": {}}, {"type": "Feature", "geometry": {"type": "Point", "coordinates": [-96.53269, 32.466447]}, "properties": {}}, {"type": "Feature", "geometry": {"type": "Point", "coordinates": [-118.307423, 34.116653]}, "properties": {}}, {"type": "Feature", "geometry": {"type": "Point", "coordinates": [-118.872505, 34.828525]}, "properties": {}}, {"type": "Feature", "geometry": {"type": "Point", "coordinates": [-122.198867, 37.376033]}, "properties": {}}, {"type": "Feature", "geometry": {"type": "Point", "coordinates": [-1.507529, 53.829119]}, "properties": {}}, {"type": "Feature", "geometry": {"type": "Point", "coordinates": [-118.365303, 34.009392]}, "properties": {}}, {"type": "Feature", "geometry": {"type": "Point", "coordinates": [120.262957, 23.622586]}, "properties": {}}, {"type": "Feature", "geometry": {"type": "Point", "coordinates": [120.379399, 23.592721]}, "properties": {}}, {"type": "Feature", "geometry": {"type": "Point", "coordinates": [-121.764198, 38.541518]}, "properties": {}}, {"type": "Feature", "geometry": {"type": "Point", "coordinates": [-77.522001, 43.237892]}, "properties": {}}, {"type": "Feature", "geometry": {"type": "Point", "coordinates": [28.160883, 39.936583]}, "properties": {}}, {"type": "Feature", "geometry": {"type": "Point", "coordinates": [113.037878, 23.747691]}, "properties": {}}, {"type": "Feature", "geometry": {"type": "Point", "coordinates": [121.088162, 24.837267]}, "properties": {}}, {"type": "Feature", "geometry": {"type": "Point", "coordinates": [-97.399475, 32.364602]}, "properties": {}}, {"type": "Feature", "geometry": {"type": "Point", "coordinates": [-93.658813, 32.4346]}, "properties": {}}, {"type": "Feature", "geometry": {"type": "Point", "coordinates": [173.221285, -41.320106]}, "properties": {}}, {"type": "Feature", "geometry": {"type": "Point", "coordinates": [169.067243, -46.225323]}, "properties": {}}, {"type": "Feature", "geometry": {"type": "Point", "coordinates": [-97.964844, 29.55575]}, "properties": {}}, {"type": "Feature", "geometry": {"type": "Point", "coordinates": [2.170551, 42.30915]}, "properties": {}}, {"type": "Feature", "geometry": {"type": "Point", "coordinates": [-5.667591, 43.513802]}, "properties": {}}, {"type": "Feature", "geometry": {"type": "Point", "coordinates": [-121.875303, 37.467286]}, "properties": {}}, {"type": "Feature", "geometry": {"type": "Point", "coordinates": [-121.900165, 36.610092]}, "properties": {}}, {"type": "Feature", "geometry": {"type": "Point", "coordinates": [28.978275, 41.009563]}, "properties": {}}, {"type": "Feature", "geometry": {"type": "Point", "coordinates": [34.898113, 32.410999]}, "properties": {}}, {"type": "Feature", "geometry": {"type": "Point", "coordinates": [4.769428, 48.554295]}, "properties": {}}, {"type": "Feature", "geometry": {"type": "Point", "coordinates": [-98.48352, 29.462733]}, "properties": {}}, {"type": "Feature", "geometry": {"type": "Point", "coordinates": [-97.358396, 30.040438]}, "properties": {}}, {"type": "Feature", "geometry": {"type": "Point", "coordinates": [-122.025008, 38.20952]}, "properties": {}}, {"type": "Feature", "geometry": {"type": "Point", "coordinates": [-97.612086, 27.862685]}, "properties": {}}, {"type": "Feature", "geometry": {"type": "Point", "coordinates": [-3.052215, 55.94536]}, "properties": {}}, {"type": "Feature", "geometry": {"type": "Point", "coordinates": [-75.795638, 41.321285]}, "properties": {}}, {"type": "Feature", "geometry": {"type": "Point", "coordinates": [121.558589, 29.912674]}, "properties": {}}, {"type": "Feature", "geometry": {"type": "Point", "coordinates": [-1.116022, 53.961134]}, "properties": {}}, {"type": "Feature", "geometry": {"type": "Point", "coordinates": [121.551587, 31.217201]}, "properties": {}}, {"type": "Feature", "geometry": {"type": "Point", "coordinates": [-122.166425, 37.42491]}, "properties": {}}, {"type": "Feature", "geometry": {"type": "Point", "coordinates": [-97.629411, 33.570208]}, "properties": {}}, {"type": "Feature", "geometry": {"type": "Point", "coordinates": [-121.697075, 37.962091]}, "properties": {}}, {"type": "Feature", "geometry": {"type": "Point", "coordinates": [-118.377363, 34.027133]}, "properties": {}}, {"type": "Feature", "geometry": {"type": "Point", "coordinates": [-2.955721, 53.329022]}, "properties": {}}, {"type": "Feature", "geometry": {"type": "Point", "coordinates": [-121.841227, 36.614995]}, "properties": {}}, {"type": "Feature", "geometry": {"type": "Point", "coordinates": [-97.482334, 35.653708]}, "properties": {}}, {"type": "Feature", "geometry": {"type": "Point", "coordinates": [-1.113508, 53.960302]}, "properties": {}}, {"type": "Feature", "geometry": {"type": "Point", "coordinates": [39.693501, 45.198164]}, "properties": {}}, {"type": "Feature", "geometry": {"type": "Point", "coordinates": [-97.449216, 35.225395]}, "properties": {}}, {"type": "Feature", "geometry": {"type": "Point", "coordinates": [-121.852543, 37.442047]}, "properties": {}}, {"type": "Feature", "geometry": {"type": "Point", "coordinates": [-9.136655, 38.738]}, "properties": {}}, {"type": "Feature", "geometry": {"type": "Point", "coordinates": [8.788614, 54.664227]}, "properties": {}}, {"type": "Feature", "geometry": {"type": "Point", "coordinates": [-97.399137, 27.792148]}, "properties": {}}, {"type": "Feature", "geometry": {"type": "Point", "coordinates": [-2.892026, 53.196421]}, "properties": {}}, {"type": "Feature", "geometry": {"type": "Point", "coordinates": [-118.209684, 34.126911]}, "properties": {}}, {"type": "Feature", "geometry": {"type": "Point", "coordinates": [-117.881136, 33.746268]}, "properties": {}}, {"type": "Feature", "geometry": {"type": "Point", "coordinates": [14.440997, 50.085338]}, "properties": {}}, {"type": "Feature", "geometry": {"type": "Point", "coordinates": [9.187312, 45.529219]}, "properties": {}}, {"type": "Feature", "geometry": {"type": "Point", "coordinates": [-122.579638, 38.082331]}, "properties": {}}, {"type": "Feature", "geometry": {"type": "Point", "coordinates": [2.211216, 42.107783]}, "properties": {}}, {"type": "Feature", "geometry": {"type": "Point", "coordinates": [11.624463, 44.672562]}, "properties": {}}, {"type": "Feature", "geometry": {"type": "Point", "coordinates": [-120.06105, 34.742461]}, "properties": {}}, {"type": "Feature", "geometry": {"type": "Point", "coordinates": [-121.908383, 37.303938]}, "properties": {}}, {"type": "Feature", "geometry": {"type": "Point", "coordinates": [-9.252031, 38.76445]}, "properties": {}}, {"type": "Feature", "geometry": {"type": "Point", "coordinates": [-2.975942, 53.411586]}, "properties": {}}, {"type": "Feature", "geometry": {"type": "Point", "coordinates": [-117.254453, 33.558787]}, "properties": {}}, {"type": "Feature", "geometry": {"type": "Point", "coordinates": [-97.140014, 32.753921]}, "properties": {}}, {"type": "Feature", "geometry": {"type": "Point", "coordinates": [-116.679255, 31.876297]}, "properties": {}}, {"type": "Feature", "geometry": {"type": "Point", "coordinates": [-119.4983, 35.019178]}, "properties": {}}, {"type": "Feature", "geometry": {"type": "Point", "coordinates": [-119.498322, 35.019182]}, "properties": {}}, {"type": "Feature", "geometry": {"type": "Point", "coordinates": [-1.123837, 53.959135]}, "properties": {}}, {"type": "Feature", "geometry": {"type": "Point", "coordinates": [-6.412337, 36.719248]}, "properties": {}}, {"type": "Feature", "geometry": {"type": "Point", "coordinates": [-7.414987, 37.196939]}, "properties": {}}, {"type": "Feature", "geometry": {"type": "Point", "coordinates": [-1.870572, 52.896187]}, "properties": {}}, {"type": "Feature", "geometry": {"type": "Point", "coordinates": [-122.383422, 37.924625]}, "properties": {}}, {"type": "Feature", "geometry": {"type": "Point", "coordinates": [-96.840443, 32.881316]}, "properties": {}}, {"type": "Feature", "geometry": {"type": "Point", "coordinates": [4.520069, 52.252625]}, "properties": {}}, {"type": "Feature", "geometry": {"type": "Point", "coordinates": [-1.085796, 53.952605]}, "properties": {}}, {"type": "Feature", "geometry": {"type": "Point", "coordinates": [-118.762437, 34.476355]}, "properties": {}}, {"type": "Feature", "geometry": {"type": "Point", "coordinates": [-1.110478, 53.953482]}, "properties": {}}, {"type": "Feature", "geometry": {"type": "Point", "coordinates": [1.944889, 41.502329]}, "properties": {}}, {"type": "Feature", "geometry": {"type": "Point", "coordinates": [-117.066567, 33.077863]}, "properties": {}}, {"type": "Feature", "geometry": {"type": "Point", "coordinates": [-122.177061, 37.426174]}, "properties": {}}, {"type": "Feature", "geometry": {"type": "Point", "coordinates": [-97.798404, 32.447287]}, "properties": {}}, {"type": "Feature", "geometry": {"type": "Point", "coordinates": [35.2743, 32.884507]}, "properties": {}}, {"type": "Feature", "geometry": {"type": "Point", "coordinates": [-1.122462, 53.959526]}, "properties": {}}, {"type": "Feature", "geometry": {"type": "Point", "coordinates": [-122.264525, 37.80538]}, "properties": {}}, {"type": "Feature", "geometry": {"type": "Point", "coordinates": [27.061556, 38.412286]}, "properties": {}}, {"type": "Feature", "geometry": {"type": "Point", "coordinates": [-1.120942, 53.955493]}, "properties": {}}, {"type": "Feature", "geometry": {"type": "Point", "coordinates": [-122.258758, 38.022347]}, "properties": {}}, {"type": "Feature", "geometry": {"type": "Point", "coordinates": [-2.997937, 53.349445]}, "properties": {}}]}