{"type": "FeatureCollection", "name": "Calendula officinalis", "features": [{"type": "Feature", "geometry": {"type": "Point", "coordinates": [-124.056856, 44.639508]}, "properties": {}}, {"type": "Feature", "geometry": {"type": "Point", "coordinates": [-1.133152, 52.981468]}, "properties": {}}, {"type": "Feature", "geometry": {"type": "Point", "coordinates": [-1.111623, 53.956128]}, "properties": {}}, {"type": "Feature", "geometry": {"type": "Point", "coordinates": [1.518888, 43.621723]}, "properties": {}}, {"type": "Feature", "geometry": {"type": "Point", "coordinates": [-3.241686, 50.678803]}, "properties": {}}, {"type": "Feature", "geometry": {"type": "Point", "coordinates": [-0.248986, 51.382878]}, "properties": {}}, {"type": "Feature", "geometry": {"type": "Point", "coordinates": [-124.056803, 44.639527]}, "properties": {}}, {"type": "Feature", "geometry": {"type": "Point", "coordinates": [-2.346233, 51.401528]}, "properties": {}}, {"type": "Feature", "geometry": {"type": "Point", "coordinates": [9.942538, 51.559467]}, "properties": {}}, {"type": "Feature", "geometry": {"type": "Point", "coordinates": [3.71105, 51.04463]}, "properties": {}}, {"type": "Feature", "geometry": {"type": "Point", "coordinates": [3.71035, 51.04469]}, "properties": {}}, {"type": "Feature", "geometry": {"type": "Point", "coordinates": [4.36427, 50.91113]}, "properties": {}}, {"type": "Feature", "geometry": {"type": "Point", "coordinates": [-1.084981, 53.949209]}, "properties": {}}, {"type": "Feature", "geometry": {"type": "Point", "coordinates": [-122.037567, 36.990475]}, "properties": {}}, {"type": "Feature", "geometry": {"type": "Point", "coordinates": [1.59107, 41.434702]}, "properties": {}}, {"type": "Feature", "geometry": {"type": "Point", "coordinates": [1.59107, 41.434702]}, "properties": {}}, {"type": "Feature", "geometry": {"type": "Point", "coordinates": [-4.780009, 50.34647]}, "properties": {}}, {"type": "Feature", "geometry": {"type": "Point", "coordinates": [-123.938555, 45.718554]}, "properties": {}}, {"type": "Feature", "geometry": {"type": "Point", "coordinates": [-122.849012, 49.19128]}, "properties": {}}, {"type": "Feature", "geometry": {"type": "Point", "coordinates": [-5.692798, 43.471321]}, "properties": {}}, {"type": "Feature", "geometry": {"type": "Point", "coordinates": [-2.12337, 48.612119]}, "properties": {}}, {"type": "Feature", "geometry": {"type": "Point", "coordinates": [4.826905, 53.029844]}, "properties": {}}, {"type": "Feature", "geometry": {"type": "Point", "coordinates": [-2.476437, 51.531405]}, "properties": {}}, {"type": "Feature", "geometry": {"type": "Point", "coordinates": [-111.93388, 33.42083]}, "properties": {}}, {"type": "Feature", "geometry": {"type": "Point", "coordinates": [-122.25447, 37.865705]}, "properties": {}}, {"type": "Feature", "geometry": {"type": "Point", "coordinates": [169.134292, -44.695553]}, "properties": {}}, {"type": "Feature", "geometry": {"type": "Point", "coordinates": [-121.31267, 37.976256]}, "properties": {}}, {"type": "Feature", "geometry": {"type": "Point", "coordinates": [174.030945, -39.065708]}, "properties": {}}, {"type": "Feature", "geometry": {"type": "Point", "coordinates": [175.293145, -37.073155]}, "properties": {}}, {"type": "Feature", "geometry": {"type": "Point", "coordinates": [-121.979858, 37.075506]}, "properties": {}}, {"type": "Feature", "geometry": {"type": "Point", "coordinates": [-72.51213, -51.726628]}, "properties": {}}, {"type": "Feature", "geometry": {"type": "Point", "coordinates": [-122.021348, 36.965448]}, "properties": {}}, {"type": "Feature", "geometry": {"type": "Point", "coordinates": [-0.137609, 51.546449]}, "properties": {}}, {"type": "Feature", "geometry": {"type": "Point", "coordinates": [-118.287743, 34.016739]}, "properties": {}}, {"type": "Feature", "geometry": {"type": "Point", "coordinates": [-117.093825, 32.990567]}, "properties": {}}, {"type": "Feature", "geometry": {"type": "Point", "coordinates": [77.365472, 28.54054]}, "properties": {}}, {"type": "Feature", "geometry": {"type": "Point", "coordinates": [-5.280108, 43.380444]}, "properties": {}}, {"type": "Feature", "geometry": {"type": "Point", "coordinates": [-121.780489, 38.551133]}, "properties": {}}, {"type": "Feature", "geometry": {"type": "Point", "coordinates": [-65.706841, -44.800266]}, "properties": {}}, {"type": "Feature", "geometry": {"type": "Point", "coordinates": [-73.62132, 5.616634]}, "properties": {}}, {"type": "Feature", "geometry": {"type": "Point", "coordinates": [77.195129, 28.545364]}, "properties": {}}, {"type": "Feature", "geometry": {"type": "Point", "coordinates": [-2.574827, 51.506831]}, "properties": {}}, {"type": "Feature", "geometry": {"type": "Point", "coordinates": [-78.428647, -0.197725]}, "properties": {}}, {"type": "Feature", "geometry": {"type": "Point", "coordinates": [-120.728931, 35.332494]}, "properties": {}}, {"type": "Feature", "geometry": {"type": "Point", "coordinates": [77.224376, 28.680064]}, "properties": {}}, {"type": "Feature", "geometry": {"type": "Point", "coordinates": [-99.951473, 19.709976]}, "properties": {}}, {"type": "Feature", "geometry": {"type": "Point", "coordinates": [-3.489719, 42.293678]}, "properties": {}}, {"type": "Feature", "geometry": {"type": "Point", "coordinates": [-122.27057, 38.173795]}, "properties": {}}, {"type": "Feature", "geometry": {"type": "Point", "coordinates": [-16.333767, 28.5246]}, "properties": {}}, {"type": "Feature", "geometry": {"type": "Point", "coordinates": [77.412615, 23.259882]}, "properties": {}}, {"type": "Feature", "geometry": {"type": "Point", "coordinates": [-78.372682, -0.226504]}, "properties": {}}, {"type": "Feature", "geometry": {"type": "Point", "coordinates": [8.220423, 44.84774]}, "properties": {}}, {"type": "Feature", "geometry": {"type": "Point", "coordinates": [-121.764417, 38.538478]}, "properties": {}}, {"type": "Feature", "geometry": {"type": "Point", "coordinates": [-5.655865, 56.292705]}, "properties": {}}, {"type": "Feature", "geometry": {"type": "Point", "coordinates": [-78.369087, -0.222652]}, "properties": {}}, {"type": "Feature", "geometry": {"type": "Point", "coordinates": [-78.367461, -0.232541]}, "properties": {}}, {"type": "Feature", "geometry": {"type": "Point", "coordinates": [-78.372475, -0.225715]}, "properties": {}}, {"type": "Feature", "geometry": {"type": "Point", "coordinates": [-78.372655, -0.225718]}, "properties": {}}, {"type": "Feature", "geometry": {"type": "Point", "coordinates": [0.266109, 50.781598]}, "properties": {}}, {"type": "Feature", "geometry": {"type": "Point", "coordinates": [-1.30738, 52.07035]}, "properties": {}}, {"type": "Feature", "geometry": {"type": "Point", "coordinates": [0.08715, 50.776844]}, "properties": {}}, {"type": "Feature", "geometry": {"type": "Point", "coordinates": [5.0, 52.9]}, "properties": {}}, {"type": "Feature", "geometry": {"type": "Point", "coordinates": [4.9, 52.35]}, "properties": {}}, {"type": "Feature", "geometry": {"type": "Point", "coordinates": [4.45, 52.15]}, "properties": {}}, {"type": "Feature", "geometry": {"type": "Point", "coordinates": [-78.372986, -0.224463]}, "properties": {}}, {"type": "Feature", "geometry": {"type": "Point", "coordinates": [-78.373075, -0.22467]}, "properties": {}}, {"type": "Feature", "geometry": {"type": "Point", "coordinates": [-122.46367, 37.762847]}, "properties": {}}, {"type": "Feature", "geometry": {"type": "Point", "coordinates": [-3.636071, 41.520104]}, "properties": {}}, {"type": "Feature", "geometry": {"type": "Point", "coordinates": [5.715858, 43.907694]}, "properties": {}}, {"type": "Feature", "geometry": {"type": "Point", "coordinates": [-78.372682, -0.226504]}, "properties": {}}, {"type": "Feature", "geometry": {"type": "Point", "coordinates": [-122.869445, 38.434313]}, "properties": {}}, {"type": "Feature", "geometry": {"type": "Point", "coordinates": [-2.978944, 53.429297]}, "properties": {}}, {"type": "Feature", "geometry": {"type": "Point", "coordinates": [26.102473, 52.111406]}, "properties": {}}, {"type": "Feature", "geometry": {"type": "Point", "coordinates": [-1.498668, 52.274077]}, "properties": {}}, {"type": "Feature", "geometry": {"type": "Point", "coordinates": [-1.681993, 52.563142]}, "properties": {}}, {"type": "Feature", "geometry": {"type": "Point", "coordinates": [-117.08562, 32.557387]}, "properties": {}}, {"type": "Feature", "geometry": {"type": "Point", "coordinates": [1.218286, 52.944276]}, "properties": {}}, {"type": "Feature", "geometry": {"type": "Point", "coordinates": [0.044064, 51.503928]}, "properties": {}}, {"type": "Feature", "geometry": {"type": "Point", "coordinates": [-99.192253, 19.416492]}, "properties": {}}, {"type": "Feature", "geometry": {"type": "Point", "coordinates": [-95.632675, 29.585249]}, "properties": {}}, {"type": "Feature", "geometry": {"type": "Point", "coordinates": [173.693663, -42.415047]}, "properties": {}}, {"type": "Feature", "geometry": {"type": "Point", "coordinates": [80.604648, 28.459823]}, "properties": {}}, {"type": "Feature", "geometry": {"type": "Point", "coordinates": [-118.03858, 34.046328]}, "properties": {}}, {"type": "Feature", "geometry": {"type": "Point", "coordinates": [3.862923, 43.633282]}, "properties": {}}, {"type": "Feature", "geometry": {"type": "Point", "coordinates": [3.121615, 42.48482]}, "properties": {}}, {"type": "Feature", "geometry": {"type": "Point", "coordinates": [-78.372761, -0.225895]}, "properties": {}}, {"type": "Feature", "geometry": {"type": "Point", "coordinates": [91.764533, 24.290319]}, "properties": {}}, {"type": "Feature", "geometry": {"type": "Point", "coordinates": [1.594341, 41.552967]}, "properties": {}}, {"type": "Feature", "geometry": {"type": "Point", "coordinates": [-122.419418, 37.663784]}, "properties": {}}, {"type": "Feature", "geometry": {"type": "Point", "coordinates": [-2.980195, 53.387342]}, "properties": {}}, {"type": "Feature", "geometry": {"type": "Point", "coordinates": [80.604648, 28.459823]}, "properties": {}}, {"type": "Feature", "geometry": {"type": "Point", "coordinates": [-122.707286, 42.191609]}, "properties": {}}, {"type": "Feature", "geometry": {"type": "Point", "coordinates": [-121.72937, 38.549338]}, "properties": {}}, {"type": "Feature", "geometry": {"type": "Point", "coordinates": [-6.123864, 53.092476]}, "properties": {}}, {"type": "Feature", "geometry": {"type": "Point", "coordinates": [-73.797969, 5.052404]}, "properties": {}}, {"type": "Feature", "geometry": {"type": "Point", "coordinates": [-78.372652, -0.225651]}, "properties": {}}, {"type": "Feature", "geometry": {"type": "Point", "coordinates": [-117.131119, 32.796253]}, "properties": {}}, {"type": "Feature", "geometry": {"type": "Point", "coordinates": [-68.143608, -16.528738]}, "properties": {}}, {"type": "Feature", "geometry": {"type": "Point", "coordinates": [3.121005, 42.484602]}, "properties": {}}, {"type": "Feature", "geometry": {"type": "Point", "coordinates": [-121.779557, 38.548045]}, "properties": {}}, {"type": "Feature", "geometry": {"type": "Point", "coordinates": [-121.73217, 36.6273]}, "properties": {}}, {"type": "Feature", "geometry": {"type": "Point", "coordinates": [12.006558, 42.735067]}, "properties": {}}, {"type": "Feature", "geometry": {"type": "Point", "coordinates": [-1.070236, 53.95297]}, "properties": {}}, {"type": "Feature", "geometry": {"type": "Point", "coordinates": [5.8, 51.7]}, "properties": {}}, {"type": "Feature", "geometry": {"type": "Point", "coordinates": [4.4, 51.65]}, "properties": {}}, {"type": "Feature", "geometry": {"type": "Point", "coordinates": [0.721431, 52.086792]}, "properties": {}}, {"type": "Feature", "geometry": {"type": "Point", "coordinates": [-2.084322, 57.1763]}, "properties": {}}, {"type": "Feature", "geometry": {"type": "Point", "coordinates": [-1.683221, 42.804418]}, "properties": {}}, {"type": "Feature", "geometry": {"type": "Point", "coordinates": [14.620836, 41.573831]}, "properties": {}}, {"type": "Feature", "geometry": {"type": "Point", "coordinates": [-1.89375, 50.742489]}, "properties": {}}, {"type": "Feature", "geometry": {"type": "Point", "coordinates": [-2.981027, 53.447422]}, "properties": {}}, {"type": "Feature", "geometry": {"type": "Point", "coordinates": [-122.236175, 37.798129]}, "properties": {}}, {"type": "Feature", "geometry": {"type": "Point", "coordinates": [173.690372, -42.412686]}, "properties": {}}, {"type": "Feature", "geometry": {"type": "Point", "coordinates": [-120.724148, 38.736705]}, "properties": {}}, {"type": "Feature", "geometry": {"type": "Point", "coordinates": [-3.193275, 55.947525]}, "properties": {}}, {"type": "Feature", "geometry": {"type": "Point", "coordinates": [-5.770309, 43.572926]}, "properties": {}}, {"type": "Feature", "geometry": {"type": "Point", "coordinates": [-1.893783, 50.742544]}, "properties": {}}, {"type": "Feature", "geometry": {"type": "Point", "coordinates": [-119.289619, 36.363155]}, "properties": {}}, {"type": "Feature", "geometry": {"type": "Point", "coordinates": [4.31624, 50.80422]}, "properties": {}}, {"type": "Feature", "geometry": {"type": "Point", "coordinates": [3.00123, 51.0806]}, "properties": {}}, {"type": "Feature", "geometry": {"type": "Point", "coordinates": [5.09143, 50.76793]}, "properties": {}}, {"type": "Feature", "geometry": {"type": "Point", "coordinates": [4.6108, 50.85566]}, "properties": {}}, {"type": "Feature", "geometry": {"type": "Point", "coordinates": [-117.162221, 32.753923]}, "properties": {}}, {"type": "Feature", "geometry": {"type": "Point", "coordinates": [-1.669937, 42.802605]}, "properties": {}}, {"type": "Feature", "geometry": {"type": "Point", "coordinates": [-76.741907, 7.850356]}, "properties": {}}, {"type": "Feature", "geometry": {"type": "Point", "coordinates": [15.761975, 37.953122]}, "properties": {}}, {"type": "Feature", "geometry": {"type": "Point", "coordinates": [12.836057, 37.939653]}, "properties": {}}, {"type": "Feature", "geometry": {"type": "Point", "coordinates": [-2.048895, 42.716345]}, "properties": {}}, {"type": "Feature", "geometry": {"type": "Point", "coordinates": [-2.12138, 42.783867]}, "properties": {}}, {"type": "Feature", "geometry": {"type": "Point", "coordinates": [-0.354345, 39.487932]}, "properties": {}}, {"type": "Feature", "geometry": {"type": "Point", "coordinates": [31.524481, 40.718067]}, "properties": {}}, {"type": "Feature", "geometry": {"type": "Point", "coordinates": [-117.149033, 32.727712]}, "properties": {}}, {"type": "Feature", "geometry": {"type": "Point", "coordinates": [-122.269914, 37.835071]}, "properties": {}}, {"type": "Feature", "geometry": {"type": "Point", "coordinates": [4.35, 51.95]}, "properties": {}}, {"type": "Feature", "geometry": {"type": "Point", "coordinates": [-1.90577, 42.988805]}, "properties": {}}, {"type": "Feature", "geometry": {"type": "Point", "coordinates": [-121.877864, 37.333549]}, "properties": {}}, {"type": "Feature", "geometry": {"type": "Point", "coordinates": [-122.780444, 38.08352]}, "properties": {}}, {"type": "Feature", "geometry": {"type": "Point", "coordinates": [-1.90528, 42.985071]}, "properties": {}}, {"type": "Feature", "geometry": {"type": "Point", "coordinates": [9.410058, 45.860262]}, "properties": {}}, {"type": "Feature", "geometry": {"type": "Point", "coordinates": [-2.676354, 42.841013]}, "properties": {}}, {"type": "Feature", "geometry": {"type": "Point", "coordinates": [-1.90517, 42.988842]}, "properties": {}}, {"type": "Feature", "geometry": {"type": "Point", "coordinates": [-1.905614, 42.987352]}, "properties": {}}, {"type": "Feature", "geometry": {"type": "Point", "coordinates": [-1.905137, 42.98874]}, "properties": {}}, {"type": "Feature", "geometry": {"type": "Point", "coordinates": [-3.053918, 55.941941]}, "properties": {}}, {"type": "Feature", "geometry": {"type": "Point", "coordinates": [-1.905185, 42.988906]}, "properties": {}}, {"type": "Feature", "geometry": {"type": "Point", "coordinates": [-1.905135, 42.988842]}, "properties": {}}, {"type": "Feature", "geometry": {"type": "Point", "coordinates": [-1.905262, 42.988863]}, "properties": {}}, {"type": "Feature", "geometry": {"type": "Point", "coordinates": [-1.905195, 42.988903]}, "properties": {}}, {"type": "Feature", "geometry": {"type": "Point", "coordinates": [-1.905187, 42.988792]}, "properties": {}}, {"type": "Feature", "geometry": {"type": "Point", "coordinates": [-67.604073, -54.93742]}, "properties": {}}, {"type": "Feature", "geometry": {"type": "Point", "coordinates": [-118.012486, 33.719278]}, "properties": {}}, {"type": "Feature", "geometry": {"type": "Point", "coordinates": [-1.632003, 42.756728]}, "properties": {}}, {"type": "Feature", "geometry": {"type": "Point", "coordinates": [0.916774, 51.885328]}, "properties": {}}, {"type": "Feature", "geometry": {"type": "Point", "coordinates": [3.08587, 51.14977]}, "properties": {}}, {"type": "Feature", "geometry": {"type": "Point", "coordinates": [1.40368, 52.70116]}, "properties": {}}, {"type": "Feature", "geometry": {"type": "Point", "coordinates": [0.721431, 52.086792]}, "properties": {}}, {"type": "Feature", "geometry": {"type": "Point", "coordinates": [1.218286, 52.944276]}, "properties": {}}, {"type": "Feature", "geometry": {"type": "Point", "coordinates": [-2.980195, 53.387342]}, "properties": {}}, {"type": "Feature", "geometry": {"type": "Point", "coordinates": [-2.981027, 53.447422]}, "properties": {}}, {"type": "Feature", "geometry": {"type": "Point", "coordinates": [-0.800394, 50.727792]}, "properties": {}}, {"type": "Feature", "geometry": {"type": "Point", "coordinates": [1.39681, 51.326815]}, "properties": {}}, {"type": "Feature", "geometry": {"type": "Point", "coordinates": [-1.905095, 42.988787]}, "properties": {}}, {"type": "Feature", "geometry": {"type": "Point", "coordinates": [-0.230024, 44.848483]}, "properties": {}}, {"type": "Feature", "geometry": {"type": "Point", "coordinates": [-4.734628, 41.669533]}, "properties": {}}, {"type": "Feature", "geometry": {"type": "Point", "coordinates": [7.097063, 43.623952]}, "properties": {}}, {"type": "Feature", "geometry": {"type": "Point", "coordinates": [-121.859578, 39.739762]}, "properties": {}}, {"type": "Feature", "geometry": {"type": "Point", "coordinates": [-78.373069, -0.224702]}, "properties": {}}, {"type": "Feature", "geometry": {"type": "Point", "coordinates": [87.661946, 23.675955]}, "properties": {}}, {"type": "Feature", "geometry": {"type": "Point", "coordinates": [-99.5578, 20.501902]}, "properties": {}}, {"type": "Feature", "geometry": {"type": "Point", "coordinates": [-121.752754, 38.568859]}, "properties": {}}, {"type": "Feature", "geometry": {"type": "Point", "coordinates": [-72.458152, -51.706372]}, "properties": {}}, {"type": "Feature", "geometry": {"type": "Point", "coordinates": [-121.79895, 37.229783]}, "properties": {}}, {"type": "Feature", "geometry": {"type": "Point", "coordinates": [-100.449631, 20.636525]}, "properties": {}}, {"type": "Feature", "geometry": {"type": "Point", "coordinates": [172.65946, -43.530481]}, "properties": {}}, {"type": "Feature", "geometry": {"type": "Point", "coordinates": [-72.458152, -51.706366]}, "properties": {}}, {"type": "Feature", "geometry": {"type": "Point", "coordinates": [-121.799217, 37.228275]}, "properties": {}}, {"type": "Feature", "geometry": {"type": "Point", "coordinates": [3.866757, 43.632086]}, "properties": {}}, {"type": "Feature", "geometry": {"type": "Point", "coordinates": [-121.877691, 37.33368]}, "properties": {}}, {"type": "Feature", "geometry": {"type": "Point", "coordinates": [-72.50847, -39.821755]}, "properties": {}}, {"type": "Feature", "geometry": {"type": "Point", "coordinates": [-78.372204, -0.22497]}, "properties": {}}, {"type": "Feature", "geometry": {"type": "Point", "coordinates": [87.674058, 23.679397]}, "properties": {}}, {"type": "Feature", "geometry": {"type": "Point", "coordinates": [77.178571, 28.594716]}, "properties": {}}, {"type": "Feature", "geometry": {"type": "Point", "coordinates": [-116.434591, 34.104074]}, "properties": {}}, {"type": "Feature", "geometry": {"type": "Point", "coordinates": [-117.298811, 33.609585]}, "properties": {}}, {"type": "Feature", "geometry": {"type": "Point", "coordinates": [-78.372534, -0.225663]}, "properties": {}}, {"type": "Feature", "geometry": {"type": "Point", "coordinates": [173.705204, -42.414687]}, "properties": {}}, {"type": "Feature", "geometry": {"type": "Point", "coordinates": [-2.959808, 53.375133]}, "properties": {}}, {"type": "Feature", "geometry": {"type": "Point", "coordinates": [6.829688, 62.354192]}, "properties": {}}, {"type": "Feature", "geometry": {"type": "Point", "coordinates": [4.25, 52.05]}, "properties": {}}, {"type": "Feature", "geometry": {"type": "Point", "coordinates": [3.54971, 51.17167]}, "properties": {}}, {"type": "Feature", "geometry": {"type": "Point", "coordinates": [4.8579, 50.98211]}, "properties": {}}, {"type": "Feature", "geometry": {"type": "Point", "coordinates": [3.23826, 51.27737]}, "properties": {}}, {"type": "Feature", "geometry": {"type": "Point", "coordinates": [3.18823, 50.91235]}, "properties": {}}, {"type": "Feature", "geometry": {"type": "Point", "coordinates": [172.581048, -43.520849]}, "properties": {}}, {"type": "Feature", "geometry": {"type": "Point", "coordinates": [0.263855, 52.405511]}, "properties": {}}, {"type": "Feature", "geometry": {"type": "Point", "coordinates": [-28.042489, 38.413633]}, "properties": {}}, {"type": "Feature", "geometry": {"type": "Point", "coordinates": [174.822839, -36.862257]}, "properties": {}}, {"type": "Feature", "geometry": {"type": "Point", "coordinates": [4.386559, 50.865161]}, "properties": {}}, {"type": "Feature", "geometry": {"type": "Point", "coordinates": [-99.098584, 19.290794]}, "properties": {}}, {"type": "Feature", "geometry": {"type": "Point", "coordinates": [-118.287712, 34.016773]}, "properties": {}}, {"type": "Feature", "geometry": {"type": "Point", "coordinates": [0.09422, 42.41602]}, "properties": {}}, {"type": "Feature", "geometry": {"type": "Point", "coordinates": [2.397372, 48.862248]}, "properties": {}}, {"type": "Feature", "geometry": {"type": "Point", "coordinates": [172.733108, -43.525341]}, "properties": {}}, {"type": "Feature", "geometry": {"type": "Point", "coordinates": [-72.504309, -51.728579]}, "properties": {}}, {"type": "Feature", "geometry": {"type": "Point", "coordinates": [-0.073064, 51.48245]}, "properties": {}}, {"type": "Feature", "geometry": {"type": "Point", "coordinates": [3.863063, 43.633206]}, "properties": {}}, {"type": "Feature", "geometry": {"type": "Point", "coordinates": [6.165757, 48.677021]}, "properties": {}}, {"type": "Feature", "geometry": {"type": "Point", "coordinates": [0.795741, 51.530833]}, "properties": {}}, {"type": "Feature", "geometry": {"type": "Point", "coordinates": [5.88609, 43.753703]}, "properties": {}}, {"type": "Feature", "geometry": {"type": "Point", "coordinates": [5.001194, 52.349754]}, "properties": {}}, {"type": "Feature", "geometry": {"type": "Point", "coordinates": [14.289435, 37.569326]}, "properties": {}}, {"type": "Feature", "geometry": {"type": "Point", "coordinates": [3.45427, 50.81189]}, "properties": {}}, {"type": "Feature", "geometry": {"type": "Point", "coordinates": [3.30962, 51.1619]}, "properties": {}}, {"type": "Feature", "geometry": {"type": "Point", "coordinates": [4.45139, 50.92799]}, "properties": {}}, {"type": "Feature", "geometry": {"type": "Point", "coordinates": [4.3, 52.05]}, "properties": {}}, {"type": "Feature", "geometry": {"type": "Point", "coordinates": [-17.767038, 28.629118]}, "properties": {}}, {"type": "Feature", "geometry": {"type": "Point", "coordinates": [6.8, 52.2]}, "properties": {}}, {"type": "Feature", "geometry": {"type": "Point", "coordinates": [5.15, 52.05]}, "properties": {}}, {"type": "Feature", "geometry": {"type": "Point", "coordinates": [3.95, 51.35]}, "properties": {}}, {"type": "Feature", "geometry": {"type": "Point", "coordinates": [4.4, 52.15]}, "properties": {}}, {"type": "Feature", "geometry": {"type": "Point", "coordinates": [3.11146, 51.31162]}, "properties": {}}, {"type": "Feature", "geometry": {"type": "Point", "coordinates": [2.95785, 51.03446]}, "properties": {}}, {"type": "Feature", "geometry": {"type": "Point", "coordinates": [4.28777, 50.83721]}, "properties": {}}, {"type": "Feature", "geometry": {"type": "Point", "coordinates": [3.86085, 43.633224]}, "properties": {}}, {"type": "Feature", "geometry": {"type": "Point", "coordinates": [-2.982811, 42.798044]}, "properties": {}}, {"type": "Feature", "geometry": {"type": "Point", "coordinates": [-9.33251, 38.690588]}, "properties": {}}, {"type": "Feature", "geometry": {"type": "Point", "coordinates": [-121.73217, 36.62727]}, "properties": {}}, {"type": "Feature", "geometry": {"type": "Point", "coordinates": [41.743982, 36.465637]}, "properties": {}}, {"type": "Feature", "geometry": {"type": "Point", "coordinates": [-122.512345, 37.55943]}, "properties": {}}, {"type": "Feature", "geometry": {"type": "Point", "coordinates": [9.411397, 45.67905]}, "properties": {}}, {"type": "Feature", "geometry": {"type": "Point", "coordinates": [-3.3547, 40.478964]}, "properties": {}}, {"type": "Feature", "geometry": {"type": "Point", "coordinates": [-2.469187, 36.84203]}, "properties": {}}, {"type": "Feature", "geometry": {"type": "Point", "coordinates": [-2.469107, 36.842018]}, "properties": {}}, {"type": "Feature", "geometry": {"type": "Point", "coordinates": [-123.108514, 49.22567]}, "properties": {}}, {"type": "Feature", "geometry": {"type": "Point", "coordinates": [-4.230687, 51.129263]}, "properties": {}}, {"type": "Feature", "geometry": {"type": "Point", "coordinates": [-99.193991, 19.324354]}, "properties": {}}, {"type": "Feature", "geometry": {"type": "Point", "coordinates": [-99.138574, 19.512818]}, "properties": {}}, {"type": "Feature", "geometry": {"type": "Point", "coordinates": [0.887717, 51.311817]}, "properties": {}}, {"type": "Feature", "geometry": {"type": "Point", "coordinates": [-121.927897, 36.988415]}, "properties": {}}, {"type": "Feature", "geometry": {"type": "Point", "coordinates": [-123.099914, 49.262312]}, "properties": {}}, {"type": "Feature", "geometry": {"type": "Point", "coordinates": [-4.084795, 52.411963]}, "properties": {}}, {"type": "Feature", "geometry": {"type": "Point", "coordinates": [-1.158597, 53.929164]}, "properties": {}}, {"type": "Feature", "geometry": {"type": "Point", "coordinates": [3.869098, 43.631191]}, "properties": {}}, {"type": "Feature", "geometry": {"type": "Point", "coordinates": [-4.238344, 43.34672]}, "properties": {}}, {"type": "Feature", "geometry": {"type": "Point", "coordinates": [-122.880323, 38.686299]}, "properties": {}}, {"type": "Feature", "geometry": {"type": "Point", "coordinates": [-123.400094, 48.436214]}, "properties": {}}, {"type": "Feature", "geometry": {"type": "Point", "coordinates": [3.860785, 43.63319]}, "properties": {}}, {"type": "Feature", "geometry": {"type": "Point", "coordinates": [-2.641507, 42.722783]}, "properties": {}}, {"type": "Feature", "geometry": {"type": "Point", "coordinates": [1.149335, 51.784668]}, "properties": {}}, {"type": "Feature", "geometry": {"type": "Point", "coordinates": [4.25, 52.05]}, "properties": {}}, {"type": "Feature", "geometry": {"type": "Point", "coordinates": [5.65, 51.95]}, "properties": {}}, {"type": "Feature", "geometry": {"type": "Point", "coordinates": [4.25, 52.05]}, "properties": {}}, {"type": "Feature", "geometry": {"type": "Point", "coordinates": [4.2, 52.05]}, "properties": {}}, {"type": "Feature", "geometry": {"type": "Point", "coordinates": [24.965822, 35.136829]}, "properties": {}}, {"type": "Feature", "geometry": {"type": "Point", "coordinates": [4.446039, 50.855448]}, "properties": {}}, {"type": "Feature", "geometry": {"type": "Point", "coordinates": [6.550497, 46.620694]}, "properties": {}}, {"type": "Feature", "geometry": {"type": "Point", "coordinates": [16.792112, 47.96138]}, "properties": {}}, {"type": "Feature", "geometry": {"type": "Point", "coordinates": [15.235425, 44.144607]}, "properties": {}}, {"type": "Feature", "geometry": {"type": "Point", "coordinates": [4.44603, 50.85544]}, "properties": {}}, {"type": "Feature", "geometry": {"type": "Point", "coordinates": [-120.743858, 38.546635]}, "properties": {}}, {"type": "Feature", "geometry": {"type": "Point", "coordinates": [-8.608176, 40.638531]}, "properties": {}}, {"type": "Feature", "geometry": {"type": "Point", "coordinates": [-95.529755, 29.490153]}, "properties": {}}, {"type": "Feature", "geometry": {"type": "Point", "coordinates": [2.309645, 48.853779]}, "properties": {}}, {"type": "Feature", "geometry": {"type": "Point", "coordinates": [2.362622, 48.843955]}, "properties": {}}, {"type": "Feature", "geometry": {"type": "Point", "coordinates": [32.073711, 41.283113]}, "properties": {}}, {"type": "Feature", "geometry": {"type": "Point", "coordinates": [8.013432, 49.213288]}, "properties": {}}, {"type": "Feature", "geometry": {"type": "Point", "coordinates": [-3.16748, 51.468147]}, "properties": {}}, {"type": "Feature", "geometry": {"type": "Point", "coordinates": [-40.495278, -10.826944]}, "properties": {}}, {"type": "Feature", "geometry": {"type": "Point", "coordinates": [1.447521, 50.103846]}, "properties": {}}, {"type": "Feature", "geometry": {"type": "Point", "coordinates": [-123.288616, 44.559869]}, "properties": {}}, {"type": "Feature", "geometry": {"type": "Point", "coordinates": [4.35, 51.95]}, "properties": {}}, {"type": "Feature", "geometry": {"type": "Point", "coordinates": [4.4, 52.15]}, "properties": {}}, {"type": "Feature", "geometry": {"type": "Point", "coordinates": [5.9, 51.95]}, "properties": {}}, {"type": "Feature", "geometry": {"type": "Point", "coordinates": [4.32976, 51.35082]}, "properties": {}}, {"type": "Feature", "geometry": {"type": "Point", "coordinates": [4.85815, 50.98084]}, "properties": {}}, {"type": "Feature", "geometry": {"type": "Point", "coordinates": [4.53455, 51.19442]}, "properties": {}}, {"type": "Feature", "geometry": {"type": "Point", "coordinates": [3.75218, 50.99802]}, "properties": {}}, {"type": "Feature", "geometry": {"type": "Point", "coordinates": [3.31271, 51.18628]}, "properties": {}}, {"type": "Feature", "geometry": {"type": "Point", "coordinates": [3.31271, 51.18628]}, "properties": {}}, {"type": "Feature", "geometry": {"type": "Point", "coordinates": [3.10211, 51.30915]}, "properties": {}}, {"type": "Feature", "geometry": {"type": "Point", "coordinates": [4.90791, 50.97157]}, "properties": {}}, {"type": "Feature", "geometry": {"type": "Point", "coordinates": [4.28866, 51.01849]}, "properties": {}}, {"type": "Feature", "geometry": {"type": "Point", "coordinates": [4.4056, 51.16152]}, "properties": {}}, {"type": "Feature", "geometry": {"type": "Point", "coordinates": [-1.548282, 42.713085]}, "properties": {}}, {"type": "Feature", "geometry": {"type": "Point", "coordinates": [2.542491, 42.146415]}, "properties": {}}, {"type": "Feature", "geometry": {"type": "Point", "coordinates": [-71.321533, -41.131577]}, "properties": {}}, {"type": "Feature", "geometry": {"type": "Point", "coordinates": [-123.136283, 49.174808]}, "properties": {}}, {"type": "Feature", "geometry": {"type": "Point", "coordinates": [2.309348, 42.122203]}, "properties": {}}, {"type": "Feature", "geometry": {"type": "Point", "coordinates": [-5.400278, 43.205195]}, "properties": {}}, {"type": "Feature", "geometry": {"type": "Point", "coordinates": [0.957211, 41.347398]}, "properties": {}}, {"type": "Feature", "geometry": {"type": "Point", "coordinates": [-3.473854, 50.739407]}, "properties": {}}, {"type": "Feature", "geometry": {"type": "Point", "coordinates": [-2.974153, 48.7603]}, "properties": {}}, {"type": "Feature", "geometry": {"type": "Point", "coordinates": [168.663137, -45.028582]}, "properties": {}}, {"type": "Feature", "geometry": {"type": "Point", "coordinates": [-71.32158, -41.131614]}, "properties": {}}, {"type": "Feature", "geometry": {"type": "Point", "coordinates": [5.3, 52.0]}, "properties": {}}, {"type": "Feature", "geometry": {"type": "Point", "coordinates": [4.0, 51.4]}, "properties": {}}, {"type": "Feature", "geometry": {"type": "Point", "coordinates": [4.35, 51.95]}, "properties": {}}, {"type": "Feature", "geometry": {"type": "Point", "coordinates": [4.65, 51.75]}, "properties": {}}, {"type": "Feature", "geometry": {"type": "Point", "coordinates": [3.62919, 50.88439]}, "properties": {}}, {"type": "Feature", "geometry": {"type": "Point", "coordinates": [2.85486, 51.20474]}, "properties": {}}]}