{"type": "FeatureCollection", "name": "Cichorium intybus", "features": [{"type": "Feature", "geometry": {"type": "Point", "coordinates": [-57.519703, -35.086269]}, "properties": {}}, {"type": "Feature", "geometry": {"type": "Point", "coordinates": [41.485707, 50.070826]}, "properties": {}}, {"type": "Feature", "geometry": {"type": "Point", "coordinates": [41.576532, 50.117666]}, "properties": {}}, {"type": "Feature", "geometry": {"type": "Point", "coordinates": [175.584417, -37.981982]}, "properties": {}}, {"type": "Feature", "geometry": {"type": "Point", "coordinates": [142.351613, -37.871736]}, "properties": {}}, {"type": "Feature", "geometry": {"type": "Point", "coordinates": [144.97907, -37.700933]}, "properties": {}}, {"type": "Feature", "geometry": {"type": "Point", "coordinates": [27.548758, 45.096675]}, "properties": {}}, {"type": "Feature", "geometry": {"type": "Point", "coordinates": [19.849339, -34.130381]}, "properties": {}}, {"type": "Feature", "geometry": {"type": "Point", "coordinates": [10.959065, 52.157521]}, "properties": {}}, {"type": "Feature", "geometry": {"type": "Point", "coordinates": [41.496476, 49.893597]}, "properties": {}}, {"type": "Feature", "geometry": {"type": "Point", "coordinates": [41.45956, 49.943513]}, "properties": {}}, {"type": "Feature", "geometry": {"type": "Point", "coordinates": [42.671964, 50.548403]}, "properties": {}}, {"type": "Feature", "geometry": {"type": "Point", "coordinates": [19.897835, 54.645302]}, "properties": {}}, {"type": "Feature", "geometry": {"type": "Point", "coordinates": [172.583968, -43.549068]}, "properties": {}}, {"type": "Feature", "geometry": {"type": "Point", "coordinates": [41.478621, 49.903204]}, "properties": {}}, {"type": "Feature", "geometry": {"type": "Point", "coordinates": [145.531657, -36.366103]}, "properties": {}}, {"type": "Feature", "geometry": {"type": "Point", "coordinates": [-79.281598, 43.781198]}, "properties": {}}, {"type": "Feature", "geometry": {"type": "Point", "coordinates": [46.428817, 55.495576]}, "properties": {}}, {"type": "Feature", "geometry": {"type": "Point", "coordinates": [42.208473, 50.241627]}, "properties": {}}, {"type": "Feature", "geometry": {"type": "Point", "coordinates": [-176.538125, -43.854683]}, "properties": {}}, {"type": "Feature", "geometry": {"type": "Point", "coordinates": [149.310547, -35.362388]}, "properties": {}}, {"type": "Feature", "geometry": {"type": "Point", "coordinates": [85.696983, 52.425637]}, "properties": {}}, {"type": "Feature", "geometry": {"type": "Point", "coordinates": [51.298676, 53.927475]}, "properties": {}}, {"type": "Feature", "geometry": {"type": "Point", "coordinates": [-73.148908, -40.570573]}, "properties": {}}, {"type": "Feature", "geometry": {"type": "Point", "coordinates": [41.484457, 50.055918]}, "properties": {}}, {"type": "Feature", "geometry": {"type": "Point", "coordinates": [85.787147, 52.894473]}, "properties": {}}, {"type": "Feature", "geometry": {"type": "Point", "coordinates": [16.4175, 56.585]}, "properties": {}}, {"type": "Feature", "geometry": {"type": "Point", "coordinates": [15.17907, 60.14754]}, "properties": {}}, {"type": "Feature", "geometry": {"type": "Point", "coordinates": [16.60667, 56.54444]}, "properties": {}}, {"type": "Feature", "geometry": {"type": "Point", "coordinates": [18.28202, 57.62928]}, "properties": {}}, {"type": "Feature", "geometry": {"type": "Point", "coordinates": [16.40964, 56.58248]}, "properties": {}}, {"type": "Feature", "geometry": {"type": "Point", "coordinates": [11.82853, 58.35259]}, "properties": {}}, {"type": "Feature", "geometry": {"type": "Point", "coordinates": [17.57299, 59.85007]}, "properties": {}}, {"type": "Feature", "geometry": {"type": "Point", "coordinates": [11.870421, 54.761568]}, "properties": {}}, {"type": "Feature", "geometry": {"type": "Point", "coordinates": [16.51489, 56.69706]}, "properties": {}}, {"type": "Feature", "geometry": {"type": "Point", "coordinates": [-58.864155, -34.675938]}, "properties": {}}, {"type": "Feature", "geometry": {"type": "Point", "coordinates": [41.749526, 50.12197]}, "properties": {}}, {"type": "Feature", "geometry": {"type": "Point", "coordinates": [41.833116, 50.127998]}, "properties": {}}, {"type": "Feature", "geometry": {"type": "Point", "coordinates": [15.856133, 46.871608]}, "properties": {}}, {"type": "Feature", "geometry": {"type": "Point", "coordinates": [-75.695555, 45.370187]}, "properties": {}}, {"type": "Feature", "geometry": {"type": "Point", "coordinates": [46.417939, 55.498381]}, "properties": {}}, {"type": "Feature", "geometry": {"type": "Point", "coordinates": [16.42687, 47.453968]}, "properties": {}}, {"type": "Feature", "geometry": {"type": "Point", "coordinates": [37.166603, 54.726932]}, "properties": {}}, {"type": "Feature", "geometry": {"type": "Point", "coordinates": [-122.242937, 38.175383]}, "properties": {}}, {"type": "Feature", "geometry": {"type": "Point", "coordinates": [-64.603616, -37.378759]}, "properties": {}}, {"type": "Feature", "geometry": {"type": "Point", "coordinates": [51.305836, 53.921659]}, "properties": {}}, {"type": "Feature", "geometry": {"type": "Point", "coordinates": [18.637712, -33.842975]}, "properties": {}}, {"type": "Feature", "geometry": {"type": "Point", "coordinates": [172.473386, -40.83125]}, "properties": {}}, {"type": "Feature", "geometry": {"type": "Point", "coordinates": [-70.411797, -33.586363]}, "properties": {}}, {"type": "Feature", "geometry": {"type": "Point", "coordinates": [-57.853855, -38.263665]}, "properties": {}}, {"type": "Feature", "geometry": {"type": "Point", "coordinates": [28.621303, -27.035111]}, "properties": {}}, {"type": "Feature", "geometry": {"type": "Point", "coordinates": [15.5233, 46.729952]}, "properties": {}}, {"type": "Feature", "geometry": {"type": "Point", "coordinates": [138.576586, -35.012924]}, "properties": {}}, {"type": "Feature", "geometry": {"type": "Point", "coordinates": [148.215129, -35.290536]}, "properties": {}}, {"type": "Feature", "geometry": {"type": "Point", "coordinates": [-58.442898, -34.538158]}, "properties": {}}, {"type": "Feature", "geometry": {"type": "Point", "coordinates": [139.124606, -35.361089]}, "properties": {}}, {"type": "Feature", "geometry": {"type": "Point", "coordinates": [-88.189339, 40.125336]}, "properties": {}}, {"type": "Feature", "geometry": {"type": "Point", "coordinates": [9.190209, 45.527185]}, "properties": {}}, {"type": "Feature", "geometry": {"type": "Point", "coordinates": [23.409326, -28.915898]}, "properties": {}}, {"type": "Feature", "geometry": {"type": "Point", "coordinates": [-58.409583, -32.1673]}, "properties": {}}, {"type": "Feature", "geometry": {"type": "Point", "coordinates": [15.639818, 46.923705]}, "properties": {}}, {"type": "Feature", "geometry": {"type": "Point", "coordinates": [-59.138137, -35.0872]}, "properties": {}}, {"type": "Feature", "geometry": {"type": "Point", "coordinates": [-58.443329, -34.536841]}, "properties": {}}, {"type": "Feature", "geometry": {"type": "Point", "coordinates": [175.288721, -40.687151]}, "properties": {}}, {"type": "Feature", "geometry": {"type": "Point", "coordinates": [140.505233, -35.962422]}, "properties": {}}, {"type": "Feature", "geometry": {"type": "Point", "coordinates": [-59.811067, -37.6852]}, "properties": {}}, {"type": "Feature", "geometry": {"type": "Point", "coordinates": [-59.825362, -36.778315]}, "properties": {}}, {"type": "Feature", "geometry": {"type": "Point", "coordinates": [-75.866991, 41.261287]}, "properties": {}}, {"type": "Feature", "geometry": {"type": "Point", "coordinates": [51.301283, 53.928719]}, "properties": {}}, {"type": "Feature", "geometry": {"type": "Point", "coordinates": [-70.629906, -34.031104]}, "properties": {}}, {"type": "Feature", "geometry": {"type": "Point", "coordinates": [-71.337385, -41.131752]}, "properties": {}}, {"type": "Feature", "geometry": {"type": "Point", "coordinates": [149.753596, -36.822211]}, "properties": {}}, {"type": "Feature", "geometry": {"type": "Point", "coordinates": [-61.927987, -37.475762]}, "properties": {}}, {"type": "Feature", "geometry": {"type": "Point", "coordinates": [147.067413, -36.893032]}, "properties": {}}, {"type": "Feature", "geometry": {"type": "Point", "coordinates": [-59.116831, -37.369784]}, "properties": {}}, {"type": "Feature", "geometry": {"type": "Point", "coordinates": [52.630464, 58.13911]}, "properties": {}}, {"type": "Feature", "geometry": {"type": "Point", "coordinates": [151.464718, -31.823743]}, "properties": {}}, {"type": "Feature", "geometry": {"type": "Point", "coordinates": [145.413014, -38.189196]}, "properties": {}}, {"type": "Feature", "geometry": {"type": "Point", "coordinates": [-75.552369, 40.190833]}, "properties": {}}, {"type": "Feature", "geometry": {"type": "Point", "coordinates": [-61.485737, -33.452248]}, "properties": {}}, {"type": "Feature", "geometry": {"type": "Point", "coordinates": [-71.682832, -37.752819]}, "properties": {}}, {"type": "Feature", "geometry": {"type": "Point", "coordinates": [148.906695, -34.839074]}, "properties": {}}, {"type": "Feature", "geometry": {"type": "Point", "coordinates": [-60.62608, -33.004058]}, "properties": {}}, {"type": "Feature", "geometry": {"type": "Point", "coordinates": [150.668624, -33.783335]}, "properties": {}}, {"type": "Feature", "geometry": {"type": "Point", "coordinates": [-121.43927, 38.265732]}, "properties": {}}, {"type": "Feature", "geometry": {"type": "Point", "coordinates": [23.943738, -31.414818]}, "properties": {}}, {"type": "Feature", "geometry": {"type": "Point", "coordinates": [176.358471, -37.815528]}, "properties": {}}, {"type": "Feature", "geometry": {"type": "Point", "coordinates": [49.982767, 53.549591]}, "properties": {}}, {"type": "Feature", "geometry": {"type": "Point", "coordinates": [173.281386, -41.263053]}, "properties": {}}, {"type": "Feature", "geometry": {"type": "Point", "coordinates": [174.721042, -36.819375]}, "properties": {}}, {"type": "Feature", "geometry": {"type": "Point", "coordinates": [51.246285, 53.958843]}, "properties": {}}, {"type": "Feature", "geometry": {"type": "Point", "coordinates": [149.828581, -36.672107]}, "properties": {}}, {"type": "Feature", "geometry": {"type": "Point", "coordinates": [175.168162, -40.653167]}, "properties": {}}, {"type": "Feature", "geometry": {"type": "Point", "coordinates": [37.999388, 55.921968]}, "properties": {}}, {"type": "Feature", "geometry": {"type": "Point", "coordinates": [-87.687155, 41.848387]}, "properties": {}}, {"type": "Feature", "geometry": {"type": "Point", "coordinates": [41.821668, 50.125377]}, "properties": {}}, {"type": "Feature", "geometry": {"type": "Point", "coordinates": [173.117512, -41.345376]}, "properties": {}}, {"type": "Feature", "geometry": {"type": "Point", "coordinates": [20.747301, -33.915692]}, "properties": {}}, {"type": "Feature", "geometry": {"type": "Point", "coordinates": [40.259408, 56.106607]}, "properties": {}}, {"type": "Feature", "geometry": {"type": "Point", "coordinates": [52.662163, 58.163535]}, "properties": {}}, {"type": "Feature", "geometry": {"type": "Point", "coordinates": [51.251705, 53.918388]}, "properties": {}}, {"type": "Feature", "geometry": {"type": "Point", "coordinates": [149.07348, -35.240928]}, "properties": {}}, {"type": "Feature", "geometry": {"type": "Point", "coordinates": [145.014072, -37.703422]}, "properties": {}}, {"type": "Feature", "geometry": {"type": "Point", "coordinates": [41.699219, 50.123491]}, "properties": {}}, {"type": "Feature", "geometry": {"type": "Point", "coordinates": [145.231773, -37.911332]}, "properties": {}}, {"type": "Feature", "geometry": {"type": "Point", "coordinates": [-58.444501, -34.53632]}, "properties": {}}, {"type": "Feature", "geometry": {"type": "Point", "coordinates": [-75.419428, 40.337672]}, "properties": {}}, {"type": "Feature", "geometry": {"type": "Point", "coordinates": [36.05617, 51.739351]}, "properties": {}}, {"type": "Feature", "geometry": {"type": "Point", "coordinates": [22.243344, -33.937744]}, "properties": {}}, {"type": "Feature", "geometry": {"type": "Point", "coordinates": [12.368056, 41.772484]}, "properties": {}}, {"type": "Feature", "geometry": {"type": "Point", "coordinates": [149.123168, -35.186491]}, "properties": {}}, {"type": "Feature", "geometry": {"type": "Point", "coordinates": [-105.04625, 40.516563]}, "properties": {}}, {"type": "Feature", "geometry": {"type": "Point", "coordinates": [-75.428616, 40.167278]}, "properties": {}}, {"type": "Feature", "geometry": {"type": "Point", "coordinates": [-8.478528, 39.454662]}, "properties": {}}, {"type": "Feature", "geometry": {"type": "Point", "coordinates": [-71.627637, -33.716732]}, "properties": {}}, {"type": "Feature", "geometry": {"type": "Point", "coordinates": [-54.243623, -34.633573]}, "properties": {}}, {"type": "Feature", "geometry": {"type": "Point", "coordinates": [41.72522, 50.118295]}, "properties": {}}, {"type": "Feature", "geometry": {"type": "Point", "coordinates": [-70.774474, -34.178627]}, "properties": {}}, {"type": "Feature", "geometry": {"type": "Point", "coordinates": [145.299511, -37.902546]}, "properties": {}}, {"type": "Feature", "geometry": {"type": "Point", "coordinates": [-75.419428, 40.337672]}, "properties": {}}, {"type": "Feature", "geometry": {"type": "Point", "coordinates": [147.598389, -37.813187]}, "properties": {}}, {"type": "Feature", "geometry": {"type": "Point", "coordinates": [174.901288, -41.234748]}, "properties": {}}, {"type": "Feature", "geometry": {"type": "Point", "coordinates": [-76.254753, 40.280181]}, "properties": {}}, {"type": "Feature", "geometry": {"type": "Point", "coordinates": [-71.440909, -32.505978]}, "properties": {}}, {"type": "Feature", "geometry": {"type": "Point", "coordinates": [36.053975, 51.737763]}, "properties": {}}, {"type": "Feature", "geometry": {"type": "Point", "coordinates": [41.312701, 49.850685]}, "properties": {}}, {"type": "Feature", "geometry": {"type": "Point", "coordinates": [41.518854, 50.074568]}, "properties": {}}, {"type": "Feature", "geometry": {"type": "Point", "coordinates": [144.904268, -37.688433]}, "properties": {}}, {"type": "Feature", "geometry": {"type": "Point", "coordinates": [-120.693567, 35.25048]}, "properties": {}}, {"type": "Feature", "geometry": {"type": "Point", "coordinates": [146.040263, -38.218765]}, "properties": {}}, {"type": "Feature", "geometry": {"type": "Point", "coordinates": [145.782897, -41.012967]}, "properties": {}}, {"type": "Feature", "geometry": {"type": "Point", "coordinates": [-73.892172, 42.610675]}, "properties": {}}, {"type": "Feature", "geometry": {"type": "Point", "coordinates": [-81.70288, 43.799733]}, "properties": {}}, {"type": "Feature", "geometry": {"type": "Point", "coordinates": [11.344329, 47.272215]}, "properties": {}}, {"type": "Feature", "geometry": {"type": "Point", "coordinates": [149.456437, -34.876797]}, "properties": {}}, {"type": "Feature", "geometry": {"type": "Point", "coordinates": [-83.680423, 42.534596]}, "properties": {}}, {"type": "Feature", "geometry": {"type": "Point", "coordinates": [16.83229, 59.04673]}, "properties": {}}, {"type": "Feature", "geometry": {"type": "Point", "coordinates": [146.419739, -36.675701]}, "properties": {}}, {"type": "Feature", "geometry": {"type": "Point", "coordinates": [-121.73565, 36.827275]}, "properties": {}}, {"type": "Feature", "geometry": {"type": "Point", "coordinates": [146.557908, -38.064956]}, "properties": {}}, {"type": "Feature", "geometry": {"type": "Point", "coordinates": [-59.00781, -33.033956]}, "properties": {}}, {"type": "Feature", "geometry": {"type": "Point", "coordinates": [-0.018316, 51.595951]}, "properties": {}}, {"type": "Feature", "geometry": {"type": "Point", "coordinates": [145.047113, -37.634978]}, "properties": {}}, {"type": "Feature", "geometry": {"type": "Point", "coordinates": [16.765368, 48.024797]}, "properties": {}}, {"type": "Feature", "geometry": {"type": "Point", "coordinates": [151.459186, -29.640921]}, "properties": {}}, {"type": "Feature", "geometry": {"type": "Point", "coordinates": [8.284513, 49.493305]}, "properties": {}}, {"type": "Feature", "geometry": {"type": "Point", "coordinates": [142.82948, -38.573525]}, "properties": {}}, {"type": "Feature", "geometry": {"type": "Point", "coordinates": [-0.086353, 51.595078]}, "properties": {}}, {"type": "Feature", "geometry": {"type": "Point", "coordinates": [146.419739, -36.675701]}, "properties": {}}, {"type": "Feature", "geometry": {"type": "Point", "coordinates": [29.801741, -29.332271]}, "properties": {}}, {"type": "Feature", "geometry": {"type": "Point", "coordinates": [-58.098495, -33.374805]}, "properties": {}}, {"type": "Feature", "geometry": {"type": "Point", "coordinates": [145.077556, -37.664937]}, "properties": {}}, {"type": "Feature", "geometry": {"type": "Point", "coordinates": [-58.069952, -34.8683]}, "properties": {}}, {"type": "Feature", "geometry": {"type": "Point", "coordinates": [138.895177, -35.2597]}, "properties": {}}, {"type": "Feature", "geometry": {"type": "Point", "coordinates": [61.511758, 55.167594]}, "properties": {}}, {"type": "Feature", "geometry": {"type": "Point", "coordinates": [51.251415, 53.915031]}, "properties": {}}, {"type": "Feature", "geometry": {"type": "Point", "coordinates": [174.862367, -36.846663]}, "properties": {}}, {"type": "Feature", "geometry": {"type": "Point", "coordinates": [61.492715, 55.176707]}, "properties": {}}, {"type": "Feature", "geometry": {"type": "Point", "coordinates": [5.55, 52.0]}, "properties": {}}, {"type": "Feature", "geometry": {"type": "Point", "coordinates": [6.1, 53.1]}, "properties": {}}, {"type": "Feature", "geometry": {"type": "Point", "coordinates": [3.9, 51.7]}, "properties": {}}, {"type": "Feature", "geometry": {"type": "Point", "coordinates": [6.0, 51.15]}, "properties": {}}, {"type": "Feature", "geometry": {"type": "Point", "coordinates": [5.0, 52.05]}, "properties": {}}, {"type": "Feature", "geometry": {"type": "Point", "coordinates": [4.65, 51.75]}, "properties": {}}, {"type": "Feature", "geometry": {"type": "Point", "coordinates": [5.65, 52.0]}, "properties": {}}, {"type": "Feature", "geometry": {"type": "Point", "coordinates": [5.65, 51.95]}, "properties": {}}, {"type": "Feature", "geometry": {"type": "Point", "coordinates": [6.25, 52.5]}, "properties": {}}, {"type": "Feature", "geometry": {"type": "Point", "coordinates": [4.4, 52.05]}, "properties": {}}, {"type": "Feature", "geometry": {"type": "Point", "coordinates": [174.057302, -39.560191]}, "properties": {}}, {"type": "Feature", "geometry": {"type": "Point", "coordinates": [-61.925919, -38.085166]}, "properties": {}}, {"type": "Feature", "geometry": {"type": "Point", "coordinates": [-71.030161, -34.71265]}, "properties": {}}, {"type": "Feature", "geometry": {"type": "Point", "coordinates": [26.796936, -32.058347]}, "properties": {}}, {"type": "Feature", "geometry": {"type": "Point", "coordinates": [-68.773767, -32.003411]}, "properties": {}}, {"type": "Feature", "geometry": {"type": "Point", "coordinates": [-58.100536, -34.831708]}, "properties": {}}, {"type": "Feature", "geometry": {"type": "Point", "coordinates": [-67.389758, -34.976406]}, "properties": {}}, {"type": "Feature", "geometry": {"type": "Point", "coordinates": [-63.94017, -36.179633]}, "properties": {}}, {"type": "Feature", "geometry": {"type": "Point", "coordinates": [-64.603616, -37.378759]}, "properties": {}}, {"type": "Feature", "geometry": {"type": "Point", "coordinates": [-72.094503, -39.339449]}, "properties": {}}, {"type": "Feature", "geometry": {"type": "Point", "coordinates": [-58.069373, -34.867102]}, "properties": {}}, {"type": "Feature", "geometry": {"type": "Point", "coordinates": [-111.929036, 40.962447]}, "properties": {}}, {"type": "Feature", "geometry": {"type": "Point", "coordinates": [26.102473, 52.111406]}, "properties": {}}, {"type": "Feature", "geometry": {"type": "Point", "coordinates": [-70.888668, -39.972807]}, "properties": {}}, {"type": "Feature", "geometry": {"type": "Point", "coordinates": [16.258518, 48.039448]}, "properties": {}}, {"type": "Feature", "geometry": {"type": "Point", "coordinates": [61.395389, 55.208733]}, "properties": {}}, {"type": "Feature", "geometry": {"type": "Point", "coordinates": [150.087472, -35.909583]}, "properties": {}}, {"type": "Feature", "geometry": {"type": "Point", "coordinates": [149.572483, -32.574803]}, "properties": {}}, {"type": "Feature", "geometry": {"type": "Point", "coordinates": [-61.924559, -37.475119]}, "properties": {}}, {"type": "Feature", "geometry": {"type": "Point", "coordinates": [175.096875, -38.073837]}, "properties": {}}, {"type": "Feature", "geometry": {"type": "Point", "coordinates": [17.57299, 59.85007]}, "properties": {}}, {"type": "Feature", "geometry": {"type": "Point", "coordinates": [16.4108, 56.58224]}, "properties": {}}, {"type": "Feature", "geometry": {"type": "Point", "coordinates": [11.82853, 58.35259]}, "properties": {}}, {"type": "Feature", "geometry": {"type": "Point", "coordinates": [-58.670608, -34.572407]}, "properties": {}}, {"type": "Feature", "geometry": {"type": "Point", "coordinates": [38.199927, 55.940558]}, "properties": {}}, {"type": "Feature", "geometry": {"type": "Point", "coordinates": [145.425968, -37.86306]}, "properties": {}}, {"type": "Feature", "geometry": {"type": "Point", "coordinates": [3.337016, 43.663077]}, "properties": {}}, {"type": "Feature", "geometry": {"type": "Point", "coordinates": [43.137758, 56.9803]}, "properties": {}}, {"type": "Feature", "geometry": {"type": "Point", "coordinates": [-73.078097, -36.809591]}, "properties": {}}, {"type": "Feature", "geometry": {"type": "Point", "coordinates": [43.135631, 56.981236]}, "properties": {}}, {"type": "Feature", "geometry": {"type": "Point", "coordinates": [18.474298, 54.475032]}, "properties": {}}, {"type": "Feature", "geometry": {"type": "Point", "coordinates": [149.733553, -34.749696]}, "properties": {}}, {"type": "Feature", "geometry": {"type": "Point", "coordinates": [61.476681, 55.181192]}, "properties": {}}, {"type": "Feature", "geometry": {"type": "Point", "coordinates": [51.237529, 53.973162]}, "properties": {}}, {"type": "Feature", "geometry": {"type": "Point", "coordinates": [146.980893, -36.726886]}, "properties": {}}, {"type": "Feature", "geometry": {"type": "Point", "coordinates": [149.731937, -34.75061]}, "properties": {}}, {"type": "Feature", "geometry": {"type": "Point", "coordinates": [38.103199, 55.913881]}, "properties": {}}, {"type": "Feature", "geometry": {"type": "Point", "coordinates": [5.65, 53.25]}, "properties": {}}, {"type": "Feature", "geometry": {"type": "Point", "coordinates": [4.95, 52.35]}, "properties": {}}, {"type": "Feature", "geometry": {"type": "Point", "coordinates": [145.983204, -41.377406]}, "properties": {}}, {"type": "Feature", "geometry": {"type": "Point", "coordinates": [-70.596458, -33.643178]}, "properties": {}}, {"type": "Feature", "geometry": {"type": "Point", "coordinates": [-70.518288, -33.354223]}, "properties": {}}, {"type": "Feature", "geometry": {"type": "Point", "coordinates": [-57.247885, -35.273318]}, "properties": {}}, {"type": "Feature", "geometry": {"type": "Point", "coordinates": [-80.792999, 35.045514]}, "properties": {}}, {"type": "Feature", "geometry": {"type": "Point", "coordinates": [-57.923199, -34.900897]}, "properties": {}}, {"type": "Feature", "geometry": {"type": "Point", "coordinates": [-79.258424, 43.760559]}, "properties": {}}, {"type": "Feature", "geometry": {"type": "Point", "coordinates": [-75.61009, 40.19663]}, "properties": {}}, {"type": "Feature", "geometry": {"type": "Point", "coordinates": [144.20244, -37.078033]}, "properties": {}}, {"type": "Feature", "geometry": {"type": "Point", "coordinates": [-119.884392, 39.505697]}, "properties": {}}, {"type": "Feature", "geometry": {"type": "Point", "coordinates": [-70.554797, -40.410883]}, "properties": {}}, {"type": "Feature", "geometry": {"type": "Point", "coordinates": [144.880386, -37.866013]}, "properties": {}}, {"type": "Feature", "geometry": {"type": "Point", "coordinates": [16.470815, 48.200476]}, "properties": {}}, {"type": "Feature", "geometry": {"type": "Point", "coordinates": [172.569412, -43.44133]}, "properties": {}}, {"type": "Feature", "geometry": {"type": "Point", "coordinates": [175.762865, -40.298241]}, "properties": {}}, {"type": "Feature", "geometry": {"type": "Point", "coordinates": [-58.417538, -33.876117]}, "properties": {}}, {"type": "Feature", "geometry": {"type": "Point", "coordinates": [16.937522, 48.010422]}, "properties": {}}, {"type": "Feature", "geometry": {"type": "Point", "coordinates": [3.925213, 43.593778]}, "properties": {}}, {"type": "Feature", "geometry": {"type": "Point", "coordinates": [-72.223862, -39.281212]}, "properties": {}}, {"type": "Feature", "geometry": {"type": "Point", "coordinates": [-71.557002, -36.169581]}, "properties": {}}, {"type": "Feature", "geometry": {"type": "Point", "coordinates": [51.237073, 53.97255]}, "properties": {}}, {"type": "Feature", "geometry": {"type": "Point", "coordinates": [174.855422, -41.134578]}, "properties": {}}, {"type": "Feature", "geometry": {"type": "Point", "coordinates": [172.766934, -40.88376]}, "properties": {}}, {"type": "Feature", "geometry": {"type": "Point", "coordinates": [151.544808, -32.695614]}, "properties": {}}, {"type": "Feature", "geometry": {"type": "Point", "coordinates": [175.527742, -37.331128]}, "properties": {}}, {"type": "Feature", "geometry": {"type": "Point", "coordinates": [145.216374, -37.834454]}, "properties": {}}, {"type": "Feature", "geometry": {"type": "Point", "coordinates": [51.223776, 53.949003]}, "properties": {}}, {"type": "Feature", "geometry": {"type": "Point", "coordinates": [16.481278, 48.210556]}, "properties": {}}, {"type": "Feature", "geometry": {"type": "Point", "coordinates": [150.856979, -33.967165]}, "properties": {}}, {"type": "Feature", "geometry": {"type": "Point", "coordinates": [144.994322, -37.712388]}, "properties": {}}, {"type": "Feature", "geometry": {"type": "Point", "coordinates": [26.878302, -32.720826]}, "properties": {}}, {"type": "Feature", "geometry": {"type": "Point", "coordinates": [-68.023906, -38.91616]}, "properties": {}}, {"type": "Feature", "geometry": {"type": "Point", "coordinates": [19.937565, 54.495308]}, "properties": {}}, {"type": "Feature", "geometry": {"type": "Point", "coordinates": [51.296672, 53.927118]}, "properties": {}}, {"type": "Feature", "geometry": {"type": "Point", "coordinates": [30.426445, 50.436062]}, "properties": {}}, {"type": "Feature", "geometry": {"type": "Point", "coordinates": [-75.620502, 40.22784]}, "properties": {}}, {"type": "Feature", "geometry": {"type": "Point", "coordinates": [29.383395, -26.834205]}, "properties": {}}, {"type": "Feature", "geometry": {"type": "Point", "coordinates": [-79.776459, 43.787302]}, "properties": {}}, {"type": "Feature", "geometry": {"type": "Point", "coordinates": [173.265273, -41.282552]}, "properties": {}}, {"type": "Feature", "geometry": {"type": "Point", "coordinates": [51.303045, 53.916748]}, "properties": {}}, {"type": "Feature", "geometry": {"type": "Point", "coordinates": [49.987877, 53.541026]}, "properties": {}}, {"type": "Feature", "geometry": {"type": "Point", "coordinates": [-56.343397, -34.666398]}, "properties": {}}, {"type": "Feature", "geometry": {"type": "Point", "coordinates": [16.95156, 48.14499]}, "properties": {}}, {"type": "Feature", "geometry": {"type": "Point", "coordinates": [-73.155418, -40.328438]}, "properties": {}}, {"type": "Feature", "geometry": {"type": "Point", "coordinates": [33.729882, 53.225252]}, "properties": {}}, {"type": "Feature", "geometry": {"type": "Point", "coordinates": [138.898329, -35.259544]}, "properties": {}}, {"type": "Feature", "geometry": {"type": "Point", "coordinates": [16.426598, 48.24175]}, "properties": {}}, {"type": "Feature", "geometry": {"type": "Point", "coordinates": [148.257332, -35.373259]}, "properties": {}}, {"type": "Feature", "geometry": {"type": "Point", "coordinates": [51.000692, 53.873864]}, "properties": {}}, {"type": "Feature", "geometry": {"type": "Point", "coordinates": [-79.778157, 43.751601]}, "properties": {}}, {"type": "Feature", "geometry": {"type": "Point", "coordinates": [-75.625597, 40.404898]}, "properties": {}}, {"type": "Feature", "geometry": {"type": "Point", "coordinates": [-9.315651, 39.355655]}, "properties": {}}, {"type": "Feature", "geometry": {"type": "Point", "coordinates": [-75.620502, 40.22784]}, "properties": {}}, {"type": "Feature", "geometry": {"type": "Point", "coordinates": [-122.560824, 45.498492]}, "properties": {}}, {"type": "Feature", "geometry": {"type": "Point", "coordinates": [58.621602, 53.792013]}, "properties": {}}, {"type": "Feature", "geometry": {"type": "Point", "coordinates": [26.264, 50.519215]}, "properties": {}}, {"type": "Feature", "geometry": {"type": "Point", "coordinates": [60.540157, 55.719529]}, "properties": {}}, {"type": "Feature", "geometry": {"type": "Point", "coordinates": [-119.40905, 50.88477]}, "properties": {}}, {"type": "Feature", "geometry": {"type": "Point", "coordinates": [-75.625597, 40.404898]}, "properties": {}}, {"type": "Feature", "geometry": {"type": "Point", "coordinates": [16.453953, 48.221064]}, "properties": {}}, {"type": "Feature", "geometry": {"type": "Point", "coordinates": [5.55, 51.95]}, "properties": {}}, {"type": "Feature", "geometry": {"type": "Point", "coordinates": [4.95, 51.55]}, "properties": {}}, {"type": "Feature", "geometry": {"type": "Point", "coordinates": [6.35, 52.1]}, "properties": {}}, {"type": "Feature", "geometry": {"type": "Point", "coordinates": [5.65, 53.2]}, "properties": {}}, {"type": "Feature", "geometry": {"type": "Point", "coordinates": [-58.773323, -34.315544]}, "properties": {}}, {"type": "Feature", "geometry": {"type": "Point", "coordinates": [16.855813, 47.990318]}, "properties": {}}, {"type": "Feature", "geometry": {"type": "Point", "coordinates": [28.267156, -25.881182]}, "properties": {}}, {"type": "Feature", "geometry": {"type": "Point", "coordinates": [-58.742441, -34.686551]}, "properties": {}}, {"type": "Feature", "geometry": {"type": "Point", "coordinates": [30.721338, 46.574478]}, "properties": {}}, {"type": "Feature", "geometry": {"type": "Point", "coordinates": [50.002459, 53.552574]}, "properties": {}}, {"type": "Feature", "geometry": {"type": "Point", "coordinates": [51.085873, 53.91381]}, "properties": {}}, {"type": "Feature", "geometry": {"type": "Point", "coordinates": [148.454071, -37.685905]}, "properties": {}}, {"type": "Feature", "geometry": {"type": "Point", "coordinates": [5.378312, 43.299431]}, "properties": {}}, {"type": "Feature", "geometry": {"type": "Point", "coordinates": [-71.508883, -33.039755]}, "properties": {}}, {"type": "Feature", "geometry": {"type": "Point", "coordinates": [150.611999, -34.16828]}, "properties": {}}, {"type": "Feature", "geometry": {"type": "Point", "coordinates": [-74.420199, 40.727999]}, "properties": {}}, {"type": "Feature", "geometry": {"type": "Point", "coordinates": [-58.614547, -34.626067]}, "properties": {}}, {"type": "Feature", "geometry": {"type": "Point", "coordinates": [-122.263237, 38.160556]}, "properties": {}}, {"type": "Feature", "geometry": {"type": "Point", "coordinates": [50.992003, 53.867857]}, "properties": {}}, {"type": "Feature", "geometry": {"type": "Point", "coordinates": [148.419617, -37.706903]}, "properties": {}}, {"type": "Feature", "geometry": {"type": "Point", "coordinates": [146.332747, -38.316525]}, "properties": {}}, {"type": "Feature", "geometry": {"type": "Point", "coordinates": [-55.038905, -34.665576]}, "properties": {}}, {"type": "Feature", "geometry": {"type": "Point", "coordinates": [-58.670559, -34.572419]}, "properties": {}}, {"type": "Feature", "geometry": {"type": "Point", "coordinates": [175.106692, -38.258588]}, "properties": {}}, {"type": "Feature", "geometry": {"type": "Point", "coordinates": [-121.733598, 36.817369]}, "properties": {}}, {"type": "Feature", "geometry": {"type": "Point", "coordinates": [50.987464, 53.864524]}, "properties": {}}, {"type": "Feature", "geometry": {"type": "Point", "coordinates": [-0.771021, 50.853927]}, "properties": {}}, {"type": "Feature", "geometry": {"type": "Point", "coordinates": [-79.258424, 43.760559]}, "properties": {}}, {"type": "Feature", "geometry": {"type": "Point", "coordinates": [-71.417122, -36.264305]}, "properties": {}}, {"type": "Feature", "geometry": {"type": "Point", "coordinates": [-73.225738, -39.839042]}, "properties": {}}, {"type": "Feature", "geometry": {"type": "Point", "coordinates": [-122.478944, 38.168051]}, "properties": {}}, {"type": "Feature", "geometry": {"type": "Point", "coordinates": [-72.795738, -36.127132]}, "properties": {}}, {"type": "Feature", "geometry": {"type": "Point", "coordinates": [174.859683, -41.132344]}, "properties": {}}]}