{"type": "FeatureCollection", "name": "Dictamnus albus", "features": [{"type": "Feature", "geometry": {"type": "Point", "coordinates": [38.226253, 44.468183]}, "properties": {}}, {"type": "Feature", "geometry": {"type": "Point", "coordinates": [47.24733, 42.977338]}, "properties": {}}, {"type": "Feature", "geometry": {"type": "Point", "coordinates": [38.086808, 44.580549]}, "properties": {}}, {"type": "Feature", "geometry": {"type": "Point", "coordinates": [18.804435, 47.661547]}, "properties": {}}, {"type": "Feature", "geometry": {"type": "Point", "coordinates": [39.992833, 43.411728]}, "properties": {}}, {"type": "Feature", "geometry": {"type": "Point", "coordinates": [11.713216, 50.992791]}, "properties": {}}, {"type": "Feature", "geometry": {"type": "Point", "coordinates": [76.993208, 43.183819]}, "properties": {}}, {"type": "Feature", "geometry": {"type": "Point", "coordinates": [16.17998, 47.966678]}, "properties": {}}, {"type": "Feature", "geometry": {"type": "Point", "coordinates": [7.834969, 49.817219]}, "properties": {}}, {"type": "Feature", "geometry": {"type": "Point", "coordinates": [9.340322, 45.77995]}, "properties": {}}, {"type": "Feature", "geometry": {"type": "Point", "coordinates": [43.095195, 44.039866]}, "properties": {}}, {"type": "Feature", "geometry": {"type": "Point", "coordinates": [16.32417, 48.004588]}, "properties": {}}, {"type": "Feature", "geometry": {"type": "Point", "coordinates": [16.643801, 48.94718]}, "properties": {}}, {"type": "Feature", "geometry": {"type": "Point", "coordinates": [16.496889, 47.292135]}, "properties": {}}, {"type": "Feature", "geometry": {"type": "Point", "coordinates": [40.816392, 45.429611]}, "properties": {}}, {"type": "Feature", "geometry": {"type": "Point", "coordinates": [13.596825, 45.818482]}, "properties": {}}, {"type": "Feature", "geometry": {"type": "Point", "coordinates": [14.453337, 46.12587]}, "properties": {}}, {"type": "Feature", "geometry": {"type": "Point", "coordinates": [16.64488, 48.805363]}, "properties": {}}, {"type": "Feature", "geometry": {"type": "Point", "coordinates": [16.256778, 48.036358]}, "properties": {}}, {"type": "Feature", "geometry": {"type": "Point", "coordinates": [14.449787, 46.128598]}, "properties": {}}, {"type": "Feature", "geometry": {"type": "Point", "coordinates": [16.257442, 48.036289]}, "properties": {}}, {"type": "Feature", "geometry": {"type": "Point", "coordinates": [9.409897, 44.905492]}, "properties": {}}, {"type": "Feature", "geometry": {"type": "Point", "coordinates": [7.609967, 50.107525]}, "properties": {}}, {"type": "Feature", "geometry": {"type": "Point", "coordinates": [16.419905, 48.316508]}, "properties": {}}, {"type": "Feature", "geometry": {"type": "Point", "coordinates": [16.250295, 48.122]}, "properties": {}}, {"type": "Feature", "geometry": {"type": "Point", "coordinates": [16.642869, 48.941811]}, "properties": {}}, {"type": "Feature", "geometry": {"type": "Point", "coordinates": [14.310769, 49.995723]}, "properties": {}}, {"type": "Feature", "geometry": {"type": "Point", "coordinates": [18.98102, 47.48919]}, "properties": {}}, {"type": "Feature", "geometry": {"type": "Point", "coordinates": [10.886468, 45.928651]}, "properties": {}}, {"type": "Feature", "geometry": {"type": "Point", "coordinates": [37.397908, 44.763958]}, "properties": {}}, {"type": "Feature", "geometry": {"type": "Point", "coordinates": [9.409288, 44.905486]}, "properties": {}}, {"type": "Feature", "geometry": {"type": "Point", "coordinates": [20.204561, 43.908744]}, "properties": {}}, {"type": "Feature", "geometry": {"type": "Point", "coordinates": [13.87728, 45.581572]}, "properties": {}}, {"type": "Feature", "geometry": {"type": "Point", "coordinates": [11.458222, 49.809527]}, "properties": {}}, {"type": "Feature", "geometry": {"type": "Point", "coordinates": [16.25756, 48.03609]}, "properties": {}}, {"type": "Feature", "geometry": {"type": "Point", "coordinates": [16.270018, 48.047657]}, "properties": {}}, {"type": "Feature", "geometry": {"type": "Point", "coordinates": [14.454703, 46.128148]}, "properties": {}}, {"type": "Feature", "geometry": {"type": "Point", "coordinates": [14.154415, 49.955208]}, "properties": {}}, {"type": "Feature", "geometry": {"type": "Point", "coordinates": [9.381098, 45.828672]}, "properties": {}}, {"type": "Feature", "geometry": {"type": "Point", "coordinates": [11.757595, 45.31968]}, "properties": {}}, {"type": "Feature", "geometry": {"type": "Point", "coordinates": [14.154075, 49.955137]}, "properties": {}}, {"type": "Feature", "geometry": {"type": "Point", "coordinates": [16.42, 48.316455]}, "properties": {}}, {"type": "Feature", "geometry": {"type": "Point", "coordinates": [14.317086, 49.999122]}, "properties": {}}, {"type": "Feature", "geometry": {"type": "Point", "coordinates": [18.977065, 47.491853]}, "properties": {}}, {"type": "Feature", "geometry": {"type": "Point", "coordinates": [9.602261, 49.795366]}, "properties": {}}, {"type": "Feature", "geometry": {"type": "Point", "coordinates": [16.162629, 48.010824]}, "properties": {}}, {"type": "Feature", "geometry": {"type": "Point", "coordinates": [18.977278, 47.491899]}, "properties": {}}, {"type": "Feature", "geometry": {"type": "Point", "coordinates": [9.617925, 49.673757]}, "properties": {}}, {"type": "Feature", "geometry": {"type": "Point", "coordinates": [7.774049, 45.066948]}, "properties": {}}, {"type": "Feature", "geometry": {"type": "Point", "coordinates": [16.42153, 48.321297]}, "properties": {}}, {"type": "Feature", "geometry": {"type": "Point", "coordinates": [18.44327, 47.396297]}, "properties": {}}, {"type": "Feature", "geometry": {"type": "Point", "coordinates": [16.420955, 48.321247]}, "properties": {}}, {"type": "Feature", "geometry": {"type": "Point", "coordinates": [16.419853, 48.316532]}, "properties": {}}, {"type": "Feature", "geometry": {"type": "Point", "coordinates": [16.644339, 48.947966]}, "properties": {}}, {"type": "Feature", "geometry": {"type": "Point", "coordinates": [13.982019, 45.463212]}, "properties": {}}, {"type": "Feature", "geometry": {"type": "Point", "coordinates": [10.415778, 45.560232]}, "properties": {}}, {"type": "Feature", "geometry": {"type": "Point", "coordinates": [16.419683, 48.316753]}, "properties": {}}, {"type": "Feature", "geometry": {"type": "Point", "coordinates": [77.124277, 43.258897]}, "properties": {}}, {"type": "Feature", "geometry": {"type": "Point", "coordinates": [14.035983, 50.606824]}, "properties": {}}, {"type": "Feature", "geometry": {"type": "Point", "coordinates": [18.977173, 47.491871]}, "properties": {}}, {"type": "Feature", "geometry": {"type": "Point", "coordinates": [10.322223, 49.574016]}, "properties": {}}, {"type": "Feature", "geometry": {"type": "Point", "coordinates": [76.794038, 43.154643]}, "properties": {}}, {"type": "Feature", "geometry": {"type": "Point", "coordinates": [16.257102, 48.036325]}, "properties": {}}, {"type": "Feature", "geometry": {"type": "Point", "coordinates": [19.113671, 47.837732]}, "properties": {}}, {"type": "Feature", "geometry": {"type": "Point", "coordinates": [11.123361, 46.221456]}, "properties": {}}, {"type": "Feature", "geometry": {"type": "Point", "coordinates": [18.377017, 46.149086]}, "properties": {}}, {"type": "Feature", "geometry": {"type": "Point", "coordinates": [16.257404, 48.035605]}, "properties": {}}, {"type": "Feature", "geometry": {"type": "Point", "coordinates": [76.752251, 43.164253]}, "properties": {}}, {"type": "Feature", "geometry": {"type": "Point", "coordinates": [76.753876, 43.155064]}, "properties": {}}, {"type": "Feature", "geometry": {"type": "Point", "coordinates": [16.291243, 48.062136]}, "properties": {}}, {"type": "Feature", "geometry": {"type": "Point", "coordinates": [8.119814, 49.89283]}, "properties": {}}, {"type": "Feature", "geometry": {"type": "Point", "coordinates": [16.255345, 48.032554]}, "properties": {}}, {"type": "Feature", "geometry": {"type": "Point", "coordinates": [9.907621, 49.921298]}, "properties": {}}, {"type": "Feature", "geometry": {"type": "Point", "coordinates": [16.257547, 48.03619]}, "properties": {}}, {"type": "Feature", "geometry": {"type": "Point", "coordinates": [16.942733, 48.125171]}, "properties": {}}, {"type": "Feature", "geometry": {"type": "Point", "coordinates": [7.244182, 47.957468]}, "properties": {}}, {"type": "Feature", "geometry": {"type": "Point", "coordinates": [11.751112, 51.173502]}, "properties": {}}, {"type": "Feature", "geometry": {"type": "Point", "coordinates": [76.753328, 43.163557]}, "properties": {}}, {"type": "Feature", "geometry": {"type": "Point", "coordinates": [18.487748, 46.695025]}, "properties": {}}, {"type": "Feature", "geometry": {"type": "Point", "coordinates": [15.496078, 44.301272]}, "properties": {}}, {"type": "Feature", "geometry": {"type": "Point", "coordinates": [16.250538, 48.121897]}, "properties": {}}, {"type": "Feature", "geometry": {"type": "Point", "coordinates": [16.250253, 48.121797]}, "properties": {}}, {"type": "Feature", "geometry": {"type": "Point", "coordinates": [14.016381, 50.527292]}, "properties": {}}, {"type": "Feature", "geometry": {"type": "Point", "coordinates": [13.778296, 45.155536]}, "properties": {}}, {"type": "Feature", "geometry": {"type": "Point", "coordinates": [37.918737, 44.619867]}, "properties": {}}, {"type": "Feature", "geometry": {"type": "Point", "coordinates": [76.752296, 43.163998]}, "properties": {}}, {"type": "Feature", "geometry": {"type": "Point", "coordinates": [76.932875, 43.112578]}, "properties": {}}, {"type": "Feature", "geometry": {"type": "Point", "coordinates": [16.563938, 48.764553]}, "properties": {}}, {"type": "Feature", "geometry": {"type": "Point", "coordinates": [18.97828, 47.490716]}, "properties": {}}, {"type": "Feature", "geometry": {"type": "Point", "coordinates": [16.25023, 48.121897]}, "properties": {}}, {"type": "Feature", "geometry": {"type": "Point", "coordinates": [37.926787, 44.638512]}, "properties": {}}, {"type": "Feature", "geometry": {"type": "Point", "coordinates": [76.752973, 43.16384]}, "properties": {}}, {"type": "Feature", "geometry": {"type": "Point", "coordinates": [16.291007, 48.062464]}, "properties": {}}, {"type": "Feature", "geometry": {"type": "Point", "coordinates": [16.419848, 48.316522]}, "properties": {}}, {"type": "Feature", "geometry": {"type": "Point", "coordinates": [16.250425, 48.126578]}, "properties": {}}, {"type": "Feature", "geometry": {"type": "Point", "coordinates": [16.419668, 48.316808]}, "properties": {}}, {"type": "Feature", "geometry": {"type": "Point", "coordinates": [7.45221, 45.113204]}, "properties": {}}, {"type": "Feature", "geometry": {"type": "Point", "coordinates": [18.977012, 47.493343]}, "properties": {}}, {"type": "Feature", "geometry": {"type": "Point", "coordinates": [14.028788, 49.331667]}, "properties": {}}, {"type": "Feature", "geometry": {"type": "Point", "coordinates": [76.753133, 43.162269]}, "properties": {}}, {"type": "Feature", "geometry": {"type": "Point", "coordinates": [6.566525, 44.810378]}, "properties": {}}, {"type": "Feature", "geometry": {"type": "Point", "coordinates": [76.752608, 43.163875]}, "properties": {}}, {"type": "Feature", "geometry": {"type": "Point", "coordinates": [11.766437, 45.319412]}, "properties": {}}, {"type": "Feature", "geometry": {"type": "Point", "coordinates": [76.753876, 43.155064]}, "properties": {}}, {"type": "Feature", "geometry": {"type": "Point", "coordinates": [16.217001, 48.125645]}, "properties": {}}, {"type": "Feature", "geometry": {"type": "Point", "coordinates": [16.352075, 48.276845]}, "properties": {}}, {"type": "Feature", "geometry": {"type": "Point", "coordinates": [17.236506, 46.817233]}, "properties": {}}, {"type": "Feature", "geometry": {"type": "Point", "coordinates": [16.359126, 48.311723]}, "properties": {}}, {"type": "Feature", "geometry": {"type": "Point", "coordinates": [26.069097, 49.402598]}, "properties": {}}, {"type": "Feature", "geometry": {"type": "Point", "coordinates": [16.295815, 48.066005]}, "properties": {}}, {"type": "Feature", "geometry": {"type": "Point", "coordinates": [7.910378, 50.159397]}, "properties": {}}, {"type": "Feature", "geometry": {"type": "Point", "coordinates": [16.630541, 47.805725]}, "properties": {}}, {"type": "Feature", "geometry": {"type": "Point", "coordinates": [16.643594, 48.947128]}, "properties": {}}, {"type": "Feature", "geometry": {"type": "Point", "coordinates": [14.605347, 45.170685]}, "properties": {}}, {"type": "Feature", "geometry": {"type": "Point", "coordinates": [18.981337, 47.541378]}, "properties": {}}, {"type": "Feature", "geometry": {"type": "Point", "coordinates": [77.03822, 43.234608]}, "properties": {}}, {"type": "Feature", "geometry": {"type": "Point", "coordinates": [16.514307, 48.682672]}, "properties": {}}, {"type": "Feature", "geometry": {"type": "Point", "coordinates": [17.367502, 48.258243]}, "properties": {}}, {"type": "Feature", "geometry": {"type": "Point", "coordinates": [10.94977, 45.747497]}, "properties": {}}, {"type": "Feature", "geometry": {"type": "Point", "coordinates": [17.371273, 48.252015]}, "properties": {}}, {"type": "Feature", "geometry": {"type": "Point", "coordinates": [11.775826, 45.305344]}, "properties": {}}, {"type": "Feature", "geometry": {"type": "Point", "coordinates": [14.702516, 45.171296]}, "properties": {}}, {"type": "Feature", "geometry": {"type": "Point", "coordinates": [27.916777, 44.117447]}, "properties": {}}, {"type": "Feature", "geometry": {"type": "Point", "coordinates": [10.994491, 45.827305]}, "properties": {}}, {"type": "Feature", "geometry": {"type": "Point", "coordinates": [16.257503, 48.036183]}, "properties": {}}, {"type": "Feature", "geometry": {"type": "Point", "coordinates": [16.257708, 48.036103]}, "properties": {}}, {"type": "Feature", "geometry": {"type": "Point", "coordinates": [16.974219, 48.095422]}, "properties": {}}, {"type": "Feature", "geometry": {"type": "Point", "coordinates": [7.772931, 45.067265]}, "properties": {}}, {"type": "Feature", "geometry": {"type": "Point", "coordinates": [14.651041, 45.205422]}, "properties": {}}, {"type": "Feature", "geometry": {"type": "Point", "coordinates": [11.100079, 49.91686]}, "properties": {}}, {"type": "Feature", "geometry": {"type": "Point", "coordinates": [16.984095, 48.194612]}, "properties": {}}, {"type": "Feature", "geometry": {"type": "Point", "coordinates": [11.629357, 50.972798]}, "properties": {}}, {"type": "Feature", "geometry": {"type": "Point", "coordinates": [23.837488, 46.886827]}, "properties": {}}, {"type": "Feature", "geometry": {"type": "Point", "coordinates": [9.472998, 49.646983]}, "properties": {}}, {"type": "Feature", "geometry": {"type": "Point", "coordinates": [16.253309, 48.031517]}, "properties": {}}, {"type": "Feature", "geometry": {"type": "Point", "coordinates": [11.536268, 50.919053]}, "properties": {}}, {"type": "Feature", "geometry": {"type": "Point", "coordinates": [18.473698, 47.521357]}, "properties": {}}, {"type": "Feature", "geometry": {"type": "Point", "coordinates": [9.308783, 45.825158]}, "properties": {}}, {"type": "Feature", "geometry": {"type": "Point", "coordinates": [22.271563, 42.013595]}, "properties": {}}, {"type": "Feature", "geometry": {"type": "Point", "coordinates": [9.748781, 49.948906]}, "properties": {}}, {"type": "Feature", "geometry": {"type": "Point", "coordinates": [16.642869, 48.941811]}, "properties": {}}, {"type": "Feature", "geometry": {"type": "Point", "coordinates": [16.295946, 48.06554]}, "properties": {}}, {"type": "Feature", "geometry": {"type": "Point", "coordinates": [9.718851, 49.67396]}, "properties": {}}, {"type": "Feature", "geometry": {"type": "Point", "coordinates": [15.478767, 44.318603]}, "properties": {}}, {"type": "Feature", "geometry": {"type": "Point", "coordinates": [18.212578, 47.314598]}, "properties": {}}, {"type": "Feature", "geometry": {"type": "Point", "coordinates": [11.530323, 50.842799]}, "properties": {}}, {"type": "Feature", "geometry": {"type": "Point", "coordinates": [14.907789, 44.699192]}, "properties": {}}, {"type": "Feature", "geometry": {"type": "Point", "coordinates": [18.978377, 47.494281]}, "properties": {}}, {"type": "Feature", "geometry": {"type": "Point", "coordinates": [14.186585, 49.933784]}, "properties": {}}, {"type": "Feature", "geometry": {"type": "Point", "coordinates": [7.87864, 49.953445]}, "properties": {}}, {"type": "Feature", "geometry": {"type": "Point", "coordinates": [9.603454, 49.873808]}, "properties": {}}, {"type": "Feature", "geometry": {"type": "Point", "coordinates": [8.664813, 44.430501]}, "properties": {}}, {"type": "Feature", "geometry": {"type": "Point", "coordinates": [14.389747, 49.913046]}, "properties": {}}, {"type": "Feature", "geometry": {"type": "Point", "coordinates": [45.376253, 41.446058]}, "properties": {}}, {"type": "Feature", "geometry": {"type": "Point", "coordinates": [15.478014, 44.316328]}, "properties": {}}, {"type": "Feature", "geometry": {"type": "Point", "coordinates": [16.359375, 48.31176]}, "properties": {}}, {"type": "Feature", "geometry": {"type": "Point", "coordinates": [21.927448, 43.302861]}, "properties": {}}, {"type": "Feature", "geometry": {"type": "Point", "coordinates": [9.781718, 49.940289]}, "properties": {}}, {"type": "Feature", "geometry": {"type": "Point", "coordinates": [23.837299, 46.88695]}, "properties": {}}, {"type": "Feature", "geometry": {"type": "Point", "coordinates": [7.853479, 49.804275]}, "properties": {}}, {"type": "Feature", "geometry": {"type": "Point", "coordinates": [16.250495, 48.032845]}, "properties": {}}, {"type": "Feature", "geometry": {"type": "Point", "coordinates": [16.676068, 49.218287]}, "properties": {}}, {"type": "Feature", "geometry": {"type": "Point", "coordinates": [11.265237, 44.376767]}, "properties": {}}, {"type": "Feature", "geometry": {"type": "Point", "coordinates": [16.447112, 47.72492]}, "properties": {}}, {"type": "Feature", "geometry": {"type": "Point", "coordinates": [16.292193, 48.063255]}, "properties": {}}, {"type": "Feature", "geometry": {"type": "Point", "coordinates": [16.64025, 48.429753]}, "properties": {}}, {"type": "Feature", "geometry": {"type": "Point", "coordinates": [16.377396, 48.305537]}, "properties": {}}, {"type": "Feature", "geometry": {"type": "Point", "coordinates": [16.447053, 47.724835]}, "properties": {}}, {"type": "Feature", "geometry": {"type": "Point", "coordinates": [14.569041, 45.224798]}, "properties": {}}, {"type": "Feature", "geometry": {"type": "Point", "coordinates": [11.396525, 44.417522]}, "properties": {}}, {"type": "Feature", "geometry": {"type": "Point", "coordinates": [11.389565, 45.635318]}, "properties": {}}, {"type": "Feature", "geometry": {"type": "Point", "coordinates": [18.208095, 46.10302]}, "properties": {}}, {"type": "Feature", "geometry": {"type": "Point", "coordinates": [14.149357, 45.178792]}, "properties": {}}, {"type": "Feature", "geometry": {"type": "Point", "coordinates": [10.149925, 44.727173]}, "properties": {}}, {"type": "Feature", "geometry": {"type": "Point", "coordinates": [13.808425, 45.772442]}, "properties": {}}, {"type": "Feature", "geometry": {"type": "Point", "coordinates": [16.27525, 48.046214]}, "properties": {}}, {"type": "Feature", "geometry": {"type": "Point", "coordinates": [16.644846, 48.805318]}, "properties": {}}, {"type": "Feature", "geometry": {"type": "Point", "coordinates": [16.446657, 47.724668]}, "properties": {}}, {"type": "Feature", "geometry": {"type": "Point", "coordinates": [7.425249, 50.225771]}, "properties": {}}, {"type": "Feature", "geometry": {"type": "Point", "coordinates": [16.252038, 48.032075]}, "properties": {}}, {"type": "Feature", "geometry": {"type": "Point", "coordinates": [10.781576, 45.825188]}, "properties": {}}, {"type": "Feature", "geometry": {"type": "Point", "coordinates": [-3.182716, 40.474049]}, "properties": {}}, {"type": "Feature", "geometry": {"type": "Point", "coordinates": [18.741533, 47.751002]}, "properties": {}}, {"type": "Feature", "geometry": {"type": "Point", "coordinates": [16.482312, 47.843367]}, "properties": {}}, {"type": "Feature", "geometry": {"type": "Point", "coordinates": [14.08239, 50.599263]}, "properties": {}}, {"type": "Feature", "geometry": {"type": "Point", "coordinates": [16.296529, 48.065271]}, "properties": {}}, {"type": "Feature", "geometry": {"type": "Point", "coordinates": [16.554953, 47.862238]}, "properties": {}}, {"type": "Feature", "geometry": {"type": "Point", "coordinates": [11.504388, 45.37793]}, "properties": {}}, {"type": "Feature", "geometry": {"type": "Point", "coordinates": [16.644463, 48.948095]}, "properties": {}}, {"type": "Feature", "geometry": {"type": "Point", "coordinates": [19.00515, 47.556282]}, "properties": {}}, {"type": "Feature", "geometry": {"type": "Point", "coordinates": [11.045094, 44.219361]}, "properties": {}}, {"type": "Feature", "geometry": {"type": "Point", "coordinates": [11.396836, 44.417467]}, "properties": {}}, {"type": "Feature", "geometry": {"type": "Point", "coordinates": [16.244026, 48.024991]}, "properties": {}}, {"type": "Feature", "geometry": {"type": "Point", "coordinates": [16.640963, 48.427772]}, "properties": {}}, {"type": "Feature", "geometry": {"type": "Point", "coordinates": [11.399094, 44.419483]}, "properties": {}}, {"type": "Feature", "geometry": {"type": "Point", "coordinates": [16.644245, 48.805391]}, "properties": {}}, {"type": "Feature", "geometry": {"type": "Point", "coordinates": [16.675438, 49.217495]}, "properties": {}}, {"type": "Feature", "geometry": {"type": "Point", "coordinates": [16.654942, 48.865982]}, "properties": {}}, {"type": "Feature", "geometry": {"type": "Point", "coordinates": [16.643376, 48.427868]}, "properties": {}}, {"type": "Feature", "geometry": {"type": "Point", "coordinates": [14.317867, 49.999692]}, "properties": {}}, {"type": "Feature", "geometry": {"type": "Point", "coordinates": [16.447333, 47.72493]}, "properties": {}}, {"type": "Feature", "geometry": {"type": "Point", "coordinates": [14.555113, 45.173772]}, "properties": {}}, {"type": "Feature", "geometry": {"type": "Point", "coordinates": [23.498318, 46.767203]}, "properties": {}}, {"type": "Feature", "geometry": {"type": "Point", "coordinates": [15.484047, 44.34381]}, "properties": {}}, {"type": "Feature", "geometry": {"type": "Point", "coordinates": [7.777002, 45.066825]}, "properties": {}}, {"type": "Feature", "geometry": {"type": "Point", "coordinates": [13.821233, 45.390228]}, "properties": {}}, {"type": "Feature", "geometry": {"type": "Point", "coordinates": [2.311511, 41.902347]}, "properties": {}}, {"type": "Feature", "geometry": {"type": "Point", "coordinates": [16.353046, 48.276578]}, "properties": {}}, {"type": "Feature", "geometry": {"type": "Point", "coordinates": [14.461753, 45.350007]}, "properties": {}}, {"type": "Feature", "geometry": {"type": "Point", "coordinates": [7.415721, 50.328685]}, "properties": {}}, {"type": "Feature", "geometry": {"type": "Point", "coordinates": [9.640253, 49.629399]}, "properties": {}}, {"type": "Feature", "geometry": {"type": "Point", "coordinates": [16.256403, 48.031967]}, "properties": {}}, {"type": "Feature", "geometry": {"type": "Point", "coordinates": [16.274553, 48.050907]}, "properties": {}}, {"type": "Feature", "geometry": {"type": "Point", "coordinates": [16.25085, 48.032781]}, "properties": {}}, {"type": "Feature", "geometry": {"type": "Point", "coordinates": [19.209558, 47.630632]}, "properties": {}}, {"type": "Feature", "geometry": {"type": "Point", "coordinates": [15.23811, 44.224295]}, "properties": {}}, {"type": "Feature", "geometry": {"type": "Point", "coordinates": [16.251975, 48.032056]}, "properties": {}}, {"type": "Feature", "geometry": {"type": "Point", "coordinates": [7.657747, 47.642166]}, "properties": {}}, {"type": "Feature", "geometry": {"type": "Point", "coordinates": [16.554505, 47.861412]}, "properties": {}}, {"type": "Feature", "geometry": {"type": "Point", "coordinates": [16.447112, 47.72492]}, "properties": {}}, {"type": "Feature", "geometry": {"type": "Point", "coordinates": [11.395822, 44.417142]}, "properties": {}}, {"type": "Feature", "geometry": {"type": "Point", "coordinates": [9.954775, 49.964332]}, "properties": {}}, {"type": "Feature", "geometry": {"type": "Point", "coordinates": [18.86875, 47.585692]}, "properties": {}}, {"type": "Feature", "geometry": {"type": "Point", "coordinates": [16.640963, 48.427772]}, "properties": {}}, {"type": "Feature", "geometry": {"type": "Point", "coordinates": [44.766072, 41.705362]}, "properties": {}}, {"type": "Feature", "geometry": {"type": "Point", "coordinates": [16.715938, 47.939072]}, "properties": {}}, {"type": "Feature", "geometry": {"type": "Point", "coordinates": [2.317082, 41.800378]}, "properties": {}}, {"type": "Feature", "geometry": {"type": "Point", "coordinates": [16.640219, 48.429688]}, "properties": {}}, {"type": "Feature", "geometry": {"type": "Point", "coordinates": [16.640801, 48.429584]}, "properties": {}}, {"type": "Feature", "geometry": {"type": "Point", "coordinates": [7.270832, 47.962874]}, "properties": {}}, {"type": "Feature", "geometry": {"type": "Point", "coordinates": [16.254758, 48.03267]}, "properties": {}}, {"type": "Feature", "geometry": {"type": "Point", "coordinates": [14.130985, 50.556515]}, "properties": {}}, {"type": "Feature", "geometry": {"type": "Point", "coordinates": [44.776008, 41.697645]}, "properties": {}}, {"type": "Feature", "geometry": {"type": "Point", "coordinates": [30.116198, 59.42179]}, "properties": {}}, {"type": "Feature", "geometry": {"type": "Point", "coordinates": [11.396063, 44.417196]}, "properties": {}}, {"type": "Feature", "geometry": {"type": "Point", "coordinates": [18.505527, 47.496988]}, "properties": {}}, {"type": "Feature", "geometry": {"type": "Point", "coordinates": [16.247456, 48.128144]}, "properties": {}}, {"type": "Feature", "geometry": {"type": "Point", "coordinates": [18.93788, 47.473935]}, "properties": {}}, {"type": "Feature", "geometry": {"type": "Point", "coordinates": [16.668753, 49.217865]}, "properties": {}}, {"type": "Feature", "geometry": {"type": "Point", "coordinates": [19.20276, 47.629108]}, "properties": {}}, {"type": "Feature", "geometry": {"type": "Point", "coordinates": [16.249952, 48.122045]}, "properties": {}}, {"type": "Feature", "geometry": {"type": "Point", "coordinates": [11.016999, 45.573315]}, "properties": {}}, {"type": "Feature", "geometry": {"type": "Point", "coordinates": [16.447013, 47.724862]}, "properties": {}}, {"type": "Feature", "geometry": {"type": "Point", "coordinates": [16.294327, 48.06264]}, "properties": {}}, {"type": "Feature", "geometry": {"type": "Point", "coordinates": [16.64346, 48.947122]}, "properties": {}}, {"type": "Feature", "geometry": {"type": "Point", "coordinates": [18.949132, 47.802283]}, "properties": {}}, {"type": "Feature", "geometry": {"type": "Point", "coordinates": [9.716455, 49.745877]}, "properties": {}}, {"type": "Feature", "geometry": {"type": "Point", "coordinates": [26.070912, 49.399108]}, "properties": {}}, {"type": "Feature", "geometry": {"type": "Point", "coordinates": [8.669312, 44.411516]}, "properties": {}}, {"type": "Feature", "geometry": {"type": "Point", "coordinates": [76.973766, 43.231282]}, "properties": {}}, {"type": "Feature", "geometry": {"type": "Point", "coordinates": [9.403537, 44.910062]}, "properties": {}}, {"type": "Feature", "geometry": {"type": "Point", "coordinates": [5.752342, 44.352865]}, "properties": {}}, {"type": "Feature", "geometry": {"type": "Point", "coordinates": [18.978747, 47.474781]}, "properties": {}}, {"type": "Feature", "geometry": {"type": "Point", "coordinates": [15.954635, 48.606561]}, "properties": {}}, {"type": "Feature", "geometry": {"type": "Point", "coordinates": [13.398052, 41.787348]}, "properties": {}}, {"type": "Feature", "geometry": {"type": "Point", "coordinates": [16.592431, 48.428047]}, "properties": {}}, {"type": "Feature", "geometry": {"type": "Point", "coordinates": [18.932043, 47.479747]}, "properties": {}}, {"type": "Feature", "geometry": {"type": "Point", "coordinates": [8.512768, 49.079098]}, "properties": {}}, {"type": "Feature", "geometry": {"type": "Point", "coordinates": [16.93189, 48.123702]}, "properties": {}}, {"type": "Feature", "geometry": {"type": "Point", "coordinates": [7.248344, 47.963672]}, "properties": {}}, {"type": "Feature", "geometry": {"type": "Point", "coordinates": [10.138468, 51.434558]}, "properties": {}}, {"type": "Feature", "geometry": {"type": "Point", "coordinates": [21.272504, 48.196832]}, "properties": {}}, {"type": "Feature", "geometry": {"type": "Point", "coordinates": [10.993758, 45.828242]}, "properties": {}}, {"type": "Feature", "geometry": {"type": "Point", "coordinates": [16.419148, 48.316676]}, "properties": {}}, {"type": "Feature", "geometry": {"type": "Point", "coordinates": [16.590515, 48.426844]}, "properties": {}}, {"type": "Feature", "geometry": {"type": "Point", "coordinates": [13.932308, 45.510933]}, "properties": {}}, {"type": "Feature", "geometry": {"type": "Point", "coordinates": [23.378193, 43.085275]}, "properties": {}}, {"type": "Feature", "geometry": {"type": "Point", "coordinates": [14.556293, 45.168517]}, "properties": {}}, {"type": "Feature", "geometry": {"type": "Point", "coordinates": [14.556392, 45.170115]}, "properties": {}}, {"type": "Feature", "geometry": {"type": "Point", "coordinates": [17.340817, 48.257039]}, "properties": {}}, {"type": "Feature", "geometry": {"type": "Point", "coordinates": [9.41141, 49.496827]}, "properties": {}}, {"type": "Feature", "geometry": {"type": "Point", "coordinates": [17.282925, 48.317251]}, "properties": {}}, {"type": "Feature", "geometry": {"type": "Point", "coordinates": [14.556011, 45.16784]}, "properties": {}}, {"type": "Feature", "geometry": {"type": "Point", "coordinates": [19.032686, 47.497133]}, "properties": {}}, {"type": "Feature", "geometry": {"type": "Point", "coordinates": [11.638347, 50.901782]}, "properties": {}}, {"type": "Feature", "geometry": {"type": "Point", "coordinates": [34.558719, 45.109182]}, "properties": {}}, {"type": "Feature", "geometry": {"type": "Point", "coordinates": [7.739811, 46.319097]}, "properties": {}}, {"type": "Feature", "geometry": {"type": "Point", "coordinates": [14.085881, 50.586605]}, "properties": {}}, {"type": "Feature", "geometry": {"type": "Point", "coordinates": [13.802212, 45.315662]}, "properties": {}}, {"type": "Feature", "geometry": {"type": "Point", "coordinates": [47.287894, 43.046581]}, "properties": {}}, {"type": "Feature", "geometry": {"type": "Point", "coordinates": [23.04622, 42.568897]}, "properties": {}}, {"type": "Feature", "geometry": {"type": "Point", "coordinates": [16.564914, 48.838097]}, "properties": {}}, {"type": "Feature", "geometry": {"type": "Point", "coordinates": [11.267706, 44.381489]}, "properties": {}}, {"type": "Feature", "geometry": {"type": "Point", "coordinates": [16.359151, 48.311654]}, "properties": {}}, {"type": "Feature", "geometry": {"type": "Point", "coordinates": [18.972183, 47.495895]}, "properties": {}}, {"type": "Feature", "geometry": {"type": "Point", "coordinates": [13.863345, 45.636537]}, "properties": {}}, {"type": "Feature", "geometry": {"type": "Point", "coordinates": [19.044609, 47.438453]}, "properties": {}}, {"type": "Feature", "geometry": {"type": "Point", "coordinates": [16.978388, 48.194805]}, "properties": {}}, {"type": "Feature", "geometry": {"type": "Point", "coordinates": [9.36091, 49.081989]}, "properties": {}}, {"type": "Feature", "geometry": {"type": "Point", "coordinates": [16.256994, 48.036528]}, "properties": {}}, {"type": "Feature", "geometry": {"type": "Point", "coordinates": [26.068684, 49.403073]}, "properties": {}}, {"type": "Feature", "geometry": {"type": "Point", "coordinates": [16.643742, 48.94252]}, "properties": {}}, {"type": "Feature", "geometry": {"type": "Point", "coordinates": [26.071024, 49.398951]}, "properties": {}}, {"type": "Feature", "geometry": {"type": "Point", "coordinates": [7.475623, 47.699851]}, "properties": {}}, {"type": "Feature", "geometry": {"type": "Point", "coordinates": [19.014877, 47.543571]}, "properties": {}}, {"type": "Feature", "geometry": {"type": "Point", "coordinates": [10.881875, 45.865188]}, "properties": {}}, {"type": "Feature", "geometry": {"type": "Point", "coordinates": [70.133759, 41.147691]}, "properties": {}}, {"type": "Feature", "geometry": {"type": "Point", "coordinates": [16.93635, 48.136558]}, "properties": {}}, {"type": "Feature", "geometry": {"type": "Point", "coordinates": [17.615357, 46.902255]}, "properties": {}}, {"type": "Feature", "geometry": {"type": "Point", "coordinates": [17.384375, 48.248708]}, "properties": {}}]}