{"type": "FeatureCollection", "name": "Lactuca sativa", "features": [{"type": "Feature", "geometry": {"type": "Point", "coordinates": [-82.307661, 28.178458]}, "properties": {}}, {"type": "Feature", "geometry": {"type": "Point", "coordinates": [172.593812, -43.505362]}, "properties": {}}, {"type": "Feature", "geometry": {"type": "Point", "coordinates": [-81.39473, 28.652442]}, "properties": {}}, {"type": "Feature", "geometry": {"type": "Point", "coordinates": [113.554901, 22.139883]}, "properties": {}}, {"type": "Feature", "geometry": {"type": "Point", "coordinates": [4.38567, 51.1907]}, "properties": {}}, {"type": "Feature", "geometry": {"type": "Point", "coordinates": [4.55, 51.85]}, "properties": {}}, {"type": "Feature", "geometry": {"type": "Point", "coordinates": [5.85, 51.8]}, "properties": {}}, {"type": "Feature", "geometry": {"type": "Point", "coordinates": [15.45367, 43.947999]}, "properties": {}}, {"type": "Feature", "geometry": {"type": "Point", "coordinates": [12.96413, 55.73846]}, "properties": {}}, {"type": "Feature", "geometry": {"type": "Point", "coordinates": [5.05, 52.0]}, "properties": {}}, {"type": "Feature", "geometry": {"type": "Point", "coordinates": [3.35671, 51.07162]}, "properties": {}}, {"type": "Feature", "geometry": {"type": "Point", "coordinates": [6.627252, 50.704868]}, "properties": {}}, {"type": "Feature", "geometry": {"type": "Point", "coordinates": [14.31579, 55.48803]}, "properties": {}}, {"type": "Feature", "geometry": {"type": "Point", "coordinates": [5.85, 51.85]}, "properties": {}}, {"type": "Feature", "geometry": {"type": "Point", "coordinates": [-78.23368, 0.016556]}, "properties": {}}, {"type": "Feature", "geometry": {"type": "Point", "coordinates": [-73.644661, 40.783697]}, "properties": {}}, {"type": "Feature", "geometry": {"type": "Point", "coordinates": [-106.289304, 31.757184]}, "properties": {}}, {"type": "Feature", "geometry": {"type": "Point", "coordinates": [4.44973, 50.83638]}, "properties": {}}, {"type": "Feature", "geometry": {"type": "Point", "coordinates": [0.009009, 45.413884]}, "properties": {}}, {"type": "Feature", "geometry": {"type": "Point", "coordinates": [4.41986, 51.12774]}, "properties": {}}, {"type": "Feature", "geometry": {"type": "Point", "coordinates": [-45.255593, -21.690273]}, "properties": {}}, {"type": "Feature", "geometry": {"type": "Point", "coordinates": [12.74083, 56.71855]}, "properties": {}}, {"type": "Feature", "geometry": {"type": "Point", "coordinates": [-94.023857, 35.53767]}, "properties": {}}, {"type": "Feature", "geometry": {"type": "Point", "coordinates": [13.26429, 55.69625]}, "properties": {}}, {"type": "Feature", "geometry": {"type": "Point", "coordinates": [4.7, 52.0]}, "properties": {}}, {"type": "Feature", "geometry": {"type": "Point", "coordinates": [3.5387, 51.06938]}, "properties": {}}, {"type": "Feature", "geometry": {"type": "Point", "coordinates": [4.0223, 51.22878]}, "properties": {}}, {"type": "Feature", "geometry": {"type": "Point", "coordinates": [3.5387, 51.06937]}, "properties": {}}, {"type": "Feature", "geometry": {"type": "Point", "coordinates": [5.13182, 50.95969]}, "properties": {}}, {"type": "Feature", "geometry": {"type": "Point", "coordinates": [172.652222, -43.38148]}, "properties": {}}, {"type": "Feature", "geometry": {"type": "Point", "coordinates": [120.478518, 23.973283]}, "properties": {}}, {"type": "Feature", "geometry": {"type": "Point", "coordinates": [2.94226, 51.2308]}, "properties": {}}, {"type": "Feature", "geometry": {"type": "Point", "coordinates": [-0.312958, 51.577222]}, "properties": {}}, {"type": "Feature", "geometry": {"type": "Point", "coordinates": [1.257967, 10.650056]}, "properties": {}}, {"type": "Feature", "geometry": {"type": "Point", "coordinates": [107.663956, -7.20439]}, "properties": {}}, {"type": "Feature", "geometry": {"type": "Point", "coordinates": [120.3068, 23.185978]}, "properties": {}}, {"type": "Feature", "geometry": {"type": "Point", "coordinates": [113.9789, 22.391699]}, "properties": {}}, {"type": "Feature", "geometry": {"type": "Point", "coordinates": [5.55, 51.95]}, "properties": {}}, {"type": "Feature", "geometry": {"type": "Point", "coordinates": [6.488658, 43.580923]}, "properties": {}}, {"type": "Feature", "geometry": {"type": "Point", "coordinates": [4.203704, 45.430775]}, "properties": {}}, {"type": "Feature", "geometry": {"type": "Point", "coordinates": [4.45, 52.15]}, "properties": {}}, {"type": "Feature", "geometry": {"type": "Point", "coordinates": [4.65, 51.55]}, "properties": {}}, {"type": "Feature", "geometry": {"type": "Point", "coordinates": [113.55487, 22.139958]}, "properties": {}}, {"type": "Feature", "geometry": {"type": "Point", "coordinates": [5.830486, 45.195403]}, "properties": {}}, {"type": "Feature", "geometry": {"type": "Point", "coordinates": [1.249925, 41.292946]}, "properties": {}}, {"type": "Feature", "geometry": {"type": "Point", "coordinates": [5.830486, 45.195403]}, "properties": {}}, {"type": "Feature", "geometry": {"type": "Point", "coordinates": [-0.796661, 46.869258]}, "properties": {}}, {"type": "Feature", "geometry": {"type": "Point", "coordinates": [-1.62081, 42.764958]}, "properties": {}}, {"type": "Feature", "geometry": {"type": "Point", "coordinates": [7.645906, 51.967]}, "properties": {}}, {"type": "Feature", "geometry": {"type": "Point", "coordinates": [-2.699, 43.141]}, "properties": {}}, {"type": "Feature", "geometry": {"type": "Point", "coordinates": [4.36056, 50.86412]}, "properties": {}}, {"type": "Feature", "geometry": {"type": "Point", "coordinates": [5.65, 50.8]}, "properties": {}}, {"type": "Feature", "geometry": {"type": "Point", "coordinates": [5.65, 50.8]}, "properties": {}}, {"type": "Feature", "geometry": {"type": "Point", "coordinates": [1.809007, 41.238611]}, "properties": {}}, {"type": "Feature", "geometry": {"type": "Point", "coordinates": [5.403082, 48.609973]}, "properties": {}}, {"type": "Feature", "geometry": {"type": "Point", "coordinates": [3.321264, 43.748296]}, "properties": {}}, {"type": "Feature", "geometry": {"type": "Point", "coordinates": [2.364943, 48.890051]}, "properties": {}}, {"type": "Feature", "geometry": {"type": "Point", "coordinates": [15.305058, 47.450139]}, "properties": {}}, {"type": "Feature", "geometry": {"type": "Point", "coordinates": [1.809007, 41.238611]}, "properties": {}}, {"type": "Feature", "geometry": {"type": "Point", "coordinates": [4.40141, 51.20181]}, "properties": {}}, {"type": "Feature", "geometry": {"type": "Point", "coordinates": [4.38033, 51.17664]}, "properties": {}}, {"type": "Feature", "geometry": {"type": "Point", "coordinates": [4.38017, 51.17671]}, "properties": {}}, {"type": "Feature", "geometry": {"type": "Point", "coordinates": [15.483364, 47.078674]}, "properties": {}}, {"type": "Feature", "geometry": {"type": "Point", "coordinates": [4.21452, 51.17114]}, "properties": {}}, {"type": "Feature", "geometry": {"type": "Point", "coordinates": [-2.034659, 52.885228]}, "properties": {}}, {"type": "Feature", "geometry": {"type": "Point", "coordinates": [4.37727, 51.19217]}, "properties": {}}, {"type": "Feature", "geometry": {"type": "Point", "coordinates": [2.89757, 51.21788]}, "properties": {}}, {"type": "Feature", "geometry": {"type": "Point", "coordinates": [5.65, 50.85]}, "properties": {}}, {"type": "Feature", "geometry": {"type": "Point", "coordinates": [5.45, 51.3]}, "properties": {}}, {"type": "Feature", "geometry": {"type": "Point", "coordinates": [4.72664, 50.87139]}, "properties": {}}, {"type": "Feature", "geometry": {"type": "Point", "coordinates": [12.2521, 57.11206]}, "properties": {}}, {"type": "Feature", "geometry": {"type": "Point", "coordinates": [5.65, 50.85]}, "properties": {}}, {"type": "Feature", "geometry": {"type": "Point", "coordinates": [5.65, 51.95]}, "properties": {}}, {"type": "Feature", "geometry": {"type": "Point", "coordinates": [100.066192, 9.590975]}, "properties": {}}, {"type": "Feature", "geometry": {"type": "Point", "coordinates": [6.3, 52.0]}, "properties": {}}, {"type": "Feature", "geometry": {"type": "Point", "coordinates": [-65.992998, 18.349585]}, "properties": {}}, {"type": "Feature", "geometry": {"type": "Point", "coordinates": [25.241055, 50.921692]}, "properties": {}}, {"type": "Feature", "geometry": {"type": "Point", "coordinates": [4.7, 51.45]}, "properties": {}}, {"type": "Feature", "geometry": {"type": "Point", "coordinates": [5.65, 50.85]}, "properties": {}}, {"type": "Feature", "geometry": {"type": "Point", "coordinates": [27.039565, 45.203572]}, "properties": {}}, {"type": "Feature", "geometry": {"type": "Point", "coordinates": [5.8, 50.95]}, "properties": {}}, {"type": "Feature", "geometry": {"type": "Point", "coordinates": [5.25, 51.65]}, "properties": {}}, {"type": "Feature", "geometry": {"type": "Point", "coordinates": [5.25, 51.65]}, "properties": {}}, {"type": "Feature", "geometry": {"type": "Point", "coordinates": [5.65, 50.85]}, "properties": {}}, {"type": "Feature", "geometry": {"type": "Point", "coordinates": [4.45, 51.9]}, "properties": {}}, {"type": "Feature", "geometry": {"type": "Point", "coordinates": [7.146082, 46.028878]}, "properties": {}}, {"type": "Feature", "geometry": {"type": "Point", "coordinates": [4.45856, 50.85032]}, "properties": {}}, {"type": "Feature", "geometry": {"type": "Point", "coordinates": [3.28027, 51.0634]}, "properties": {}}, {"type": "Feature", "geometry": {"type": "Point", "coordinates": [6.15, 52.2]}, "properties": {}}, {"type": "Feature", "geometry": {"type": "Point", "coordinates": [5.25, 51.65]}, "properties": {}}, {"type": "Feature", "geometry": {"type": "Point", "coordinates": [7.14808, 46.02867]}, "properties": {}}, {"type": "Feature", "geometry": {"type": "Point", "coordinates": [3.92259, 50.4258]}, "properties": {}}, {"type": "Feature", "geometry": {"type": "Point", "coordinates": [4.21459, 51.17113]}, "properties": {}}, {"type": "Feature", "geometry": {"type": "Point", "coordinates": [4.36125, 51.18349]}, "properties": {}}, {"type": "Feature", "geometry": {"type": "Point", "coordinates": [4.38308, 51.09725]}, "properties": {}}, {"type": "Feature", "geometry": {"type": "Point", "coordinates": [5.65, 50.85]}, "properties": {}}, {"type": "Feature", "geometry": {"type": "Point", "coordinates": [6.05, 53.0]}, "properties": {}}, {"type": "Feature", "geometry": {"type": "Point", "coordinates": [5.65, 50.85]}, "properties": {}}, {"type": "Feature", "geometry": {"type": "Point", "coordinates": [6.1, 51.9]}, "properties": {}}, {"type": "Feature", "geometry": {"type": "Point", "coordinates": [5.65, 50.85]}, "properties": {}}, {"type": "Feature", "geometry": {"type": "Point", "coordinates": [15.11002, 58.33962]}, "properties": {}}, {"type": "Feature", "geometry": {"type": "Point", "coordinates": [46.168567, 51.596172]}, "properties": {}}, {"type": "Feature", "geometry": {"type": "Point", "coordinates": [-113.643212, 53.799888]}, "properties": {}}, {"type": "Feature", "geometry": {"type": "Point", "coordinates": [174.701864, -36.911323]}, "properties": {}}, {"type": "Feature", "geometry": {"type": "Point", "coordinates": [6.15, 53.0]}, "properties": {}}, {"type": "Feature", "geometry": {"type": "Point", "coordinates": [6.1, 51.9]}, "properties": {}}, {"type": "Feature", "geometry": {"type": "Point", "coordinates": [5.95, 50.85]}, "properties": {}}, {"type": "Feature", "geometry": {"type": "Point", "coordinates": [174.816463, -38.064977]}, "properties": {}}, {"type": "Feature", "geometry": {"type": "Point", "coordinates": [13.930386, 49.316521]}, "properties": {}}, {"type": "Feature", "geometry": {"type": "Point", "coordinates": [34.30267, 53.314743]}, "properties": {}}, {"type": "Feature", "geometry": {"type": "Point", "coordinates": [39.92725, 57.424189]}, "properties": {}}, {"type": "Feature", "geometry": {"type": "Point", "coordinates": [115.9898, -32.0509]}, "properties": {}}, {"type": "Feature", "geometry": {"type": "Point", "coordinates": [4.85, 52.35]}, "properties": {}}, {"type": "Feature", "geometry": {"type": "Point", "coordinates": [4.64377, 51.17569]}, "properties": {}}, {"type": "Feature", "geometry": {"type": "Point", "coordinates": [4.64374, 51.17572]}, "properties": {}}, {"type": "Feature", "geometry": {"type": "Point", "coordinates": [4.64372, 51.17567]}, "properties": {}}, {"type": "Feature", "geometry": {"type": "Point", "coordinates": [4.64359, 51.17569]}, "properties": {}}, {"type": "Feature", "geometry": {"type": "Point", "coordinates": [5.29075, 50.81262]}, "properties": {}}, {"type": "Feature", "geometry": {"type": "Point", "coordinates": [-113.538086, 53.44855]}, "properties": {}}, {"type": "Feature", "geometry": {"type": "Point", "coordinates": [-1.927489, 48.568256]}, "properties": {}}, {"type": "Feature", "geometry": {"type": "Point", "coordinates": [-4.148142, 50.366178]}, "properties": {}}, {"type": "Feature", "geometry": {"type": "Point", "coordinates": [10.117486, 56.087006]}, "properties": {}}, {"type": "Feature", "geometry": {"type": "Point", "coordinates": [5.05, 51.55]}, "properties": {}}, {"type": "Feature", "geometry": {"type": "Point", "coordinates": [6.65, 52.1]}, "properties": {}}, {"type": "Feature", "geometry": {"type": "Point", "coordinates": [11.45322, 50.644756]}, "properties": {}}, {"type": "Feature", "geometry": {"type": "Point", "coordinates": [106.94387, 47.906742]}, "properties": {}}, {"type": "Feature", "geometry": {"type": "Point", "coordinates": [-109.154555, 44.443337]}, "properties": {}}, {"type": "Feature", "geometry": {"type": "Point", "coordinates": [77.786239, 12.739389]}, "properties": {}}, {"type": "Feature", "geometry": {"type": "Point", "coordinates": [-81.187392, 42.704597]}, "properties": {}}, {"type": "Feature", "geometry": {"type": "Point", "coordinates": [-88.431702, 44.247925]}, "properties": {}}, {"type": "Feature", "geometry": {"type": "Point", "coordinates": [4.69664, 51.02437]}, "properties": {}}, {"type": "Feature", "geometry": {"type": "Point", "coordinates": [4.47328, 51.23525]}, "properties": {}}, {"type": "Feature", "geometry": {"type": "Point", "coordinates": [4.34865, 50.84309]}, "properties": {}}, {"type": "Feature", "geometry": {"type": "Point", "coordinates": [6.15, 52.2]}, "properties": {}}, {"type": "Feature", "geometry": {"type": "Point", "coordinates": [-113.512375, 53.537317]}, "properties": {}}, {"type": "Feature", "geometry": {"type": "Point", "coordinates": [25.757571, 60.270959]}, "properties": {}}, {"type": "Feature", "geometry": {"type": "Point", "coordinates": [4.3, 52.05]}, "properties": {}}, {"type": "Feature", "geometry": {"type": "Point", "coordinates": [5.1, 51.85]}, "properties": {}}, {"type": "Feature", "geometry": {"type": "Point", "coordinates": [5.5, 52.25]}, "properties": {}}, {"type": "Feature", "geometry": {"type": "Point", "coordinates": [13.06602, 55.61265]}, "properties": {}}, {"type": "Feature", "geometry": {"type": "Point", "coordinates": [66.595908, 66.525963]}, "properties": {}}, {"type": "Feature", "geometry": {"type": "Point", "coordinates": [12.836683, 46.819412]}, "properties": {}}, {"type": "Feature", "geometry": {"type": "Point", "coordinates": [13.18485, 55.72212]}, "properties": {}}, {"type": "Feature", "geometry": {"type": "Point", "coordinates": [12.95672, 56.6313]}, "properties": {}}, {"type": "Feature", "geometry": {"type": "Point", "coordinates": [5.45, 52.05]}, "properties": {}}, {"type": "Feature", "geometry": {"type": "Point", "coordinates": [174.826204, -41.285698]}, "properties": {}}, {"type": "Feature", "geometry": {"type": "Point", "coordinates": [4.49559, 51.32475]}, "properties": {}}, {"type": "Feature", "geometry": {"type": "Point", "coordinates": [-70.761337, -30.124968]}, "properties": {}}, {"type": "Feature", "geometry": {"type": "Point", "coordinates": [-98.458243, 29.457275]}, "properties": {}}, {"type": "Feature", "geometry": {"type": "Point", "coordinates": [144.792892, -38.386928]}, "properties": {}}, {"type": "Feature", "geometry": {"type": "Point", "coordinates": [-5.443352, 36.114762]}, "properties": {}}, {"type": "Feature", "geometry": {"type": "Point", "coordinates": [5.25, 52.7]}, "properties": {}}, {"type": "Feature", "geometry": {"type": "Point", "coordinates": [12.95669, 56.6325]}, "properties": {}}, {"type": "Feature", "geometry": {"type": "Point", "coordinates": [-77.002956, 39.053907]}, "properties": {}}, {"type": "Feature", "geometry": {"type": "Point", "coordinates": [3.78982, 51.00778]}, "properties": {}}, {"type": "Feature", "geometry": {"type": "Point", "coordinates": [4.3849, 51.19083]}, "properties": {}}, {"type": "Feature", "geometry": {"type": "Point", "coordinates": [11.486805, 43.825353]}, "properties": {}}, {"type": "Feature", "geometry": {"type": "Point", "coordinates": [-169.849686, -19.060055]}, "properties": {}}, {"type": "Feature", "geometry": {"type": "Point", "coordinates": [3.238901, 45.759493]}, "properties": {}}, {"type": "Feature", "geometry": {"type": "Point", "coordinates": [-4.793565, 41.606067]}, "properties": {}}, {"type": "Feature", "geometry": {"type": "Point", "coordinates": [3.239012, 45.759509]}, "properties": {}}, {"type": "Feature", "geometry": {"type": "Point", "coordinates": [3.339975, 47.99028]}, "properties": {}}, {"type": "Feature", "geometry": {"type": "Point", "coordinates": [6.627252, 50.704868]}, "properties": {}}, {"type": "Feature", "geometry": {"type": "Point", "coordinates": [4.587662, 51.99903]}, "properties": {}}, {"type": "Feature", "geometry": {"type": "Point", "coordinates": [5.271936, 45.329947]}, "properties": {}}, {"type": "Feature", "geometry": {"type": "Point", "coordinates": [-0.859071, 44.539425]}, "properties": {}}, {"type": "Feature", "geometry": {"type": "Point", "coordinates": [-3.377856, 47.739184]}, "properties": {}}, {"type": "Feature", "geometry": {"type": "Point", "coordinates": [71.507159, 30.265445]}, "properties": {}}, {"type": "Feature", "geometry": {"type": "Point", "coordinates": [174.798972, -41.295045]}, "properties": {}}, {"type": "Feature", "geometry": {"type": "Point", "coordinates": [-87.595872, 41.777467]}, "properties": {}}, {"type": "Feature", "geometry": {"type": "Point", "coordinates": [2.90642, 51.22115]}, "properties": {}}, {"type": "Feature", "geometry": {"type": "Point", "coordinates": [13.052905, 47.795862]}, "properties": {}}, {"type": "Feature", "geometry": {"type": "Point", "coordinates": [13.0529, 47.79586]}, "properties": {}}, {"type": "Feature", "geometry": {"type": "Point", "coordinates": [-112.320803, 42.228831]}, "properties": {}}, {"type": "Feature", "geometry": {"type": "Point", "coordinates": [37.4087, 54.632528]}, "properties": {}}, {"type": "Feature", "geometry": {"type": "Point", "coordinates": [15.475203, 45.718355]}, "properties": {}}, {"type": "Feature", "geometry": {"type": "Point", "coordinates": [11.281263, 43.744075]}, "properties": {}}, {"type": "Feature", "geometry": {"type": "Point", "coordinates": [-3.695921, 41.579984]}, "properties": {}}, {"type": "Feature", "geometry": {"type": "Point", "coordinates": [5.01597, 52.61615]}, "properties": {}}, {"type": "Feature", "geometry": {"type": "Point", "coordinates": [13.05277, 47.79583]}, "properties": {}}, {"type": "Feature", "geometry": {"type": "Point", "coordinates": [22.654054, 48.207379]}, "properties": {}}, {"type": "Feature", "geometry": {"type": "Point", "coordinates": [4.10532, 51.04413]}, "properties": {}}, {"type": "Feature", "geometry": {"type": "Point", "coordinates": [4.25, 52.05]}, "properties": {}}, {"type": "Feature", "geometry": {"type": "Point", "coordinates": [5.65, 51.95]}, "properties": {}}, {"type": "Feature", "geometry": {"type": "Point", "coordinates": [27.162473, 45.694947]}, "properties": {}}, {"type": "Feature", "geometry": {"type": "Point", "coordinates": [4.496565, 52.257267]}, "properties": {}}, {"type": "Feature", "geometry": {"type": "Point", "coordinates": [3.009803, 49.37725]}, "properties": {}}, {"type": "Feature", "geometry": {"type": "Point", "coordinates": [-62.62175, -16.910595]}, "properties": {}}, {"type": "Feature", "geometry": {"type": "Point", "coordinates": [-0.715833, 45.769167]}, "properties": {}}, {"type": "Feature", "geometry": {"type": "Point", "coordinates": [-0.37, 39.48]}, "properties": {}}, {"type": "Feature", "geometry": {"type": "Point", "coordinates": [30.698303, -24.527188]}, "properties": {}}, {"type": "Feature", "geometry": {"type": "Point", "coordinates": [20.487147, 54.956602]}, "properties": {}}, {"type": "Feature", "geometry": {"type": "Point", "coordinates": [-76.534119, 39.703735]}, "properties": {}}, {"type": "Feature", "geometry": {"type": "Point", "coordinates": [4.40924, 51.23028]}, "properties": {}}, {"type": "Feature", "geometry": {"type": "Point", "coordinates": [4.40189, 51.20156]}, "properties": {}}, {"type": "Feature", "geometry": {"type": "Point", "coordinates": [2.81806, 51.12752]}, "properties": {}}, {"type": "Feature", "geometry": {"type": "Point", "coordinates": [3.21048, 51.26989]}, "properties": {}}, {"type": "Feature", "geometry": {"type": "Point", "coordinates": [30.229632, 50.540239]}, "properties": {}}, {"type": "Feature", "geometry": {"type": "Point", "coordinates": [42.991765, 55.499474]}, "properties": {}}, {"type": "Feature", "geometry": {"type": "Point", "coordinates": [12.90563, 56.6585]}, "properties": {}}, {"type": "Feature", "geometry": {"type": "Point", "coordinates": [-38.920556, -12.251389]}, "properties": {}}, {"type": "Feature", "geometry": {"type": "Point", "coordinates": [145.318953, -37.796247]}, "properties": {}}, {"type": "Feature", "geometry": {"type": "Point", "coordinates": [31.572439, 49.970528]}, "properties": {}}, {"type": "Feature", "geometry": {"type": "Point", "coordinates": [34.7753, 50.8967]}, "properties": {}}, {"type": "Feature", "geometry": {"type": "Point", "coordinates": [1.848603, 45.420919]}, "properties": {}}, {"type": "Feature", "geometry": {"type": "Point", "coordinates": [6.442129, 52.619508]}, "properties": {}}, {"type": "Feature", "geometry": {"type": "Point", "coordinates": [9.191945, 51.455238]}, "properties": {}}, {"type": "Feature", "geometry": {"type": "Point", "coordinates": [-78.833764, 43.926945]}, "properties": {}}, {"type": "Feature", "geometry": {"type": "Point", "coordinates": [-79.828794, 43.684409]}, "properties": {}}, {"type": "Feature", "geometry": {"type": "Point", "coordinates": [-85.564422, 42.118883]}, "properties": {}}, {"type": "Feature", "geometry": {"type": "Point", "coordinates": [12.476424, 55.765597]}, "properties": {}}, {"type": "Feature", "geometry": {"type": "Point", "coordinates": [14.2594, 55.44728]}, "properties": {}}, {"type": "Feature", "geometry": {"type": "Point", "coordinates": [-74.019546, 41.520153]}, "properties": {}}, {"type": "Feature", "geometry": {"type": "Point", "coordinates": [101.791382, 3.423241]}, "properties": {}}, {"type": "Feature", "geometry": {"type": "Point", "coordinates": [4.34339, 50.88309]}, "properties": {}}, {"type": "Feature", "geometry": {"type": "Point", "coordinates": [4.37123, 50.87579]}, "properties": {}}, {"type": "Feature", "geometry": {"type": "Point", "coordinates": [4.37118, 50.8759]}, "properties": {}}, {"type": "Feature", "geometry": {"type": "Point", "coordinates": [2.93672, 51.23769]}, "properties": {}}, {"type": "Feature", "geometry": {"type": "Point", "coordinates": [2.84777, 51.03141]}, "properties": {}}, {"type": "Feature", "geometry": {"type": "Point", "coordinates": [-89.607917, -0.903058]}, "properties": {}}, {"type": "Feature", "geometry": {"type": "Point", "coordinates": [5.2, 52.05]}, "properties": {}}, {"type": "Feature", "geometry": {"type": "Point", "coordinates": [5.1, 52.05]}, "properties": {}}, {"type": "Feature", "geometry": {"type": "Point", "coordinates": [5.0, 51.55]}, "properties": {}}, {"type": "Feature", "geometry": {"type": "Point", "coordinates": [13.60542, 56.32595]}, "properties": {}}, {"type": "Feature", "geometry": {"type": "Point", "coordinates": [4.35, 52.0]}, "properties": {}}, {"type": "Feature", "geometry": {"type": "Point", "coordinates": [4.35, 52.0]}, "properties": {}}, {"type": "Feature", "geometry": {"type": "Point", "coordinates": [20.487127, 54.956718]}, "properties": {}}, {"type": "Feature", "geometry": {"type": "Point", "coordinates": [7.60236, 46.79355]}, "properties": {}}, {"type": "Feature", "geometry": {"type": "Point", "coordinates": [19.272278, 47.596525]}, "properties": {}}, {"type": "Feature", "geometry": {"type": "Point", "coordinates": [13.415461, 54.095985]}, "properties": {}}, {"type": "Feature", "geometry": {"type": "Point", "coordinates": [-113.569983, 53.513325]}, "properties": {}}, {"type": "Feature", "geometry": {"type": "Point", "coordinates": [10.5856, 55.313225]}, "properties": {}}, {"type": "Feature", "geometry": {"type": "Point", "coordinates": [2.92116, 51.23164]}, "properties": {}}, {"type": "Feature", "geometry": {"type": "Point", "coordinates": [2.92248, 51.23233]}, "properties": {}}, {"type": "Feature", "geometry": {"type": "Point", "coordinates": [2.92104, 51.2318]}, "properties": {}}, {"type": "Feature", "geometry": {"type": "Point", "coordinates": [4.335, 50.86825]}, "properties": {}}, {"type": "Feature", "geometry": {"type": "Point", "coordinates": [21.75404, 65.80444]}, "properties": {}}, {"type": "Feature", "geometry": {"type": "Point", "coordinates": [3.8145, 51.14546]}, "properties": {}}, {"type": "Feature", "geometry": {"type": "Point", "coordinates": [2.921192, 51.23181]}, "properties": {}}, {"type": "Feature", "geometry": {"type": "Point", "coordinates": [2.921151, 51.23166]}, "properties": {}}, {"type": "Feature", "geometry": {"type": "Point", "coordinates": [103.712749, 52.496841]}, "properties": {}}, {"type": "Feature", "geometry": {"type": "Point", "coordinates": [25.285879, 53.879694]}, "properties": {}}, {"type": "Feature", "geometry": {"type": "Point", "coordinates": [-82.367127, 41.409153]}, "properties": {}}, {"type": "Feature", "geometry": {"type": "Point", "coordinates": [10.249083, 48.870071]}, "properties": {}}, {"type": "Feature", "geometry": {"type": "Point", "coordinates": [-81.495171, 40.834343]}, "properties": {}}, {"type": "Feature", "geometry": {"type": "Point", "coordinates": [12.90563, 56.6585]}, "properties": {}}, {"type": "Feature", "geometry": {"type": "Point", "coordinates": [-71.16905, 42.474226]}, "properties": {}}, {"type": "Feature", "geometry": {"type": "Point", "coordinates": [13.06617, 55.61275]}, "properties": {}}, {"type": "Feature", "geometry": {"type": "Point", "coordinates": [16.47237, 56.66277]}, "properties": {}}, {"type": "Feature", "geometry": {"type": "Point", "coordinates": [13.06637, 55.6127]}, "properties": {}}, {"type": "Feature", "geometry": {"type": "Point", "coordinates": [-90.26222, 38.58804]}, "properties": {}}, {"type": "Feature", "geometry": {"type": "Point", "coordinates": [7.345395, 48.933845]}, "properties": {}}, {"type": "Feature", "geometry": {"type": "Point", "coordinates": [3.17792, 51.32794]}, "properties": {}}, {"type": "Feature", "geometry": {"type": "Point", "coordinates": [3.17791, 51.32798]}, "properties": {}}, {"type": "Feature", "geometry": {"type": "Point", "coordinates": [5.8, 50.75]}, "properties": {}}, {"type": "Feature", "geometry": {"type": "Point", "coordinates": [10.032538, 56.461914]}, "properties": {}}, {"type": "Feature", "geometry": {"type": "Point", "coordinates": [129.718508, 62.029022]}, "properties": {}}, {"type": "Feature", "geometry": {"type": "Point", "coordinates": [-86.871178, 40.384138]}, "properties": {}}, {"type": "Feature", "geometry": {"type": "Point", "coordinates": [-2.460808, 50.711709]}, "properties": {}}, {"type": "Feature", "geometry": {"type": "Point", "coordinates": [31.376864, -28.877392]}, "properties": {}}, {"type": "Feature", "geometry": {"type": "Point", "coordinates": [-121.982124, 47.853699]}, "properties": {}}, {"type": "Feature", "geometry": {"type": "Point", "coordinates": [6.55, 52.5]}, "properties": {}}, {"type": "Feature", "geometry": {"type": "Point", "coordinates": [12.931861, 50.792519]}, "properties": {}}, {"type": "Feature", "geometry": {"type": "Point", "coordinates": [-103.326282, 20.652882]}, "properties": {}}, {"type": "Feature", "geometry": {"type": "Point", "coordinates": [6.8931, 51.506517]}, "properties": {}}, {"type": "Feature", "geometry": {"type": "Point", "coordinates": [-0.542361, 40.185789]}, "properties": {}}, {"type": "Feature", "geometry": {"type": "Point", "coordinates": [6.893103, 51.506511]}, "properties": {}}, {"type": "Feature", "geometry": {"type": "Point", "coordinates": [23.648245, 63.534841]}, "properties": {}}, {"type": "Feature", "geometry": {"type": "Point", "coordinates": [24.62171, 59.36663]}, "properties": {}}, {"type": "Feature", "geometry": {"type": "Point", "coordinates": [24.62171, 59.36663]}, "properties": {}}, {"type": "Feature", "geometry": {"type": "Point", "coordinates": [24.62171, 59.36663]}, "properties": {}}, {"type": "Feature", "geometry": {"type": "Point", "coordinates": [168.234845, -16.641967]}, "properties": {}}, {"type": "Feature", "geometry": {"type": "Point", "coordinates": [13.06595, 55.61286]}, "properties": {}}, {"type": "Feature", "geometry": {"type": "Point", "coordinates": [172.611535, -43.570343]}, "properties": {}}, {"type": "Feature", "geometry": {"type": "Point", "coordinates": [5.45, 52.2]}, "properties": {}}, {"type": "Feature", "geometry": {"type": "Point", "coordinates": [4.45, 52.15]}, "properties": {}}, {"type": "Feature", "geometry": {"type": "Point", "coordinates": [4.75, 52.3]}, "properties": {}}, {"type": "Feature", "geometry": {"type": "Point", "coordinates": [-54.477274, 49.556256]}, "properties": {}}, {"type": "Feature", "geometry": {"type": "Point", "coordinates": [4.65, 51.75]}, "properties": {}}, {"type": "Feature", "geometry": {"type": "Point", "coordinates": [-39.583333, -13.016667]}, "properties": {}}, {"type": "Feature", "geometry": {"type": "Point", "coordinates": [8.26969, 47.60021]}, "properties": {}}, {"type": "Feature", "geometry": {"type": "Point", "coordinates": [12.845963, 46.83727]}, "properties": {}}, {"type": "Feature", "geometry": {"type": "Point", "coordinates": [6.05, 52.5]}, "properties": {}}, {"type": "Feature", "geometry": {"type": "Point", "coordinates": [5.2, 51.55]}, "properties": {}}, {"type": "Feature", "geometry": {"type": "Point", "coordinates": [-6.013842, 39.009617]}, "properties": {}}, {"type": "Feature", "geometry": {"type": "Point", "coordinates": [4.469098, 45.886105]}, "properties": {}}, {"type": "Feature", "geometry": {"type": "Point", "coordinates": [-84.099311, 9.919616]}, "properties": {}}, {"type": "Feature", "geometry": {"type": "Point", "coordinates": [3.17795, 51.32797]}, "properties": {}}, {"type": "Feature", "geometry": {"type": "Point", "coordinates": [-6.013861, 39.009647]}, "properties": {}}, {"type": "Feature", "geometry": {"type": "Point", "coordinates": [-114.773619, 32.500357]}, "properties": {}}, {"type": "Feature", "geometry": {"type": "Point", "coordinates": [-77.230492, 38.711088]}, "properties": {}}, {"type": "Feature", "geometry": {"type": "Point", "coordinates": [3.8, 51.3]}, "properties": {}}, {"type": "Feature", "geometry": {"type": "Point", "coordinates": [-0.895775, 44.520793]}, "properties": {}}, {"type": "Feature", "geometry": {"type": "Point", "coordinates": [-77.057087, -12.068324]}, "properties": {}}, {"type": "Feature", "geometry": {"type": "Point", "coordinates": [-0.803391, 38.244504]}, "properties": {}}, {"type": "Feature", "geometry": {"type": "Point", "coordinates": [-96.680122, 29.910004]}, "properties": {}}, {"type": "Feature", "geometry": {"type": "Point", "coordinates": [7.950153, 51.616657]}, "properties": {}}, {"type": "Feature", "geometry": {"type": "Point", "coordinates": [12.855122, 45.903736]}, "properties": {}}, {"type": "Feature", "geometry": {"type": "Point", "coordinates": [-87.859507, 30.568513]}, "properties": {}}, {"type": "Feature", "geometry": {"type": "Point", "coordinates": [5.84543, 50.59113]}, "properties": {}}]}