{"type": "FeatureCollection", "name": "Petasites albus Gaertn.", "features": [{"type": "Feature", "geometry": {"type": "Point", "coordinates": [7.889538, 45.15316]}, "properties": {}}, {"type": "Feature", "geometry": {"type": "Point", "coordinates": [7.960502, 58.111027]}, "properties": {}}, {"type": "Feature", "geometry": {"type": "Point", "coordinates": [7.960502, 58.111027]}, "properties": {}}, {"type": "Feature", "geometry": {"type": "Point", "coordinates": [15.9907, 47.575549]}, "properties": {}}, {"type": "Feature", "geometry": {"type": "Point", "coordinates": [14.533089, 46.031673]}, "properties": {}}, {"type": "Feature", "geometry": {"type": "Point", "coordinates": [12.588445, 47.356658]}, "properties": {}}, {"type": "Feature", "geometry": {"type": "Point", "coordinates": [13.12154, 47.800993]}, "properties": {}}, {"type": "Feature", "geometry": {"type": "Point", "coordinates": [15.497528, 46.873173]}, "properties": {}}, {"type": "Feature", "geometry": {"type": "Point", "coordinates": [39.874852, 43.527175]}, "properties": {}}, {"type": "Feature", "geometry": {"type": "Point", "coordinates": [15.493808, 46.874717]}, "properties": {}}, {"type": "Feature", "geometry": {"type": "Point", "coordinates": [8.279276, 45.748138]}, "properties": {}}, {"type": "Feature", "geometry": {"type": "Point", "coordinates": [11.220105, 45.698243]}, "properties": {}}, {"type": "Feature", "geometry": {"type": "Point", "coordinates": [15.493747, 46.874895]}, "properties": {}}, {"type": "Feature", "geometry": {"type": "Point", "coordinates": [9.913931, 45.965558]}, "properties": {}}, {"type": "Feature", "geometry": {"type": "Point", "coordinates": [9.624893, 45.996672]}, "properties": {}}, {"type": "Feature", "geometry": {"type": "Point", "coordinates": [14.113411, 47.382853]}, "properties": {}}, {"type": "Feature", "geometry": {"type": "Point", "coordinates": [8.370233, 47.402598]}, "properties": {}}, {"type": "Feature", "geometry": {"type": "Point", "coordinates": [9.551183, 45.8364]}, "properties": {}}, {"type": "Feature", "geometry": {"type": "Point", "coordinates": [-3.2322, 57.468895]}, "properties": {}}, {"type": "Feature", "geometry": {"type": "Point", "coordinates": [-2.124454, 57.174869]}, "properties": {}}, {"type": "Feature", "geometry": {"type": "Point", "coordinates": [15.286402, 45.980523]}, "properties": {}}, {"type": "Feature", "geometry": {"type": "Point", "coordinates": [39.875393, 43.526828]}, "properties": {}}, {"type": "Feature", "geometry": {"type": "Point", "coordinates": [9.430657, 45.875853]}, "properties": {}}, {"type": "Feature", "geometry": {"type": "Point", "coordinates": [15.91379, 45.845433]}, "properties": {}}, {"type": "Feature", "geometry": {"type": "Point", "coordinates": [11.905883, 47.462602]}, "properties": {}}, {"type": "Feature", "geometry": {"type": "Point", "coordinates": [23.128926, 45.14904]}, "properties": {}}, {"type": "Feature", "geometry": {"type": "Point", "coordinates": [15.334997, 46.658912]}, "properties": {}}, {"type": "Feature", "geometry": {"type": "Point", "coordinates": [10.157475, 45.629325]}, "properties": {}}, {"type": "Feature", "geometry": {"type": "Point", "coordinates": [12.267761, 47.432053]}, "properties": {}}, {"type": "Feature", "geometry": {"type": "Point", "coordinates": [5.25, 51.8]}, "properties": {}}, {"type": "Feature", "geometry": {"type": "Point", "coordinates": [13.236888, 47.783846]}, "properties": {}}, {"type": "Feature", "geometry": {"type": "Point", "coordinates": [12.884084, 47.298931]}, "properties": {}}, {"type": "Feature", "geometry": {"type": "Point", "coordinates": [14.203011, 47.113822]}, "properties": {}}, {"type": "Feature", "geometry": {"type": "Point", "coordinates": [12.886588, 47.302926]}, "properties": {}}, {"type": "Feature", "geometry": {"type": "Point", "coordinates": [9.758503, 47.474433]}, "properties": {}}, {"type": "Feature", "geometry": {"type": "Point", "coordinates": [5.0, 52.15]}, "properties": {}}, {"type": "Feature", "geometry": {"type": "Point", "coordinates": [14.04528, 47.918236]}, "properties": {}}, {"type": "Feature", "geometry": {"type": "Point", "coordinates": [13.476545, 48.107447]}, "properties": {}}, {"type": "Feature", "geometry": {"type": "Point", "coordinates": [12.886584, 47.303105]}, "properties": {}}, {"type": "Feature", "geometry": {"type": "Point", "coordinates": [5.0, 52.15]}, "properties": {}}, {"type": "Feature", "geometry": {"type": "Point", "coordinates": [14.03769, 47.924374]}, "properties": {}}, {"type": "Feature", "geometry": {"type": "Point", "coordinates": [5.85, 51.8]}, "properties": {}}, {"type": "Feature", "geometry": {"type": "Point", "coordinates": [12.885557, 47.300459]}, "properties": {}}, {"type": "Feature", "geometry": {"type": "Point", "coordinates": [15.117376, 48.257584]}, "properties": {}}, {"type": "Feature", "geometry": {"type": "Point", "coordinates": [12.885563, 47.300532]}, "properties": {}}, {"type": "Feature", "geometry": {"type": "Point", "coordinates": [14.273003, 46.428873]}, "properties": {}}, {"type": "Feature", "geometry": {"type": "Point", "coordinates": [2.604313, 45.152803]}, "properties": {}}, {"type": "Feature", "geometry": {"type": "Point", "coordinates": [7.726663, 46.745923]}, "properties": {}}, {"type": "Feature", "geometry": {"type": "Point", "coordinates": [2.601751, 45.152516]}, "properties": {}}, {"type": "Feature", "geometry": {"type": "Point", "coordinates": [9.635577, 45.913926]}, "properties": {}}, {"type": "Feature", "geometry": {"type": "Point", "coordinates": [14.140997, 46.650522]}, "properties": {}}, {"type": "Feature", "geometry": {"type": "Point", "coordinates": [15.329886, 47.260874]}, "properties": {}}, {"type": "Feature", "geometry": {"type": "Point", "coordinates": [23.13432, 45.140983]}, "properties": {}}, {"type": "Feature", "geometry": {"type": "Point", "coordinates": [9.762203, 47.427169]}, "properties": {}}, {"type": "Feature", "geometry": {"type": "Point", "coordinates": [12.812067, 46.842963]}, "properties": {}}, {"type": "Feature", "geometry": {"type": "Point", "coordinates": [39.985152, 43.506543]}, "properties": {}}, {"type": "Feature", "geometry": {"type": "Point", "coordinates": [13.448839, 47.798647]}, "properties": {}}, {"type": "Feature", "geometry": {"type": "Point", "coordinates": [41.877912, 41.661672]}, "properties": {}}, {"type": "Feature", "geometry": {"type": "Point", "coordinates": [11.344692, 47.275977]}, "properties": {}}, {"type": "Feature", "geometry": {"type": "Point", "coordinates": [9.777922, 47.499446]}, "properties": {}}, {"type": "Feature", "geometry": {"type": "Point", "coordinates": [12.86117, 47.607012]}, "properties": {}}, {"type": "Feature", "geometry": {"type": "Point", "coordinates": [-2.898131, 53.380273]}, "properties": {}}, {"type": "Feature", "geometry": {"type": "Point", "coordinates": [9.470705, 47.10852]}, "properties": {}}, {"type": "Feature", "geometry": {"type": "Point", "coordinates": [2.735131, 45.576267]}, "properties": {}}, {"type": "Feature", "geometry": {"type": "Point", "coordinates": [12.817038, 46.841847]}, "properties": {}}, {"type": "Feature", "geometry": {"type": "Point", "coordinates": [23.374772, 42.149332]}, "properties": {}}, {"type": "Feature", "geometry": {"type": "Point", "coordinates": [16.035145, 47.48848]}, "properties": {}}, {"type": "Feature", "geometry": {"type": "Point", "coordinates": [-2.898151, 53.380307]}, "properties": {}}, {"type": "Feature", "geometry": {"type": "Point", "coordinates": [39.806105, 43.566563]}, "properties": {}}, {"type": "Feature", "geometry": {"type": "Point", "coordinates": [16.035205, 47.488443]}, "properties": {}}, {"type": "Feature", "geometry": {"type": "Point", "coordinates": [11.106925, 47.504872]}, "properties": {}}, {"type": "Feature", "geometry": {"type": "Point", "coordinates": [14.893304, 45.427705]}, "properties": {}}, {"type": "Feature", "geometry": {"type": "Point", "coordinates": [14.140997, 46.650522]}, "properties": {}}, {"type": "Feature", "geometry": {"type": "Point", "coordinates": [9.750833, 47.387222]}, "properties": {}}, {"type": "Feature", "geometry": {"type": "Point", "coordinates": [13.035008, 47.687758]}, "properties": {}}, {"type": "Feature", "geometry": {"type": "Point", "coordinates": [2.822804, 45.629637]}, "properties": {}}, {"type": "Feature", "geometry": {"type": "Point", "coordinates": [-2.788364, 55.949534]}, "properties": {}}, {"type": "Feature", "geometry": {"type": "Point", "coordinates": [5.974078, 46.672956]}, "properties": {}}, {"type": "Feature", "geometry": {"type": "Point", "coordinates": [39.690388, 43.804636]}, "properties": {}}, {"type": "Feature", "geometry": {"type": "Point", "coordinates": [-2.659796, 55.997709]}, "properties": {}}, {"type": "Feature", "geometry": {"type": "Point", "coordinates": [15.609911, 44.895147]}, "properties": {}}, {"type": "Feature", "geometry": {"type": "Point", "coordinates": [14.606642, 45.350804]}, "properties": {}}, {"type": "Feature", "geometry": {"type": "Point", "coordinates": [10.813788, 44.142086]}, "properties": {}}, {"type": "Feature", "geometry": {"type": "Point", "coordinates": [15.704263, 46.908823]}, "properties": {}}, {"type": "Feature", "geometry": {"type": "Point", "coordinates": [11.74488, 43.867416]}, "properties": {}}, {"type": "Feature", "geometry": {"type": "Point", "coordinates": [8.487679, 47.361099]}, "properties": {}}, {"type": "Feature", "geometry": {"type": "Point", "coordinates": [11.383674, 45.76091]}, "properties": {}}, {"type": "Feature", "geometry": {"type": "Point", "coordinates": [13.448839, 47.798647]}, "properties": {}}, {"type": "Feature", "geometry": {"type": "Point", "coordinates": [39.818661, 43.632243]}, "properties": {}}, {"type": "Feature", "geometry": {"type": "Point", "coordinates": [8.129393, 48.100915]}, "properties": {}}, {"type": "Feature", "geometry": {"type": "Point", "coordinates": [14.580024, 46.328827]}, "properties": {}}, {"type": "Feature", "geometry": {"type": "Point", "coordinates": [14.265229, 46.434702]}, "properties": {}}, {"type": "Feature", "geometry": {"type": "Point", "coordinates": [14.261734, 46.237737]}, "properties": {}}, {"type": "Feature", "geometry": {"type": "Point", "coordinates": [-2.898131, 53.380273]}, "properties": {}}, {"type": "Feature", "geometry": {"type": "Point", "coordinates": [-2.898151, 53.380307]}, "properties": {}}, {"type": "Feature", "geometry": {"type": "Point", "coordinates": [13.12154, 47.800993]}, "properties": {}}, {"type": "Feature", "geometry": {"type": "Point", "coordinates": [12.588445, 47.356658]}, "properties": {}}, {"type": "Feature", "geometry": {"type": "Point", "coordinates": [15.117376, 48.257584]}, "properties": {}}, {"type": "Feature", "geometry": {"type": "Point", "coordinates": [11.483166, 47.304495]}, "properties": {}}, {"type": "Feature", "geometry": {"type": "Point", "coordinates": [9.354512, 55.232874]}, "properties": {}}, {"type": "Feature", "geometry": {"type": "Point", "coordinates": [9.398604, 55.226012]}, "properties": {}}, {"type": "Feature", "geometry": {"type": "Point", "coordinates": [9.534338, 55.020564]}, "properties": {}}, {"type": "Feature", "geometry": {"type": "Point", "coordinates": [13.145309, 47.700598]}, "properties": {}}, {"type": "Feature", "geometry": {"type": "Point", "coordinates": [11.955235, 47.405235]}, "properties": {}}, {"type": "Feature", "geometry": {"type": "Point", "coordinates": [13.710729, 47.855142]}, "properties": {}}, {"type": "Feature", "geometry": {"type": "Point", "coordinates": [14.283221, 47.923913]}, "properties": {}}, {"type": "Feature", "geometry": {"type": "Point", "coordinates": [13.339469, 47.953318]}, "properties": {}}, {"type": "Feature", "geometry": {"type": "Point", "coordinates": [12.198403, 47.530875]}, "properties": {}}, {"type": "Feature", "geometry": {"type": "Point", "coordinates": [13.222182, 47.884039]}, "properties": {}}, {"type": "Feature", "geometry": {"type": "Point", "coordinates": [9.925215, 47.151408]}, "properties": {}}, {"type": "Feature", "geometry": {"type": "Point", "coordinates": [12.234201, 47.461854]}, "properties": {}}, {"type": "Feature", "geometry": {"type": "Point", "coordinates": [12.824481, 47.362802]}, "properties": {}}, {"type": "Feature", "geometry": {"type": "Point", "coordinates": [13.914122, 48.720566]}, "properties": {}}, {"type": "Feature", "geometry": {"type": "Point", "coordinates": [13.11601, 47.807081]}, "properties": {}}, {"type": "Feature", "geometry": {"type": "Point", "coordinates": [9.778075, 47.465844]}, "properties": {}}, {"type": "Feature", "geometry": {"type": "Point", "coordinates": [6.55, 53.15]}, "properties": {}}, {"type": "Feature", "geometry": {"type": "Point", "coordinates": [13.333775, 47.954296]}, "properties": {}}, {"type": "Feature", "geometry": {"type": "Point", "coordinates": [10.179845, 47.351981]}, "properties": {}}, {"type": "Feature", "geometry": {"type": "Point", "coordinates": [8.208927, 47.739185]}, "properties": {}}, {"type": "Feature", "geometry": {"type": "Point", "coordinates": [13.201254, 47.44435]}, "properties": {}}, {"type": "Feature", "geometry": {"type": "Point", "coordinates": [13.243926, 47.462082]}, "properties": {}}, {"type": "Feature", "geometry": {"type": "Point", "coordinates": [11.876207, 47.332188]}, "properties": {}}, {"type": "Feature", "geometry": {"type": "Point", "coordinates": [12.030329, 47.440982]}, "properties": {}}, {"type": "Feature", "geometry": {"type": "Point", "coordinates": [16.049167, 47.164558]}, "properties": {}}, {"type": "Feature", "geometry": {"type": "Point", "coordinates": [4.5, 51.9]}, "properties": {}}, {"type": "Feature", "geometry": {"type": "Point", "coordinates": [6.55, 53.15]}, "properties": {}}, {"type": "Feature", "geometry": {"type": "Point", "coordinates": [13.058614, 47.706943]}, "properties": {}}, {"type": "Feature", "geometry": {"type": "Point", "coordinates": [13.142257, 47.65945]}, "properties": {}}, {"type": "Feature", "geometry": {"type": "Point", "coordinates": [4.3, 51.9]}, "properties": {}}, {"type": "Feature", "geometry": {"type": "Point", "coordinates": [5.0, 52.1]}, "properties": {}}, {"type": "Feature", "geometry": {"type": "Point", "coordinates": [13.332915, 47.954975]}, "properties": {}}, {"type": "Feature", "geometry": {"type": "Point", "coordinates": [14.207683, 47.114953]}, "properties": {}}, {"type": "Feature", "geometry": {"type": "Point", "coordinates": [11.832821, 47.164825]}, "properties": {}}, {"type": "Feature", "geometry": {"type": "Point", "coordinates": [15.69579, 47.564814]}, "properties": {}}, {"type": "Feature", "geometry": {"type": "Point", "coordinates": [15.780785, 47.24238]}, "properties": {}}, {"type": "Feature", "geometry": {"type": "Point", "coordinates": [13.913669, 48.720484]}, "properties": {}}, {"type": "Feature", "geometry": {"type": "Point", "coordinates": [4.7, 52.25]}, "properties": {}}, {"type": "Feature", "geometry": {"type": "Point", "coordinates": [13.33141, 47.956113]}, "properties": {}}, {"type": "Feature", "geometry": {"type": "Point", "coordinates": [13.379122, 47.857936]}, "properties": {}}, {"type": "Feature", "geometry": {"type": "Point", "coordinates": [13.20155, 47.441107]}, "properties": {}}, {"type": "Feature", "geometry": {"type": "Point", "coordinates": [11.346739, 47.276878]}, "properties": {}}, {"type": "Feature", "geometry": {"type": "Point", "coordinates": [13.320628, 47.328245]}, "properties": {}}, {"type": "Feature", "geometry": {"type": "Point", "coordinates": [13.333262, 47.955501]}, "properties": {}}, {"type": "Feature", "geometry": {"type": "Point", "coordinates": [6.65, 53.4]}, "properties": {}}, {"type": "Feature", "geometry": {"type": "Point", "coordinates": [13.710895, 47.863552]}, "properties": {}}, {"type": "Feature", "geometry": {"type": "Point", "coordinates": [13.50117, 47.40536]}, "properties": {}}, {"type": "Feature", "geometry": {"type": "Point", "coordinates": [13.861845, 46.669977]}, "properties": {}}, {"type": "Feature", "geometry": {"type": "Point", "coordinates": [8.131453, 47.460689]}, "properties": {}}, {"type": "Feature", "geometry": {"type": "Point", "coordinates": [15.354014, 47.882555]}, "properties": {}}, {"type": "Feature", "geometry": {"type": "Point", "coordinates": [7.267521, 48.188714]}, "properties": {}}, {"type": "Feature", "geometry": {"type": "Point", "coordinates": [13.495531, 49.123974]}, "properties": {}}, {"type": "Feature", "geometry": {"type": "Point", "coordinates": [8.491902, 47.3495]}, "properties": {}}, {"type": "Feature", "geometry": {"type": "Point", "coordinates": [15.593575, 46.89189]}, "properties": {}}, {"type": "Feature", "geometry": {"type": "Point", "coordinates": [9.56937, 46.989967]}, "properties": {}}, {"type": "Feature", "geometry": {"type": "Point", "coordinates": [39.055844, 44.441784]}, "properties": {}}, {"type": "Feature", "geometry": {"type": "Point", "coordinates": [16.043311, 48.206997]}, "properties": {}}, {"type": "Feature", "geometry": {"type": "Point", "coordinates": [6.734991, 47.096765]}, "properties": {}}, {"type": "Feature", "geometry": {"type": "Point", "coordinates": [-2.247272, 55.570503]}, "properties": {}}, {"type": "Feature", "geometry": {"type": "Point", "coordinates": [7.312974, 44.585543]}, "properties": {}}, {"type": "Feature", "geometry": {"type": "Point", "coordinates": [16.055989, 47.679517]}, "properties": {}}, {"type": "Feature", "geometry": {"type": "Point", "coordinates": [-3.012644, 56.314626]}, "properties": {}}, {"type": "Feature", "geometry": {"type": "Point", "coordinates": [-2.400842, 57.165401]}, "properties": {}}, {"type": "Feature", "geometry": {"type": "Point", "coordinates": [15.297107, 47.366061]}, "properties": {}}, {"type": "Feature", "geometry": {"type": "Point", "coordinates": [24.18729, 48.056636]}, "properties": {}}, {"type": "Feature", "geometry": {"type": "Point", "coordinates": [5.802274, 45.345056]}, "properties": {}}, {"type": "Feature", "geometry": {"type": "Point", "coordinates": [17.260989, 50.31034]}, "properties": {}}, {"type": "Feature", "geometry": {"type": "Point", "coordinates": [8.426587, 47.1228]}, "properties": {}}, {"type": "Feature", "geometry": {"type": "Point", "coordinates": [16.232709, 48.244398]}, "properties": {}}, {"type": "Feature", "geometry": {"type": "Point", "coordinates": [12.315241, 48.057789]}, "properties": {}}, {"type": "Feature", "geometry": {"type": "Point", "coordinates": [10.329662, 44.067818]}, "properties": {}}, {"type": "Feature", "geometry": {"type": "Point", "coordinates": [9.398537, 55.225952]}, "properties": {}}, {"type": "Feature", "geometry": {"type": "Point", "coordinates": [12.00747, 47.76022]}, "properties": {}}, {"type": "Feature", "geometry": {"type": "Point", "coordinates": [12.419911, 47.776485]}, "properties": {}}, {"type": "Feature", "geometry": {"type": "Point", "coordinates": [11.265278, 50.673019]}, "properties": {}}, {"type": "Feature", "geometry": {"type": "Point", "coordinates": [11.414853, 47.293133]}, "properties": {}}, {"type": "Feature", "geometry": {"type": "Point", "coordinates": [7.181065, 48.18483]}, "properties": {}}, {"type": "Feature", "geometry": {"type": "Point", "coordinates": [12.208709, 47.582912]}, "properties": {}}, {"type": "Feature", "geometry": {"type": "Point", "coordinates": [14.765842, 45.356208]}, "properties": {}}, {"type": "Feature", "geometry": {"type": "Point", "coordinates": [10.358012, 45.993113]}, "properties": {}}, {"type": "Feature", "geometry": {"type": "Point", "coordinates": [6.971262, 46.520683]}, "properties": {}}, {"type": "Feature", "geometry": {"type": "Point", "coordinates": [18.781676, 49.243538]}, "properties": {}}, {"type": "Feature", "geometry": {"type": "Point", "coordinates": [11.027506, 47.321592]}, "properties": {}}, {"type": "Feature", "geometry": {"type": "Point", "coordinates": [14.460029, 48.48031]}, "properties": {}}, {"type": "Feature", "geometry": {"type": "Point", "coordinates": [10.823879, 47.318817]}, "properties": {}}, {"type": "Feature", "geometry": {"type": "Point", "coordinates": [15.947903, 47.13191]}, "properties": {}}, {"type": "Feature", "geometry": {"type": "Point", "coordinates": [15.320697, 47.415161]}, "properties": {}}, {"type": "Feature", "geometry": {"type": "Point", "coordinates": [11.610367, 46.312955]}, "properties": {}}, {"type": "Feature", "geometry": {"type": "Point", "coordinates": [15.659962, 47.739197]}, "properties": {}}, {"type": "Feature", "geometry": {"type": "Point", "coordinates": [13.77274, 47.859918]}, "properties": {}}, {"type": "Feature", "geometry": {"type": "Point", "coordinates": [8.557411, 47.245683]}, "properties": {}}, {"type": "Feature", "geometry": {"type": "Point", "coordinates": [14.276331, 47.70025]}, "properties": {}}, {"type": "Feature", "geometry": {"type": "Point", "coordinates": [24.551856, 48.345054]}, "properties": {}}, {"type": "Feature", "geometry": {"type": "Point", "coordinates": [15.887505, 46.909702]}, "properties": {}}, {"type": "Feature", "geometry": {"type": "Point", "coordinates": [13.241262, 47.361503]}, "properties": {}}, {"type": "Feature", "geometry": {"type": "Point", "coordinates": [12.618523, 49.749919]}, "properties": {}}, {"type": "Feature", "geometry": {"type": "Point", "coordinates": [11.313287, 47.251026]}, "properties": {}}, {"type": "Feature", "geometry": {"type": "Point", "coordinates": [16.248264, 48.26022]}, "properties": {}}, {"type": "Feature", "geometry": {"type": "Point", "coordinates": [14.955894, 47.897012]}, "properties": {}}, {"type": "Feature", "geometry": {"type": "Point", "coordinates": [6.97846, 47.269353]}, "properties": {}}, {"type": "Feature", "geometry": {"type": "Point", "coordinates": [14.596479, 47.234965]}, "properties": {}}, {"type": "Feature", "geometry": {"type": "Point", "coordinates": [14.575626, 46.336499]}, "properties": {}}, {"type": "Feature", "geometry": {"type": "Point", "coordinates": [13.03421, 50.571353]}, "properties": {}}, {"type": "Feature", "geometry": {"type": "Point", "coordinates": [15.43832, 47.35281]}, "properties": {}}, {"type": "Feature", "geometry": {"type": "Point", "coordinates": [16.069423, 46.180178]}, "properties": {}}, {"type": "Feature", "geometry": {"type": "Point", "coordinates": [8.319107, 47.028889]}, "properties": {}}, {"type": "Feature", "geometry": {"type": "Point", "coordinates": [15.556203, 47.28174]}, "properties": {}}, {"type": "Feature", "geometry": {"type": "Point", "coordinates": [-2.151644, 57.137052]}, "properties": {}}, {"type": "Feature", "geometry": {"type": "Point", "coordinates": [16.268314, 48.255519]}, "properties": {}}, {"type": "Feature", "geometry": {"type": "Point", "coordinates": [12.476476, 47.739485]}, "properties": {}}, {"type": "Feature", "geometry": {"type": "Point", "coordinates": [12.747462, 46.861955]}, "properties": {}}, {"type": "Feature", "geometry": {"type": "Point", "coordinates": [19.820322, 50.186612]}, "properties": {}}, {"type": "Feature", "geometry": {"type": "Point", "coordinates": [13.862937, 48.161789]}, "properties": {}}, {"type": "Feature", "geometry": {"type": "Point", "coordinates": [11.370851, 47.289059]}, "properties": {}}, {"type": "Feature", "geometry": {"type": "Point", "coordinates": [13.889104, 47.891109]}, "properties": {}}, {"type": "Feature", "geometry": {"type": "Point", "coordinates": [15.371975, 47.107526]}, "properties": {}}, {"type": "Feature", "geometry": {"type": "Point", "coordinates": [19.05518, 49.764784]}, "properties": {}}, {"type": "Feature", "geometry": {"type": "Point", "coordinates": [11.346035, 47.27118]}, "properties": {}}, {"type": "Feature", "geometry": {"type": "Point", "coordinates": [16.051236, 48.120426]}, "properties": {}}, {"type": "Feature", "geometry": {"type": "Point", "coordinates": [11.416482, 47.24979]}, "properties": {}}, {"type": "Feature", "geometry": {"type": "Point", "coordinates": [11.587017, 46.313992]}, "properties": {}}, {"type": "Feature", "geometry": {"type": "Point", "coordinates": [12.463964, 47.576711]}, "properties": {}}, {"type": "Feature", "geometry": {"type": "Point", "coordinates": [16.046228, 47.66935]}, "properties": {}}, {"type": "Feature", "geometry": {"type": "Point", "coordinates": [14.369184, 46.101778]}, "properties": {}}, {"type": "Feature", "geometry": {"type": "Point", "coordinates": [14.911614, 47.27791]}, "properties": {}}, {"type": "Feature", "geometry": {"type": "Point", "coordinates": [5.86501, 46.364341]}, "properties": {}}, {"type": "Feature", "geometry": {"type": "Point", "coordinates": [14.867958, 45.345567]}, "properties": {}}, {"type": "Feature", "geometry": {"type": "Point", "coordinates": [15.382487, 47.085383]}, "properties": {}}, {"type": "Feature", "geometry": {"type": "Point", "coordinates": [15.239256, 47.146736]}, "properties": {}}, {"type": "Feature", "geometry": {"type": "Point", "coordinates": [15.561952, 48.314605]}, "properties": {}}, {"type": "Feature", "geometry": {"type": "Point", "coordinates": [15.083257, 47.360403]}, "properties": {}}, {"type": "Feature", "geometry": {"type": "Point", "coordinates": [8.437364, 47.998036]}, "properties": {}}, {"type": "Feature", "geometry": {"type": "Point", "coordinates": [7.742724, 43.967204]}, "properties": {}}, {"type": "Feature", "geometry": {"type": "Point", "coordinates": [16.003274, 47.585068]}, "properties": {}}, {"type": "Feature", "geometry": {"type": "Point", "coordinates": [6.362717, 46.2366]}, "properties": {}}, {"type": "Feature", "geometry": {"type": "Point", "coordinates": [16.043167, 47.584219]}, "properties": {}}, {"type": "Feature", "geometry": {"type": "Point", "coordinates": [14.713505, 46.50458]}, "properties": {}}, {"type": "Feature", "geometry": {"type": "Point", "coordinates": [13.608417, 48.083534]}, "properties": {}}, {"type": "Feature", "geometry": {"type": "Point", "coordinates": [18.638322, 49.531596]}, "properties": {}}, {"type": "Feature", "geometry": {"type": "Point", "coordinates": [11.359527, 47.771036]}, "properties": {}}, {"type": "Feature", "geometry": {"type": "Point", "coordinates": [13.539088, 49.130589]}, "properties": {}}, {"type": "Feature", "geometry": {"type": "Point", "coordinates": [11.031092, 47.320425]}, "properties": {}}, {"type": "Feature", "geometry": {"type": "Point", "coordinates": [8.228355, 48.126403]}, "properties": {}}, {"type": "Feature", "geometry": {"type": "Point", "coordinates": [6.727156, 46.945515]}, "properties": {}}, {"type": "Feature", "geometry": {"type": "Point", "coordinates": [13.490474, 47.379317]}, "properties": {}}, {"type": "Feature", "geometry": {"type": "Point", "coordinates": [19.781689, 50.099047]}, "properties": {}}, {"type": "Feature", "geometry": {"type": "Point", "coordinates": [19.949381, 49.263237]}, "properties": {}}, {"type": "Feature", "geometry": {"type": "Point", "coordinates": [13.966253, 47.961688]}, "properties": {}}, {"type": "Feature", "geometry": {"type": "Point", "coordinates": [9.343892, 45.932245]}, "properties": {}}, {"type": "Feature", "geometry": {"type": "Point", "coordinates": [14.225783, 48.655081]}, "properties": {}}, {"type": "Feature", "geometry": {"type": "Point", "coordinates": [8.431709, 47.970925]}, "properties": {}}, {"type": "Feature", "geometry": {"type": "Point", "coordinates": [14.028518, 51.071728]}, "properties": {}}, {"type": "Feature", "geometry": {"type": "Point", "coordinates": [13.780739, 48.462941]}, "properties": {}}, {"type": "Feature", "geometry": {"type": "Point", "coordinates": [14.537372, 46.132278]}, "properties": {}}, {"type": "Feature", "geometry": {"type": "Point", "coordinates": [13.566421, 46.781041]}, "properties": {}}, {"type": "Feature", "geometry": {"type": "Point", "coordinates": [11.740763, 47.164729]}, "properties": {}}, {"type": "Feature", "geometry": {"type": "Point", "coordinates": [15.645333, 47.25289]}, "properties": {}}, {"type": "Feature", "geometry": {"type": "Point", "coordinates": [16.132786, 47.329037]}, "properties": {}}, {"type": "Feature", "geometry": {"type": "Point", "coordinates": [15.759093, 47.226462]}, "properties": {}}, {"type": "Feature", "geometry": {"type": "Point", "coordinates": [7.859531, 47.953331]}, "properties": {}}, {"type": "Feature", "geometry": {"type": "Point", "coordinates": [11.87524, 47.74086]}, "properties": {}}, {"type": "Feature", "geometry": {"type": "Point", "coordinates": [15.645347, 47.241655]}, "properties": {}}, {"type": "Feature", "geometry": {"type": "Point", "coordinates": [-3.468322, 57.547383]}, "properties": {}}, {"type": "Feature", "geometry": {"type": "Point", "coordinates": [12.765189, 46.851074]}, "properties": {}}, {"type": "Feature", "geometry": {"type": "Point", "coordinates": [15.206695, 46.939749]}, "properties": {}}, {"type": "Feature", "geometry": {"type": "Point", "coordinates": [19.967034, 49.262679]}, "properties": {}}, {"type": "Feature", "geometry": {"type": "Point", "coordinates": [10.616892, 47.010506]}, "properties": {}}, {"type": "Feature", "geometry": {"type": "Point", "coordinates": [15.842463, 46.878883]}, "properties": {}}, {"type": "Feature", "geometry": {"type": "Point", "coordinates": [12.571725, 46.954455]}, "properties": {}}, {"type": "Feature", "geometry": {"type": "Point", "coordinates": [6.231892, 45.944313]}, "properties": {}}, {"type": "Feature", "geometry": {"type": "Point", "coordinates": [11.126235, 47.333675]}, "properties": {}}, {"type": "Feature", "geometry": {"type": "Point", "coordinates": [6.293786, 45.895172]}, "properties": {}}, {"type": "Feature", "geometry": {"type": "Point", "coordinates": [13.378397, 49.179753]}, "properties": {}}, {"type": "Feature", "geometry": {"type": "Point", "coordinates": [15.367686, 47.091916]}, "properties": {}}, {"type": "Feature", "geometry": {"type": "Point", "coordinates": [7.966582, 44.289852]}, "properties": {}}, {"type": "Feature", "geometry": {"type": "Point", "coordinates": [10.610493, 54.149234]}, "properties": {}}, {"type": "Feature", "geometry": {"type": "Point", "coordinates": [14.227978, 46.549784]}, "properties": {}}, {"type": "Feature", "geometry": {"type": "Point", "coordinates": [16.418517, 50.078322]}, "properties": {}}, {"type": "Feature", "geometry": {"type": "Point", "coordinates": [7.363333, 43.911264]}, "properties": {}}, {"type": "Feature", "geometry": {"type": "Point", "coordinates": [16.478049, 50.080705]}, "properties": {}}, {"type": "Feature", "geometry": {"type": "Point", "coordinates": [16.443728, 47.412978]}, "properties": {}}, {"type": "Feature", "geometry": {"type": "Point", "coordinates": [9.687337, 47.326738]}, "properties": {}}, {"type": "Feature", "geometry": {"type": "Point", "coordinates": [8.796902, 48.211805]}, "properties": {}}, {"type": "Feature", "geometry": {"type": "Point", "coordinates": [11.050555, 47.798273]}, "properties": {}}, {"type": "Feature", "geometry": {"type": "Point", "coordinates": [14.319743, 46.294263]}, "properties": {}}, {"type": "Feature", "geometry": {"type": "Point", "coordinates": [13.45928, 47.746512]}, "properties": {}}, {"type": "Feature", "geometry": {"type": "Point", "coordinates": [17.140419, 49.945683]}, "properties": {}}, {"type": "Feature", "geometry": {"type": "Point", "coordinates": [15.90906, 47.614048]}, "properties": {}}, {"type": "Feature", "geometry": {"type": "Point", "coordinates": [-2.635264, 55.73909]}, "properties": {}}, {"type": "Feature", "geometry": {"type": "Point", "coordinates": [14.369538, 46.365258]}, "properties": {}}, {"type": "Feature", "geometry": {"type": "Point", "coordinates": [15.905434, 47.614874]}, "properties": {}}, {"type": "Feature", "geometry": {"type": "Point", "coordinates": [12.762155, 46.854622]}, "properties": {}}, {"type": "Feature", "geometry": {"type": "Point", "coordinates": [6.2381, 45.880386]}, "properties": {}}, {"type": "Feature", "geometry": {"type": "Point", "coordinates": [10.791411, 47.463975]}, "properties": {}}, {"type": "Feature", "geometry": {"type": "Point", "coordinates": [14.808023, 45.730933]}, "properties": {}}, {"type": "Feature", "geometry": {"type": "Point", "coordinates": [14.76174, 47.766427]}, "properties": {}}, {"type": "Feature", "geometry": {"type": "Point", "coordinates": [14.802528, 46.180628]}, "properties": {}}, {"type": "Feature", "geometry": {"type": "Point", "coordinates": [12.204219, 46.747992]}, "properties": {}}, {"type": "Feature", "geometry": {"type": "Point", "coordinates": [15.950635, 47.134265]}, "properties": {}}, {"type": "Feature", "geometry": {"type": "Point", "coordinates": [11.346035, 47.27118]}, "properties": {}}, {"type": "Feature", "geometry": {"type": "Point", "coordinates": [11.324458, 47.613175]}, "properties": {}}]}