{"type": "FeatureCollection", "name": "Urtica dioica", "features": [{"type": "Feature", "geometry": {"type": "Point", "coordinates": [8.638679, 49.350803]}, "properties": {}}, {"type": "Feature", "geometry": {"type": "Point", "coordinates": [8.227386, 50.416176]}, "properties": {}}, {"type": "Feature", "geometry": {"type": "Point", "coordinates": [-1.071198, 53.955394]}, "properties": {}}, {"type": "Feature", "geometry": {"type": "Point", "coordinates": [-1.460485, 52.801793]}, "properties": {}}, {"type": "Feature", "geometry": {"type": "Point", "coordinates": [-2.938381, 53.383797]}, "properties": {}}, {"type": "Feature", "geometry": {"type": "Point", "coordinates": [-2.938049, 53.386319]}, "properties": {}}, {"type": "Feature", "geometry": {"type": "Point", "coordinates": [-1.084181, 53.96175]}, "properties": {}}, {"type": "Feature", "geometry": {"type": "Point", "coordinates": [31.25819, 58.499827]}, "properties": {}}, {"type": "Feature", "geometry": {"type": "Point", "coordinates": [-2.894762, 53.355002]}, "properties": {}}, {"type": "Feature", "geometry": {"type": "Point", "coordinates": [0.23774, 52.023343]}, "properties": {}}, {"type": "Feature", "geometry": {"type": "Point", "coordinates": [-1.369002, 52.25215]}, "properties": {}}, {"type": "Feature", "geometry": {"type": "Point", "coordinates": [16.271847, 48.000986]}, "properties": {}}, {"type": "Feature", "geometry": {"type": "Point", "coordinates": [31.295621, 58.51055]}, "properties": {}}, {"type": "Feature", "geometry": {"type": "Point", "coordinates": [3.597836, 50.844435]}, "properties": {}}, {"type": "Feature", "geometry": {"type": "Point", "coordinates": [41.497759, 49.895705]}, "properties": {}}, {"type": "Feature", "geometry": {"type": "Point", "coordinates": [-1.735472, 53.886497]}, "properties": {}}, {"type": "Feature", "geometry": {"type": "Point", "coordinates": [-1.137988, 52.978195]}, "properties": {}}, {"type": "Feature", "geometry": {"type": "Point", "coordinates": [6.143832, 46.264719]}, "properties": {}}, {"type": "Feature", "geometry": {"type": "Point", "coordinates": [6.141487, 46.257103]}, "properties": {}}, {"type": "Feature", "geometry": {"type": "Point", "coordinates": [2.333695, 48.819705]}, "properties": {}}, {"type": "Feature", "geometry": {"type": "Point", "coordinates": [31.324805, 58.511608]}, "properties": {}}, {"type": "Feature", "geometry": {"type": "Point", "coordinates": [-0.935207, 53.839588]}, "properties": {}}, {"type": "Feature", "geometry": {"type": "Point", "coordinates": [4.829058, 43.922906]}, "properties": {}}, {"type": "Feature", "geometry": {"type": "Point", "coordinates": [-1.072599, 53.960236]}, "properties": {}}, {"type": "Feature", "geometry": {"type": "Point", "coordinates": [-1.082812, 53.954202]}, "properties": {}}, {"type": "Feature", "geometry": {"type": "Point", "coordinates": [9.20274, 45.530011]}, "properties": {}}, {"type": "Feature", "geometry": {"type": "Point", "coordinates": [-8.230273, 40.303638]}, "properties": {}}, {"type": "Feature", "geometry": {"type": "Point", "coordinates": [-1.132287, 53.9966]}, "properties": {}}, {"type": "Feature", "geometry": {"type": "Point", "coordinates": [-2.769612, 51.483431]}, "properties": {}}, {"type": "Feature", "geometry": {"type": "Point", "coordinates": [-0.149436, 51.502841]}, "properties": {}}, {"type": "Feature", "geometry": {"type": "Point", "coordinates": [31.300556, 58.506548]}, "properties": {}}, {"type": "Feature", "geometry": {"type": "Point", "coordinates": [49.317142, 53.50975]}, "properties": {}}, {"type": "Feature", "geometry": {"type": "Point", "coordinates": [16.604913, 47.565892]}, "properties": {}}, {"type": "Feature", "geometry": {"type": "Point", "coordinates": [2.393718, 48.763864]}, "properties": {}}, {"type": "Feature", "geometry": {"type": "Point", "coordinates": [-1.103582, 53.961154]}, "properties": {}}, {"type": "Feature", "geometry": {"type": "Point", "coordinates": [11.213224, 48.185597]}, "properties": {}}, {"type": "Feature", "geometry": {"type": "Point", "coordinates": [16.276293, 47.999721]}, "properties": {}}, {"type": "Feature", "geometry": {"type": "Point", "coordinates": [1.003269, 52.782489]}, "properties": {}}, {"type": "Feature", "geometry": {"type": "Point", "coordinates": [46.428809, 55.495585]}, "properties": {}}, {"type": "Feature", "geometry": {"type": "Point", "coordinates": [10.303264, 43.617824]}, "properties": {}}, {"type": "Feature", "geometry": {"type": "Point", "coordinates": [-2.937278, 53.387265]}, "properties": {}}, {"type": "Feature", "geometry": {"type": "Point", "coordinates": [15.746932, 47.148362]}, "properties": {}}, {"type": "Feature", "geometry": {"type": "Point", "coordinates": [-4.515, 48.3975]}, "properties": {}}, {"type": "Feature", "geometry": {"type": "Point", "coordinates": [-1.100771, 53.955665]}, "properties": {}}, {"type": "Feature", "geometry": {"type": "Point", "coordinates": [-0.791076, 51.050008]}, "properties": {}}, {"type": "Feature", "geometry": {"type": "Point", "coordinates": [49.363678, 53.527833]}, "properties": {}}, {"type": "Feature", "geometry": {"type": "Point", "coordinates": [-1.076815, 53.9544]}, "properties": {}}, {"type": "Feature", "geometry": {"type": "Point", "coordinates": [38.716852, 55.346514]}, "properties": {}}, {"type": "Feature", "geometry": {"type": "Point", "coordinates": [-8.265912, 40.282069]}, "properties": {}}, {"type": "Feature", "geometry": {"type": "Point", "coordinates": [7.700678, 44.499416]}, "properties": {}}, {"type": "Feature", "geometry": {"type": "Point", "coordinates": [-1.133563, 53.996145]}, "properties": {}}, {"type": "Feature", "geometry": {"type": "Point", "coordinates": [-122.760405, 45.647916]}, "properties": {}}, {"type": "Feature", "geometry": {"type": "Point", "coordinates": [14.884101, 48.564909]}, "properties": {}}, {"type": "Feature", "geometry": {"type": "Point", "coordinates": [8.764455, 46.060721]}, "properties": {}}, {"type": "Feature", "geometry": {"type": "Point", "coordinates": [21.635881, 46.792611]}, "properties": {}}, {"type": "Feature", "geometry": {"type": "Point", "coordinates": [43.130428, 56.975106]}, "properties": {}}, {"type": "Feature", "geometry": {"type": "Point", "coordinates": [13.24537, 55.53492]}, "properties": {}}, {"type": "Feature", "geometry": {"type": "Point", "coordinates": [15.18756, 60.14277]}, "properties": {}}, {"type": "Feature", "geometry": {"type": "Point", "coordinates": [12.86053, 56.74055]}, "properties": {}}, {"type": "Feature", "geometry": {"type": "Point", "coordinates": [12.66817, 56.08523]}, "properties": {}}, {"type": "Feature", "geometry": {"type": "Point", "coordinates": [10.480528, 59.912164]}, "properties": {}}, {"type": "Feature", "geometry": {"type": "Point", "coordinates": [10.223133, 56.086787]}, "properties": {}}, {"type": "Feature", "geometry": {"type": "Point", "coordinates": [12.522185, 55.815505]}, "properties": {}}, {"type": "Feature", "geometry": {"type": "Point", "coordinates": [11.903893, 54.720783]}, "properties": {}}, {"type": "Feature", "geometry": {"type": "Point", "coordinates": [12.481853, 55.676651]}, "properties": {}}, {"type": "Feature", "geometry": {"type": "Point", "coordinates": [9.850551, 56.188018]}, "properties": {}}, {"type": "Feature", "geometry": {"type": "Point", "coordinates": [18.59842, 57.8405]}, "properties": {}}, {"type": "Feature", "geometry": {"type": "Point", "coordinates": [15.89143, 56.77366]}, "properties": {}}, {"type": "Feature", "geometry": {"type": "Point", "coordinates": [16.41496, 56.58631]}, "properties": {}}, {"type": "Feature", "geometry": {"type": "Point", "coordinates": [21.66702, 65.82634]}, "properties": {}}, {"type": "Feature", "geometry": {"type": "Point", "coordinates": [7.018762, 51.512909]}, "properties": {}}, {"type": "Feature", "geometry": {"type": "Point", "coordinates": [6.696167, 51.544735]}, "properties": {}}, {"type": "Feature", "geometry": {"type": "Point", "coordinates": [16.57281, 59.02676]}, "properties": {}}, {"type": "Feature", "geometry": {"type": "Point", "coordinates": [12.67964, 56.68793]}, "properties": {}}, {"type": "Feature", "geometry": {"type": "Point", "coordinates": [12.68541, 56.69706]}, "properties": {}}, {"type": "Feature", "geometry": {"type": "Point", "coordinates": [17.44018, 59.20044]}, "properties": {}}, {"type": "Feature", "geometry": {"type": "Point", "coordinates": [12.68541, 56.69706]}, "properties": {}}, {"type": "Feature", "geometry": {"type": "Point", "coordinates": [8.804333, 56.260611]}, "properties": {}}, {"type": "Feature", "geometry": {"type": "Point", "coordinates": [8.89015, 45.97471]}, "properties": {}}, {"type": "Feature", "geometry": {"type": "Point", "coordinates": [6.42784, 46.56428]}, "properties": {}}, {"type": "Feature", "geometry": {"type": "Point", "coordinates": [6.49384, 46.51986]}, "properties": {}}, {"type": "Feature", "geometry": {"type": "Point", "coordinates": [6.42784, 46.56428]}, "properties": {}}, {"type": "Feature", "geometry": {"type": "Point", "coordinates": [8.95465, 45.97386]}, "properties": {}}, {"type": "Feature", "geometry": {"type": "Point", "coordinates": [6.82167, 46.3422]}, "properties": {}}, {"type": "Feature", "geometry": {"type": "Point", "coordinates": [6.427, 46.60925]}, "properties": {}}, {"type": "Feature", "geometry": {"type": "Point", "coordinates": [8.95714, 46.0638]}, "properties": {}}, {"type": "Feature", "geometry": {"type": "Point", "coordinates": [-2.891945, 53.415015]}, "properties": {}}, {"type": "Feature", "geometry": {"type": "Point", "coordinates": [-2.760567, 53.377748]}, "properties": {}}, {"type": "Feature", "geometry": {"type": "Point", "coordinates": [52.636889, 58.139312]}, "properties": {}}, {"type": "Feature", "geometry": {"type": "Point", "coordinates": [-3.683927, 40.527699]}, "properties": {}}, {"type": "Feature", "geometry": {"type": "Point", "coordinates": [-7.721547, 41.102392]}, "properties": {}}, {"type": "Feature", "geometry": {"type": "Point", "coordinates": [2.401878, 48.691334]}, "properties": {}}, {"type": "Feature", "geometry": {"type": "Point", "coordinates": [8.79749, 45.853115]}, "properties": {}}, {"type": "Feature", "geometry": {"type": "Point", "coordinates": [-2.274073, 50.706429]}, "properties": {}}, {"type": "Feature", "geometry": {"type": "Point", "coordinates": [36.22924, 51.694103]}, "properties": {}}, {"type": "Feature", "geometry": {"type": "Point", "coordinates": [-2.950576, 48.637753]}, "properties": {}}, {"type": "Feature", "geometry": {"type": "Point", "coordinates": [31.709533, 58.556132]}, "properties": {}}, {"type": "Feature", "geometry": {"type": "Point", "coordinates": [-3.011614, 43.379167]}, "properties": {}}, {"type": "Feature", "geometry": {"type": "Point", "coordinates": [38.136246, 55.901546]}, "properties": {}}, {"type": "Feature", "geometry": {"type": "Point", "coordinates": [-1.086554, 53.952356]}, "properties": {}}, {"type": "Feature", "geometry": {"type": "Point", "coordinates": [-3.203638, 51.493625]}, "properties": {}}, {"type": "Feature", "geometry": {"type": "Point", "coordinates": [-2.895571, 53.414789]}, "properties": {}}, {"type": "Feature", "geometry": {"type": "Point", "coordinates": [84.945245, 56.48043]}, "properties": {}}, {"type": "Feature", "geometry": {"type": "Point", "coordinates": [3.682542, 50.464487]}, "properties": {}}, {"type": "Feature", "geometry": {"type": "Point", "coordinates": [-0.908896, 43.78755]}, "properties": {}}, {"type": "Feature", "geometry": {"type": "Point", "coordinates": [2.367131, 48.888456]}, "properties": {}}, {"type": "Feature", "geometry": {"type": "Point", "coordinates": [-0.304343, 51.451493]}, "properties": {}}, {"type": "Feature", "geometry": {"type": "Point", "coordinates": [-1.614775, 52.428583]}, "properties": {}}, {"type": "Feature", "geometry": {"type": "Point", "coordinates": [-3.155443, 55.94331]}, "properties": {}}, {"type": "Feature", "geometry": {"type": "Point", "coordinates": [-3.202513, 51.494342]}, "properties": {}}, {"type": "Feature", "geometry": {"type": "Point", "coordinates": [-3.683927, 40.527699]}, "properties": {}}, {"type": "Feature", "geometry": {"type": "Point", "coordinates": [-3.196137, 51.493233]}, "properties": {}}, {"type": "Feature", "geometry": {"type": "Point", "coordinates": [-3.196095, 51.493892]}, "properties": {}}, {"type": "Feature", "geometry": {"type": "Point", "coordinates": [-2.892298, 53.413924]}, "properties": {}}, {"type": "Feature", "geometry": {"type": "Point", "coordinates": [37.591767, 55.844511]}, "properties": {}}, {"type": "Feature", "geometry": {"type": "Point", "coordinates": [-3.195622, 51.49195]}, "properties": {}}, {"type": "Feature", "geometry": {"type": "Point", "coordinates": [-0.674639, 52.928505]}, "properties": {}}, {"type": "Feature", "geometry": {"type": "Point", "coordinates": [-2.896777, 53.414524]}, "properties": {}}, {"type": "Feature", "geometry": {"type": "Point", "coordinates": [9.275419, 45.596321]}, "properties": {}}, {"type": "Feature", "geometry": {"type": "Point", "coordinates": [37.578546, 55.614667]}, "properties": {}}, {"type": "Feature", "geometry": {"type": "Point", "coordinates": [-1.126887, 53.942762]}, "properties": {}}, {"type": "Feature", "geometry": {"type": "Point", "coordinates": [-3.193333, 51.495658]}, "properties": {}}, {"type": "Feature", "geometry": {"type": "Point", "coordinates": [15.768403, 46.881508]}, "properties": {}}, {"type": "Feature", "geometry": {"type": "Point", "coordinates": [4.887967, 44.107856]}, "properties": {}}, {"type": "Feature", "geometry": {"type": "Point", "coordinates": [-3.190747, 51.493572]}, "properties": {}}, {"type": "Feature", "geometry": {"type": "Point", "coordinates": [11.575193, 47.300517]}, "properties": {}}, {"type": "Feature", "geometry": {"type": "Point", "coordinates": [-0.340397, 51.375841]}, "properties": {}}, {"type": "Feature", "geometry": {"type": "Point", "coordinates": [1.700462, 48.518782]}, "properties": {}}, {"type": "Feature", "geometry": {"type": "Point", "coordinates": [37.620372, 54.832236]}, "properties": {}}, {"type": "Feature", "geometry": {"type": "Point", "coordinates": [12.261703, 45.685425]}, "properties": {}}, {"type": "Feature", "geometry": {"type": "Point", "coordinates": [-3.189755, 51.487117]}, "properties": {}}, {"type": "Feature", "geometry": {"type": "Point", "coordinates": [-2.895091, 53.413193]}, "properties": {}}, {"type": "Feature", "geometry": {"type": "Point", "coordinates": [-1.076261, 53.946378]}, "properties": {}}, {"type": "Feature", "geometry": {"type": "Point", "coordinates": [4.529158, 52.258539]}, "properties": {}}, {"type": "Feature", "geometry": {"type": "Point", "coordinates": [-3.203038, 51.493995]}, "properties": {}}, {"type": "Feature", "geometry": {"type": "Point", "coordinates": [2.529784, 41.813911]}, "properties": {}}, {"type": "Feature", "geometry": {"type": "Point", "coordinates": [-0.348308, 51.749297]}, "properties": {}}, {"type": "Feature", "geometry": {"type": "Point", "coordinates": [16.272953, 48.001651]}, "properties": {}}, {"type": "Feature", "geometry": {"type": "Point", "coordinates": [-5.069181, 50.411481]}, "properties": {}}, {"type": "Feature", "geometry": {"type": "Point", "coordinates": [-2.894309, 53.414878]}, "properties": {}}, {"type": "Feature", "geometry": {"type": "Point", "coordinates": [31.720235, 58.563562]}, "properties": {}}, {"type": "Feature", "geometry": {"type": "Point", "coordinates": [-3.200587, 51.498388]}, "properties": {}}, {"type": "Feature", "geometry": {"type": "Point", "coordinates": [37.406106, 55.84027]}, "properties": {}}, {"type": "Feature", "geometry": {"type": "Point", "coordinates": [2.965905, 50.64474]}, "properties": {}}, {"type": "Feature", "geometry": {"type": "Point", "coordinates": [-0.024411, 51.409489]}, "properties": {}}, {"type": "Feature", "geometry": {"type": "Point", "coordinates": [37.599367, 55.844214]}, "properties": {}}, {"type": "Feature", "geometry": {"type": "Point", "coordinates": [37.412338, 55.84396]}, "properties": {}}, {"type": "Feature", "geometry": {"type": "Point", "coordinates": [-1.192838, 50.866103]}, "properties": {}}, {"type": "Feature", "geometry": {"type": "Point", "coordinates": [16.297543, 38.905332]}, "properties": {}}, {"type": "Feature", "geometry": {"type": "Point", "coordinates": [37.607745, 55.845659]}, "properties": {}}, {"type": "Feature", "geometry": {"type": "Point", "coordinates": [-2.9563, 53.328194]}, "properties": {}}, {"type": "Feature", "geometry": {"type": "Point", "coordinates": [-7.730207, 41.126895]}, "properties": {}}, {"type": "Feature", "geometry": {"type": "Point", "coordinates": [-1.063566, 53.957633]}, "properties": {}}, {"type": "Feature", "geometry": {"type": "Point", "coordinates": [-1.128605, 53.942286]}, "properties": {}}, {"type": "Feature", "geometry": {"type": "Point", "coordinates": [-3.18037, 51.483238]}, "properties": {}}, {"type": "Feature", "geometry": {"type": "Point", "coordinates": [60.122348, 57.914732]}, "properties": {}}, {"type": "Feature", "geometry": {"type": "Point", "coordinates": [1.16104, 52.645602]}, "properties": {}}, {"type": "Feature", "geometry": {"type": "Point", "coordinates": [5.964258, 49.496103]}, "properties": {}}, {"type": "Feature", "geometry": {"type": "Point", "coordinates": [-7.755546, 41.309255]}, "properties": {}}, {"type": "Feature", "geometry": {"type": "Point", "coordinates": [4.386991, 50.798278]}, "properties": {}}, {"type": "Feature", "geometry": {"type": "Point", "coordinates": [-7.701644, 41.103389]}, "properties": {}}, {"type": "Feature", "geometry": {"type": "Point", "coordinates": [-2.746841, 54.333678]}, "properties": {}}, {"type": "Feature", "geometry": {"type": "Point", "coordinates": [0.065944, 51.465233]}, "properties": {}}, {"type": "Feature", "geometry": {"type": "Point", "coordinates": [-122.159317, 37.848867]}, "properties": {}}, {"type": "Feature", "geometry": {"type": "Point", "coordinates": [-122.758804, 37.993137]}, "properties": {}}, {"type": "Feature", "geometry": {"type": "Point", "coordinates": [-8.941263, 51.902022]}, "properties": {}}, {"type": "Feature", "geometry": {"type": "Point", "coordinates": [-97.548447, 27.821053]}, "properties": {}}, {"type": "Feature", "geometry": {"type": "Point", "coordinates": [-2.955691, 53.328255]}, "properties": {}}, {"type": "Feature", "geometry": {"type": "Point", "coordinates": [-2.892912, 53.415246]}, "properties": {}}, {"type": "Feature", "geometry": {"type": "Point", "coordinates": [-7.641926, 41.151505]}, "properties": {}}, {"type": "Feature", "geometry": {"type": "Point", "coordinates": [49.312558, 53.502906]}, "properties": {}}, {"type": "Feature", "geometry": {"type": "Point", "coordinates": [30.420406, 50.459938]}, "properties": {}}, {"type": "Feature", "geometry": {"type": "Point", "coordinates": [-3.185595, 51.51213]}, "properties": {}}, {"type": "Feature", "geometry": {"type": "Point", "coordinates": [-3.209562, 51.496808]}, "properties": {}}, {"type": "Feature", "geometry": {"type": "Point", "coordinates": [34.62166, 49.757568]}, "properties": {}}, {"type": "Feature", "geometry": {"type": "Point", "coordinates": [-3.200833, 51.495525]}, "properties": {}}, {"type": "Feature", "geometry": {"type": "Point", "coordinates": [45.503731, 41.694611]}, "properties": {}}, {"type": "Feature", "geometry": {"type": "Point", "coordinates": [37.72468, 55.566397]}, "properties": {}}, {"type": "Feature", "geometry": {"type": "Point", "coordinates": [-3.186703, 51.509042]}, "properties": {}}, {"type": "Feature", "geometry": {"type": "Point", "coordinates": [-3.189633, 51.491705]}, "properties": {}}, {"type": "Feature", "geometry": {"type": "Point", "coordinates": [37.162093, 54.74528]}, "properties": {}}, {"type": "Feature", "geometry": {"type": "Point", "coordinates": [-122.959639, 49.213017]}, "properties": {}}, {"type": "Feature", "geometry": {"type": "Point", "coordinates": [-3.206512, 51.497188]}, "properties": {}}, {"type": "Feature", "geometry": {"type": "Point", "coordinates": [17.115657, 52.520491]}, "properties": {}}, {"type": "Feature", "geometry": {"type": "Point", "coordinates": [-0.227663, 51.484353]}, "properties": {}}, {"type": "Feature", "geometry": {"type": "Point", "coordinates": [-1.087597, 53.955007]}, "properties": {}}, {"type": "Feature", "geometry": {"type": "Point", "coordinates": [-7.690043, 41.102756]}, "properties": {}}, {"type": "Feature", "geometry": {"type": "Point", "coordinates": [7.65672, 47.708026]}, "properties": {}}, {"type": "Feature", "geometry": {"type": "Point", "coordinates": [-2.731392, 53.354426]}, "properties": {}}, {"type": "Feature", "geometry": {"type": "Point", "coordinates": [0.126802, 52.185983]}, "properties": {}}, {"type": "Feature", "geometry": {"type": "Point", "coordinates": [-1.087445, 53.95301]}, "properties": {}}, {"type": "Feature", "geometry": {"type": "Point", "coordinates": [-3.202005, 51.49875]}, "properties": {}}, {"type": "Feature", "geometry": {"type": "Point", "coordinates": [46.582581, 41.699111]}, "properties": {}}, {"type": "Feature", "geometry": {"type": "Point", "coordinates": [-2.675515, 50.799781]}, "properties": {}}, {"type": "Feature", "geometry": {"type": "Point", "coordinates": [7.830825, 50.654736]}, "properties": {}}, {"type": "Feature", "geometry": {"type": "Point", "coordinates": [-8.940913, 51.90155]}, "properties": {}}, {"type": "Feature", "geometry": {"type": "Point", "coordinates": [2.391189, 48.861595]}, "properties": {}}, {"type": "Feature", "geometry": {"type": "Point", "coordinates": [-122.770042, 37.995415]}, "properties": {}}, {"type": "Feature", "geometry": {"type": "Point", "coordinates": [2.313988, 48.958334]}, "properties": {}}, {"type": "Feature", "geometry": {"type": "Point", "coordinates": [-2.894511, 53.412801]}, "properties": {}}, {"type": "Feature", "geometry": {"type": "Point", "coordinates": [-0.089805, 51.512551]}, "properties": {}}, {"type": "Feature", "geometry": {"type": "Point", "coordinates": [-3.201042, 51.499363]}, "properties": {}}, {"type": "Feature", "geometry": {"type": "Point", "coordinates": [-0.058303, 51.457618]}, "properties": {}}, {"type": "Feature", "geometry": {"type": "Point", "coordinates": [6.906245, 52.21645]}, "properties": {}}, {"type": "Feature", "geometry": {"type": "Point", "coordinates": [-1.08748, 53.945384]}, "properties": {}}, {"type": "Feature", "geometry": {"type": "Point", "coordinates": [-7.748457, 40.99549]}, "properties": {}}, {"type": "Feature", "geometry": {"type": "Point", "coordinates": [-78.425552, -0.10108]}, "properties": {}}, {"type": "Feature", "geometry": {"type": "Point", "coordinates": [-2.878995, 53.199646]}, "properties": {}}, {"type": "Feature", "geometry": {"type": "Point", "coordinates": [11.596418, 48.141479]}, "properties": {}}, {"type": "Feature", "geometry": {"type": "Point", "coordinates": [-3.205638, 51.492687]}, "properties": {}}, {"type": "Feature", "geometry": {"type": "Point", "coordinates": [-0.078109, 51.563978]}, "properties": {}}, {"type": "Feature", "geometry": {"type": "Point", "coordinates": [-1.753671, 52.733757]}, "properties": {}}, {"type": "Feature", "geometry": {"type": "Point", "coordinates": [-3.191825, 51.488475]}, "properties": {}}, {"type": "Feature", "geometry": {"type": "Point", "coordinates": [-3.179958, 51.481645]}, "properties": {}}, {"type": "Feature", "geometry": {"type": "Point", "coordinates": [-3.198133, 51.497638]}, "properties": {}}, {"type": "Feature", "geometry": {"type": "Point", "coordinates": [37.675161, 55.610003]}, "properties": {}}, {"type": "Feature", "geometry": {"type": "Point", "coordinates": [-3.192672, 51.488658]}, "properties": {}}, {"type": "Feature", "geometry": {"type": "Point", "coordinates": [-1.081421, 53.952473]}, "properties": {}}, {"type": "Feature", "geometry": {"type": "Point", "coordinates": [37.608285, 54.833137]}, "properties": {}}, {"type": "Feature", "geometry": {"type": "Point", "coordinates": [-3.20013, 51.49842]}, "properties": {}}, {"type": "Feature", "geometry": {"type": "Point", "coordinates": [-4.747952, 43.420093]}, "properties": {}}, {"type": "Feature", "geometry": {"type": "Point", "coordinates": [31.727082, 58.520686]}, "properties": {}}, {"type": "Feature", "geometry": {"type": "Point", "coordinates": [-1.109634, 53.955132]}, "properties": {}}, {"type": "Feature", "geometry": {"type": "Point", "coordinates": [-3.188745, 51.484378]}, "properties": {}}, {"type": "Feature", "geometry": {"type": "Point", "coordinates": [-2.762357, 53.37812]}, "properties": {}}, {"type": "Feature", "geometry": {"type": "Point", "coordinates": [2.311767, 48.934187]}, "properties": {}}, {"type": "Feature", "geometry": {"type": "Point", "coordinates": [-2.925018, 54.870762]}, "properties": {}}, {"type": "Feature", "geometry": {"type": "Point", "coordinates": [0.266685, 52.391855]}, "properties": {}}, {"type": "Feature", "geometry": {"type": "Point", "coordinates": [-1.06353, 53.957598]}, "properties": {}}, {"type": "Feature", "geometry": {"type": "Point", "coordinates": [2.391455, 48.678892]}, "properties": {}}, {"type": "Feature", "geometry": {"type": "Point", "coordinates": [-2.731298, 53.353639]}, "properties": {}}, {"type": "Feature", "geometry": {"type": "Point", "coordinates": [-3.525996, 40.319823]}, "properties": {}}, {"type": "Feature", "geometry": {"type": "Point", "coordinates": [-1.669608, 42.817797]}, "properties": {}}, {"type": "Feature", "geometry": {"type": "Point", "coordinates": [8.493562, 45.938705]}, "properties": {}}, {"type": "Feature", "geometry": {"type": "Point", "coordinates": [-1.096992, 53.968404]}, "properties": {}}, {"type": "Feature", "geometry": {"type": "Point", "coordinates": [16.271542, 39.421425]}, "properties": {}}, {"type": "Feature", "geometry": {"type": "Point", "coordinates": [-0.588599, 52.005015]}, "properties": {}}, {"type": "Feature", "geometry": {"type": "Point", "coordinates": [10.444229, 45.121975]}, "properties": {}}, {"type": "Feature", "geometry": {"type": "Point", "coordinates": [-2.93875, 53.384389]}, "properties": {}}, {"type": "Feature", "geometry": {"type": "Point", "coordinates": [18.071037, 44.729979]}, "properties": {}}, {"type": "Feature", "geometry": {"type": "Point", "coordinates": [-3.159108, 52.979038]}, "properties": {}}, {"type": "Feature", "geometry": {"type": "Point", "coordinates": [-3.197688, 51.489728]}, "properties": {}}, {"type": "Feature", "geometry": {"type": "Point", "coordinates": [2.379169, 48.90391]}, "properties": {}}, {"type": "Feature", "geometry": {"type": "Point", "coordinates": [8.871813, 46.166675]}, "properties": {}}, {"type": "Feature", "geometry": {"type": "Point", "coordinates": [-3.213375, 51.494503]}, "properties": {}}, {"type": "Feature", "geometry": {"type": "Point", "coordinates": [16.267348, 39.422574]}, "properties": {}}, {"type": "Feature", "geometry": {"type": "Point", "coordinates": [-3.214858, 51.495147]}, "properties": {}}, {"type": "Feature", "geometry": {"type": "Point", "coordinates": [-2.567665, 53.542778]}, "properties": {}}, {"type": "Feature", "geometry": {"type": "Point", "coordinates": [-2.886572, 53.214238]}, "properties": {}}, {"type": "Feature", "geometry": {"type": "Point", "coordinates": [4.345855, 50.89072]}, "properties": {}}, {"type": "Feature", "geometry": {"type": "Point", "coordinates": [-1.092912, 53.961885]}, "properties": {}}, {"type": "Feature", "geometry": {"type": "Point", "coordinates": [-2.938075, 53.386139]}, "properties": {}}, {"type": "Feature", "geometry": {"type": "Point", "coordinates": [-3.189753, 51.485475]}, "properties": {}}, {"type": "Feature", "geometry": {"type": "Point", "coordinates": [16.277575, 47.999413]}, "properties": {}}, {"type": "Feature", "geometry": {"type": "Point", "coordinates": [-2.985612, 53.645161]}, "properties": {}}, {"type": "Feature", "geometry": {"type": "Point", "coordinates": [-1.875842, 53.324005]}, "properties": {}}, {"type": "Feature", "geometry": {"type": "Point", "coordinates": [-3.19603, 51.492192]}, "properties": {}}, {"type": "Feature", "geometry": {"type": "Point", "coordinates": [17.439487, 59.200272]}, "properties": {}}, {"type": "Feature", "geometry": {"type": "Point", "coordinates": [-2.611978, 51.494962]}, "properties": {}}, {"type": "Feature", "geometry": {"type": "Point", "coordinates": [-2.937288, 53.387138]}, "properties": {}}, {"type": "Feature", "geometry": {"type": "Point", "coordinates": [-3.186538, 51.48128]}, "properties": {}}, {"type": "Feature", "geometry": {"type": "Point", "coordinates": [-3.19455, 51.488158]}, "properties": {}}, {"type": "Feature", "geometry": {"type": "Point", "coordinates": [-1.10196, 53.952671]}, "properties": {}}, {"type": "Feature", "geometry": {"type": "Point", "coordinates": [0.039978, 51.505325]}, "properties": {}}, {"type": "Feature", "geometry": {"type": "Point", "coordinates": [-3.186625, 51.481308]}, "properties": {}}, {"type": "Feature", "geometry": {"type": "Point", "coordinates": [-0.537042, 51.301513]}, "properties": {}}, {"type": "Feature", "geometry": {"type": "Point", "coordinates": [-2.818421, 53.647176]}, "properties": {}}, {"type": "Feature", "geometry": {"type": "Point", "coordinates": [-3.194453, 51.487892]}, "properties": {}}, {"type": "Feature", "geometry": {"type": "Point", "coordinates": [-2.216702, 53.462092]}, "properties": {}}, {"type": "Feature", "geometry": {"type": "Point", "coordinates": [-3.204295, 51.493212]}, "properties": {}}, {"type": "Feature", "geometry": {"type": "Point", "coordinates": [-1.334791, 51.391512]}, "properties": {}}, {"type": "Feature", "geometry": {"type": "Point", "coordinates": [-3.193262, 51.488717]}, "properties": {}}, {"type": "Feature", "geometry": {"type": "Point", "coordinates": [-3.207762, 51.497313]}, "properties": {}}, {"type": "Feature", "geometry": {"type": "Point", "coordinates": [16.449642, 47.410637]}, "properties": {}}, {"type": "Feature", "geometry": {"type": "Point", "coordinates": [56.275932, 58.012676]}, "properties": {}}, {"type": "Feature", "geometry": {"type": "Point", "coordinates": [-1.167295, 52.713984]}, "properties": {}}, {"type": "Feature", "geometry": {"type": "Point", "coordinates": [-1.168775, 52.713994]}, "properties": {}}, {"type": "Feature", "geometry": {"type": "Point", "coordinates": [61.509906, 55.163139]}, "properties": {}}, {"type": "Feature", "geometry": {"type": "Point", "coordinates": [8.674614, 50.138938]}, "properties": {}}, {"type": "Feature", "geometry": {"type": "Point", "coordinates": [8.42653, 60.895575]}, "properties": {}}, {"type": "Feature", "geometry": {"type": "Point", "coordinates": [-0.95506, 53.55418]}, "properties": {}}, {"type": "Feature", "geometry": {"type": "Point", "coordinates": [-1.46534, 53.33446]}, "properties": {}}, {"type": "Feature", "geometry": {"type": "Point", "coordinates": [-0.505198, 54.246909]}, "properties": {}}, {"type": "Feature", "geometry": {"type": "Point", "coordinates": [-1.54409, 53.36171]}, "properties": {}}, {"type": "Feature", "geometry": {"type": "Point", "coordinates": [-2.938049, 53.386319]}, "properties": {}}, {"type": "Feature", "geometry": {"type": "Point", "coordinates": [-1.46676, 53.33294]}, "properties": {}}, {"type": "Feature", "geometry": {"type": "Point", "coordinates": [-3.85683, 52.37585]}, "properties": {}}, {"type": "Feature", "geometry": {"type": "Point", "coordinates": [0.34311, 50.873119]}, "properties": {}}, {"type": "Feature", "geometry": {"type": "Point", "coordinates": [-1.60905, 53.26854]}, "properties": {}}, {"type": "Feature", "geometry": {"type": "Point", "coordinates": [-2.938381, 53.383797]}, "properties": {}}, {"type": "Feature", "geometry": {"type": "Point", "coordinates": [-2.997585, 52.580104]}, "properties": {}}, {"type": "Feature", "geometry": {"type": "Point", "coordinates": [-2.731392, 53.354426]}, "properties": {}}, {"type": "Feature", "geometry": {"type": "Point", "coordinates": [-1.460485, 52.801793]}, "properties": {}}, {"type": "Feature", "geometry": {"type": "Point", "coordinates": [-2.937278, 53.387265]}, "properties": {}}, {"type": "Feature", "geometry": {"type": "Point", "coordinates": [-1.4623, 53.33858]}, "properties": {}}, {"type": "Feature", "geometry": {"type": "Point", "coordinates": [0.350016, 50.869112]}, "properties": {}}, {"type": "Feature", "geometry": {"type": "Point", "coordinates": [-0.791076, 51.050008]}, "properties": {}}, {"type": "Feature", "geometry": {"type": "Point", "coordinates": [-2.731298, 53.353639]}, "properties": {}}, {"type": "Feature", "geometry": {"type": "Point", "coordinates": [-1.076261, 53.946378]}, "properties": {}}, {"type": "Feature", "geometry": {"type": "Point", "coordinates": [0.328864, 50.873899]}, "properties": {}}]}