{"type": "FeatureCollection", "name": "Pimpinella anisum", "features": [{"type": "Feature", "geometry": {"type": "Point", "coordinates": [2.359934, 48.843851]}, "properties": {}}, {"type": "Feature", "geometry": {"type": "Point", "coordinates": [-41.093333, -11.142222]}, "properties": {}}, {"type": "Feature", "geometry": {"type": "Point", "coordinates": [-39.578889, -16.349167]}, "properties": {}}, {"type": "Feature", "geometry": {"type": "Point", "coordinates": [4.45327, 51.02064]}, "properties": {}}, {"type": "Feature", "geometry": {"type": "Point", "coordinates": [-38.433333, -12.783333]}, "properties": {}}, {"type": "Feature", "geometry": {"type": "Point", "coordinates": [-1.235844, 38.008592]}, "properties": {}}, {"type": "Feature", "geometry": {"type": "Point", "coordinates": [-8.285405, 40.9221]}, "properties": {}}, {"type": "Feature", "geometry": {"type": "Point", "coordinates": [-9.143763, 38.465141]}, "properties": {}}, {"type": "Feature", "geometry": {"type": "Point", "coordinates": [34.991321, 32.069914]}, "properties": {}}, {"type": "Feature", "geometry": {"type": "Point", "coordinates": [10.4247, 49.206699]}, "properties": {}}, {"type": "Feature", "geometry": {"type": "Point", "coordinates": [17.8813, 53.5715]}, "properties": {}}, {"type": "Feature", "geometry": {"type": "Point", "coordinates": [-4.56, 37.08]}, "properties": {}}, {"type": "Feature", "geometry": {"type": "Point", "coordinates": [6.479104, 51.894871]}, "properties": {}}, {"type": "Feature", "geometry": {"type": "Point", "coordinates": [8.4, 49.0]}, "properties": {}}, {"type": "Feature", "geometry": {"type": "Point", "coordinates": [-90.40694, 38.58504]}, "properties": {}}, {"type": "Feature", "geometry": {"type": "Point", "coordinates": [17.05184, 58.74743]}, "properties": {}}, {"type": "Feature", "geometry": {"type": "Point", "coordinates": [16.20952, 58.60006]}, "properties": {}}, {"type": "Feature", "geometry": {"type": "Point", "coordinates": [4.45, 51.9]}, "properties": {}}, {"type": "Feature", "geometry": {"type": "Point", "coordinates": [8.233545, 50.417187]}, "properties": {}}, {"type": "Feature", "geometry": {"type": "Point", "coordinates": [25.877222, 52.538333]}, "properties": {}}, {"type": "Feature", "geometry": {"type": "Point", "coordinates": [-75.495525, 5.055659]}, "properties": {}}, {"type": "Feature", "geometry": {"type": "Point", "coordinates": [-52.210278, -3.198611]}, "properties": {}}, {"type": "Feature", "geometry": {"type": "Point", "coordinates": [-4.91, 37.78]}, "properties": {}}, {"type": "Feature", "geometry": {"type": "Point", "coordinates": [-74.146847, 4.172294]}, "properties": {}}, {"type": "Feature", "geometry": {"type": "Point", "coordinates": [13.622065, 42.924267]}, "properties": {}}, {"type": "Feature", "geometry": {"type": "Point", "coordinates": [6.18088, 51.471021]}, "properties": {}}, {"type": "Feature", "geometry": {"type": "Point", "coordinates": [9.7, 49.73]}, "properties": {}}, {"type": "Feature", "geometry": {"type": "Point", "coordinates": [19.914374, 48.745335]}, "properties": {}}, {"type": "Feature", "geometry": {"type": "Point", "coordinates": [2.957766, 39.499691]}, "properties": {}}, {"type": "Feature", "geometry": {"type": "Point", "coordinates": [31.2, 30.03]}, "properties": {}}, {"type": "Feature", "geometry": {"type": "Point", "coordinates": [-4.32, 37.06]}, "properties": {}}, {"type": "Feature", "geometry": {"type": "Point", "coordinates": [24.88293, 59.4715]}, "properties": {}}, {"type": "Feature", "geometry": {"type": "Point", "coordinates": [-47.458333, -13.7975]}, "properties": {}}, {"type": "Feature", "geometry": {"type": "Point", "coordinates": [20.58139, 39.49361]}, "properties": {}}, {"type": "Feature", "geometry": {"type": "Point", "coordinates": [-34.857139, -7.267361]}, "properties": {}}, {"type": "Feature", "geometry": {"type": "Point", "coordinates": [-73.055633, 6.990272]}, "properties": {}}, {"type": "Feature", "geometry": {"type": "Point", "coordinates": [-73.126694, 7.119542]}, "properties": {}}, {"type": "Feature", "geometry": {"type": "Point", "coordinates": [58.118889, 23.569722]}, "properties": {}}, {"type": "Feature", "geometry": {"type": "Point", "coordinates": [17.83577, 59.4959]}, "properties": {}}, {"type": "Feature", "geometry": {"type": "Point", "coordinates": [17.83506, 59.49581]}, "properties": {}}, {"type": "Feature", "geometry": {"type": "Point", "coordinates": [17.83583, 59.49576]}, "properties": {}}, {"type": "Feature", "geometry": {"type": "Point", "coordinates": [17.83558, 59.49574]}, "properties": {}}, {"type": "Feature", "geometry": {"type": "Point", "coordinates": [-53.527222, -25.791667]}, "properties": {}}, {"type": "Feature", "geometry": {"type": "Point", "coordinates": [-56.086111, -15.620528]}, "properties": {}}, {"type": "Feature", "geometry": {"type": "Point", "coordinates": [-64.294444, -18.731389]}, "properties": {}}, {"type": "Feature", "geometry": {"type": "Point", "coordinates": [-64.294444, -18.731389]}, "properties": {}}, {"type": "Feature", "geometry": {"type": "Point", "coordinates": [17.83164, 59.49681]}, "properties": {}}, {"type": "Feature", "geometry": {"type": "Point", "coordinates": [17.8341, 59.49517]}, "properties": {}}, {"type": "Feature", "geometry": {"type": "Point", "coordinates": [5.76901, 51.01595]}, "properties": {}}, {"type": "Feature", "geometry": {"type": "Point", "coordinates": [14.222945, 47.119061]}, "properties": {}}, {"type": "Feature", "geometry": {"type": "Point", "coordinates": [2.4347, 6.37206]}, "properties": {}}, {"type": "Feature", "geometry": {"type": "Point", "coordinates": [-79.833333, -6.766667]}, "properties": {}}, {"type": "Feature", "geometry": {"type": "Point", "coordinates": [-52.398611, -28.227222]}, "properties": {}}, {"type": "Feature", "geometry": {"type": "Point", "coordinates": [22.95833, 38.41056]}, "properties": {}}, {"type": "Feature", "geometry": {"type": "Point", "coordinates": [10.863934, 43.853905]}, "properties": {}}, {"type": "Feature", "geometry": {"type": "Point", "coordinates": [10.671, 63.434]}, "properties": {}}, {"type": "Feature", "geometry": {"type": "Point", "coordinates": [7.76776, 48.57125]}, "properties": {}}, {"type": "Feature", "geometry": {"type": "Point", "coordinates": [10.671, 63.434]}, "properties": {}}, {"type": "Feature", "geometry": {"type": "Point", "coordinates": [-5.24, 36.83]}, "properties": {}}, {"type": "Feature", "geometry": {"type": "Point", "coordinates": [2.7328, 51.14079]}, "properties": {}}, {"type": "Feature", "geometry": {"type": "Point", "coordinates": [2.73815, 51.14042]}, "properties": {}}, {"type": "Feature", "geometry": {"type": "Point", "coordinates": [2.72824, 51.14044]}, "properties": {}}, {"type": "Feature", "geometry": {"type": "Point", "coordinates": [2.6961, 50.96945]}, "properties": {}}, {"type": "Feature", "geometry": {"type": "Point", "coordinates": [6.35333, 43.50168]}, "properties": {}}, {"type": "Feature", "geometry": {"type": "Point", "coordinates": [-47.470833, -13.581944]}, "properties": {}}, {"type": "Feature", "geometry": {"type": "Point", "coordinates": [-73.931789, 40.850648]}, "properties": {}}, {"type": "Feature", "geometry": {"type": "Point", "coordinates": [-4.07, 37.31]}, "properties": {}}, {"type": "Feature", "geometry": {"type": "Point", "coordinates": [10.671, 63.434]}, "properties": {}}, {"type": "Feature", "geometry": {"type": "Point", "coordinates": [5.851, 50.856251]}, "properties": {}}, {"type": "Feature", "geometry": {"type": "Point", "coordinates": [2.69157, 51.09526]}, "properties": {}}, {"type": "Feature", "geometry": {"type": "Point", "coordinates": [14.882787, 51.180183]}, "properties": {}}, {"type": "Feature", "geometry": {"type": "Point", "coordinates": [2.58792, 51.06638]}, "properties": {}}, {"type": "Feature", "geometry": {"type": "Point", "coordinates": [85.75, 27.55]}, "properties": {}}, {"type": "Feature", "geometry": {"type": "Point", "coordinates": [18.760132, 48.33586]}, "properties": {}}, {"type": "Feature", "geometry": {"type": "Point", "coordinates": [18.793742, 48.414156]}, "properties": {}}, {"type": "Feature", "geometry": {"type": "Point", "coordinates": [18.854614, 48.366899]}, "properties": {}}, {"type": "Feature", "geometry": {"type": "Point", "coordinates": [18.847976, 48.370499]}, "properties": {}}, {"type": "Feature", "geometry": {"type": "Point", "coordinates": [18.814226, 48.41002]}, "properties": {}}, {"type": "Feature", "geometry": {"type": "Point", "coordinates": [18.843311, 48.358427]}, "properties": {}}, {"type": "Feature", "geometry": {"type": "Point", "coordinates": [41.739035, 43.443977]}, "properties": {}}, {"type": "Feature", "geometry": {"type": "Point", "coordinates": [19.195231, 48.111897]}, "properties": {}}, {"type": "Feature", "geometry": {"type": "Point", "coordinates": [19.178432, 48.151031]}, "properties": {}}, {"type": "Feature", "geometry": {"type": "Point", "coordinates": [18.749831, 48.407239]}, "properties": {}}, {"type": "Feature", "geometry": {"type": "Point", "coordinates": [19.171979, 48.165205]}, "properties": {}}, {"type": "Feature", "geometry": {"type": "Point", "coordinates": [19.201268, 48.161084]}, "properties": {}}, {"type": "Feature", "geometry": {"type": "Point", "coordinates": [19.228421, 48.098427]}, "properties": {}}, {"type": "Feature", "geometry": {"type": "Point", "coordinates": [19.21542, 48.091676]}, "properties": {}}, {"type": "Feature", "geometry": {"type": "Point", "coordinates": [19.201149, 48.138219]}, "properties": {}}, {"type": "Feature", "geometry": {"type": "Point", "coordinates": [19.240751, 48.122454]}, "properties": {}}, {"type": "Feature", "geometry": {"type": "Point", "coordinates": [18.848988, 48.33562]}, "properties": {}}, {"type": "Feature", "geometry": {"type": "Point", "coordinates": [19.190536, 48.374744]}, "properties": {}}, {"type": "Feature", "geometry": {"type": "Point", "coordinates": [19.240366, 48.353329]}, "properties": {}}, {"type": "Feature", "geometry": {"type": "Point", "coordinates": [19.198598, 48.371733]}, "properties": {}}, {"type": "Feature", "geometry": {"type": "Point", "coordinates": [19.190781, 48.352719]}, "properties": {}}, {"type": "Feature", "geometry": {"type": "Point", "coordinates": [19.203783, 48.371352]}, "properties": {}}, {"type": "Feature", "geometry": {"type": "Point", "coordinates": [19.199468, 48.377591]}, "properties": {}}, {"type": "Feature", "geometry": {"type": "Point", "coordinates": [18.770301, 48.345268]}, "properties": {}}, {"type": "Feature", "geometry": {"type": "Point", "coordinates": [19.153438, 48.349395]}, "properties": {}}, {"type": "Feature", "geometry": {"type": "Point", "coordinates": [19.237206, 48.412992]}, "properties": {}}, {"type": "Feature", "geometry": {"type": "Point", "coordinates": [19.137329, 48.36203]}, "properties": {}}, {"type": "Feature", "geometry": {"type": "Point", "coordinates": [-43.649722, -22.991667]}, "properties": {}}, {"type": "Feature", "geometry": {"type": "Point", "coordinates": [7.13423, 47.91718]}, "properties": {}}, {"type": "Feature", "geometry": {"type": "Point", "coordinates": [-35.922222, -8.238333]}, "properties": {}}, {"type": "Feature", "geometry": {"type": "Point", "coordinates": [2.58816, 51.06692]}, "properties": {}}, {"type": "Feature", "geometry": {"type": "Point", "coordinates": [10.155826, 56.169473]}, "properties": {}}, {"type": "Feature", "geometry": {"type": "Point", "coordinates": [-91.2725, 14.690278]}, "properties": {}}, {"type": "Feature", "geometry": {"type": "Point", "coordinates": [5.830355, 51.874867]}, "properties": {}}, {"type": "Feature", "geometry": {"type": "Point", "coordinates": [-64.40833, -18.06944]}, "properties": {}}, {"type": "Feature", "geometry": {"type": "Point", "coordinates": [-64.405, -18.068333]}, "properties": {}}, {"type": "Feature", "geometry": {"type": "Point", "coordinates": [-5.04, 36.87]}, "properties": {}}, {"type": "Feature", "geometry": {"type": "Point", "coordinates": [5.91383, 52.011]}, "properties": {}}, {"type": "Feature", "geometry": {"type": "Point", "coordinates": [18.968482, 48.24907]}, "properties": {}}, {"type": "Feature", "geometry": {"type": "Point", "coordinates": [21.245999, 49.398449]}, "properties": {}}, {"type": "Feature", "geometry": {"type": "Point", "coordinates": [11.81207, 57.69549]}, "properties": {}}, {"type": "Feature", "geometry": {"type": "Point", "coordinates": [11.81095, 57.69572]}, "properties": {}}, {"type": "Feature", "geometry": {"type": "Point", "coordinates": [11.80727, 57.69665]}, "properties": {}}, {"type": "Feature", "geometry": {"type": "Point", "coordinates": [11.81207, 57.69549]}, "properties": {}}, {"type": "Feature", "geometry": {"type": "Point", "coordinates": [11.8104, 57.69543]}, "properties": {}}, {"type": "Feature", "geometry": {"type": "Point", "coordinates": [-89.13333, 14.3]}, "properties": {}}, {"type": "Feature", "geometry": {"type": "Point", "coordinates": [-86.28333, 13.03333]}, "properties": {}}, {"type": "Feature", "geometry": {"type": "Point", "coordinates": [-86.28333, 13.03333]}, "properties": {}}, {"type": "Feature", "geometry": {"type": "Point", "coordinates": [18.942841, 48.536072]}, "properties": {}}, {"type": "Feature", "geometry": {"type": "Point", "coordinates": [17.303149, 48.402872]}, "properties": {}}, {"type": "Feature", "geometry": {"type": "Point", "coordinates": [7.73045, 48.48356]}, "properties": {}}, {"type": "Feature", "geometry": {"type": "Point", "coordinates": [-76.867211, 38.861277]}, "properties": {}}, {"type": "Feature", "geometry": {"type": "Point", "coordinates": [-122.33083, 47.60639]}, "properties": {}}, {"type": "Feature", "geometry": {"type": "Point", "coordinates": [20.42947, 49.389144]}, "properties": {}}, {"type": "Feature", "geometry": {"type": "Point", "coordinates": [-1.32, 38.13]}, "properties": {}}, {"type": "Feature", "geometry": {"type": "Point", "coordinates": [-38.75, -12.383333]}, "properties": {}}, {"type": "Feature", "geometry": {"type": "Point", "coordinates": [-90.25, 38.6]}, "properties": {}}, {"type": "Feature", "geometry": {"type": "Point", "coordinates": [-73.93828, 40.663931]}, "properties": {}}, {"type": "Feature", "geometry": {"type": "Point", "coordinates": [5.74459, 51.02719]}, "properties": {}}, {"type": "Feature", "geometry": {"type": "Point", "coordinates": [-39.15, -16.85]}, "properties": {}}, {"type": "Feature", "geometry": {"type": "Point", "coordinates": [-90.35055, 38.65305]}, "properties": {}}, {"type": "Feature", "geometry": {"type": "Point", "coordinates": [-122.58333, 47.66666]}, "properties": {}}, {"type": "Feature", "geometry": {"type": "Point", "coordinates": [-73.93828, 40.663931]}, "properties": {}}, {"type": "Feature", "geometry": {"type": "Point", "coordinates": [23.16071, 65.87162]}, "properties": {}}, {"type": "Feature", "geometry": {"type": "Point", "coordinates": [-49.37, -28.678056]}, "properties": {}}, {"type": "Feature", "geometry": {"type": "Point", "coordinates": [-49.37, -28.678056]}, "properties": {}}, {"type": "Feature", "geometry": {"type": "Point", "coordinates": [-35.3775, -6.278889]}, "properties": {}}, {"type": "Feature", "geometry": {"type": "Point", "coordinates": [-5.1, 37.03]}, "properties": {}}, {"type": "Feature", "geometry": {"type": "Point", "coordinates": [17.07263, 58.75107]}, "properties": {}}, {"type": "Feature", "geometry": {"type": "Point", "coordinates": [-8.42248, 40.205091]}, "properties": {}}, {"type": "Feature", "geometry": {"type": "Point", "coordinates": [-79.05, -2.9]}, "properties": {}}, {"type": "Feature", "geometry": {"type": "Point", "coordinates": [26.05, 38.216667]}, "properties": {}}, {"type": "Feature", "geometry": {"type": "Point", "coordinates": [-4.9, 36.98]}, "properties": {}}, {"type": "Feature", "geometry": {"type": "Point", "coordinates": [-8.42248, 40.205091]}, "properties": {}}, {"type": "Feature", "geometry": {"type": "Point", "coordinates": [-43.4875, -19.946389]}, "properties": {}}, {"type": "Feature", "geometry": {"type": "Point", "coordinates": [-43.4875, -19.946389]}, "properties": {}}, {"type": "Feature", "geometry": {"type": "Point", "coordinates": [35.472389, 32.968989]}, "properties": {}}, {"type": "Feature", "geometry": {"type": "Point", "coordinates": [-8.42248, 40.205091]}, "properties": {}}, {"type": "Feature", "geometry": {"type": "Point", "coordinates": [4.53381, 51.27781]}, "properties": {}}, {"type": "Feature", "geometry": {"type": "Point", "coordinates": [-17.0, 32.766667]}, "properties": {}}, {"type": "Feature", "geometry": {"type": "Point", "coordinates": [-8.42248, 40.205091]}, "properties": {}}, {"type": "Feature", "geometry": {"type": "Point", "coordinates": [-8.42248, 40.205091]}, "properties": {}}, {"type": "Feature", "geometry": {"type": "Point", "coordinates": [77.489182, 10.238114]}, "properties": {}}, {"type": "Feature", "geometry": {"type": "Point", "coordinates": [-37.099631, -10.925675]}, "properties": {}}, {"type": "Feature", "geometry": {"type": "Point", "coordinates": [-37.099722, -10.925556]}, "properties": {}}, {"type": "Feature", "geometry": {"type": "Point", "coordinates": [-37.099631, -10.925675]}, "properties": {}}, {"type": "Feature", "geometry": {"type": "Point", "coordinates": [-37.099722, -10.925556]}, "properties": {}}, {"type": "Feature", "geometry": {"type": "Point", "coordinates": [-3.713056, 37.375556]}, "properties": {}}, {"type": "Feature", "geometry": {"type": "Point", "coordinates": [-5.266944, 36.936389]}, "properties": {}}, {"type": "Feature", "geometry": {"type": "Point", "coordinates": [3.6085, 51.499]}, "properties": {}}, {"type": "Feature", "geometry": {"type": "Point", "coordinates": [3.6, 51.45]}, "properties": {}}, {"type": "Feature", "geometry": {"type": "Point", "coordinates": [4.47689, 51.44865]}, "properties": {}}, {"type": "Feature", "geometry": {"type": "Point", "coordinates": [4.46238, 51.38575]}, "properties": {}}, {"type": "Feature", "geometry": {"type": "Point", "coordinates": [2.71447, 50.85282]}, "properties": {}}, {"type": "Feature", "geometry": {"type": "Point", "coordinates": [-40.584444, -19.941389]}, "properties": {}}, {"type": "Feature", "geometry": {"type": "Point", "coordinates": [-4.69, 37.58]}, "properties": {}}, {"type": "Feature", "geometry": {"type": "Point", "coordinates": [-6.834543, 34.022404]}, "properties": {}}, {"type": "Feature", "geometry": {"type": "Point", "coordinates": [-78.5, -0.216]}, "properties": {}}, {"type": "Feature", "geometry": {"type": "Point", "coordinates": [-4.75, 37.57]}, "properties": {}}, {"type": "Feature", "geometry": {"type": "Point", "coordinates": [-76.185149, 4.65536]}, "properties": {}}, {"type": "Feature", "geometry": {"type": "Point", "coordinates": [-4.29, 36.99]}, "properties": {}}, {"type": "Feature", "geometry": {"type": "Point", "coordinates": [32.5, 13.0]}, "properties": {}}, {"type": "Feature", "geometry": {"type": "Point", "coordinates": [-37.493056, -10.733333]}, "properties": {}}, {"type": "Feature", "geometry": {"type": "Point", "coordinates": [-37.493056, -10.733333]}, "properties": {}}, {"type": "Feature", "geometry": {"type": "Point", "coordinates": [-116.61667, 31.78333]}, "properties": {}}, {"type": "Feature", "geometry": {"type": "Point", "coordinates": [32.75, 26.15]}, "properties": {}}, {"type": "Feature", "geometry": {"type": "Point", "coordinates": [118.797741, 32.055645]}, "properties": {}}, {"type": "Feature", "geometry": {"type": "Point", "coordinates": [-77.201914, 1.325858]}, "properties": {}}, {"type": "Feature", "geometry": {"type": "Point", "coordinates": [-77.27958, 1.20858]}, "properties": {}}, {"type": "Feature", "geometry": {"type": "Point", "coordinates": [-90.532777, 14.586389]}, "properties": {}}, {"type": "Feature", "geometry": {"type": "Point", "coordinates": [-43.966667, -19.866667]}, "properties": {}}, {"type": "Feature", "geometry": {"type": "Point", "coordinates": [108.32, 33.32]}, "properties": {}}, {"type": "Feature", "geometry": {"type": "Point", "coordinates": [4.68825, 52.46317]}, "properties": {}}, {"type": "Feature", "geometry": {"type": "Point", "coordinates": [4.83539, 52.46395]}, "properties": {}}, {"type": "Feature", "geometry": {"type": "Point", "coordinates": [19.406612, 48.603814]}, "properties": {}}, {"type": "Feature", "geometry": {"type": "Point", "coordinates": [18.8034, 54.0372]}, "properties": {}}, {"type": "Feature", "geometry": {"type": "Point", "coordinates": [-118.521, 34.252]}, "properties": {}}, {"type": "Feature", "geometry": {"type": "Point", "coordinates": [3.62255, 51.50821]}, "properties": {}}, {"type": "Feature", "geometry": {"type": "Point", "coordinates": [3.62255, 51.50821]}, "properties": {}}, {"type": "Feature", "geometry": {"type": "Point", "coordinates": [2.35222, 48.85661]}, "properties": {}}, {"type": "Feature", "geometry": {"type": "Point", "coordinates": [-3.4495, 36.7731]}, "properties": {}}, {"type": "Feature", "geometry": {"type": "Point", "coordinates": [73.524074, 22.462015]}, "properties": {}}, {"type": "Feature", "geometry": {"type": "Point", "coordinates": [6.9, 50.5]}, "properties": {}}, {"type": "Feature", "geometry": {"type": "Point", "coordinates": [38.303226, -4.793585]}, "properties": {}}, {"type": "Feature", "geometry": {"type": "Point", "coordinates": [-77.45983, 1.29096]}, "properties": {}}, {"type": "Feature", "geometry": {"type": "Point", "coordinates": [23.830407, 61.629997]}, "properties": {}}, {"type": "Feature", "geometry": {"type": "Point", "coordinates": [-97.766667, 17.8]}, "properties": {}}, {"type": "Feature", "geometry": {"type": "Point", "coordinates": [-97.76667, 17.8]}, "properties": {}}, {"type": "Feature", "geometry": {"type": "Point", "coordinates": [6.51667, 52.78333]}, "properties": {}}, {"type": "Feature", "geometry": {"type": "Point", "coordinates": [-77.15936, 1.42697]}, "properties": {}}, {"type": "Feature", "geometry": {"type": "Point", "coordinates": [2.28971, 49.9004]}, "properties": {}}, {"type": "Feature", "geometry": {"type": "Point", "coordinates": [78.434585, 22.467446]}, "properties": {}}, {"type": "Feature", "geometry": {"type": "Point", "coordinates": [73.856744, 18.52043]}, "properties": {}}, {"type": "Feature", "geometry": {"type": "Point", "coordinates": [76.695032, 11.410204]}, "properties": {}}, {"type": "Feature", "geometry": {"type": "Point", "coordinates": [73.085595, 22.241161]}, "properties": {}}, {"type": "Feature", "geometry": {"type": "Point", "coordinates": [12.05303, 57.69986]}, "properties": {}}, {"type": "Feature", "geometry": {"type": "Point", "coordinates": [-74.004, 45.533]}, "properties": {}}, {"type": "Feature", "geometry": {"type": "Point", "coordinates": [10.4111, 63.3961]}, "properties": {}}, {"type": "Feature", "geometry": {"type": "Point", "coordinates": [4.400833, 50.873888]}, "properties": {}}, {"type": "Feature", "geometry": {"type": "Point", "coordinates": [4.735833, 50.884999]}, "properties": {}}, {"type": "Feature", "geometry": {"type": "Point", "coordinates": [14.26867, 27.55078]}, "properties": {}}, {"type": "Feature", "geometry": {"type": "Point", "coordinates": [3.845555, 50.983888]}, "properties": {}}, {"type": "Feature", "geometry": {"type": "Point", "coordinates": [4.51466, 47.5072]}, "properties": {}}, {"type": "Feature", "geometry": {"type": "Point", "coordinates": [14.049367, 56.808208]}, "properties": {}}, {"type": "Feature", "geometry": {"type": "Point", "coordinates": [4.51881, 47.50902]}, "properties": {}}, {"type": "Feature", "geometry": {"type": "Point", "coordinates": [4.52839, 47.52535]}, "properties": {}}, {"type": "Feature", "geometry": {"type": "Point", "coordinates": [4.51881, 47.50902]}, "properties": {}}, {"type": "Feature", "geometry": {"type": "Point", "coordinates": [3.14145, 36.70486]}, "properties": {}}, {"type": "Feature", "geometry": {"type": "Point", "coordinates": [14.049367, 56.808208]}, "properties": {}}, {"type": "Feature", "geometry": {"type": "Point", "coordinates": [14.049367, 56.808208]}, "properties": {}}, {"type": "Feature", "geometry": {"type": "Point", "coordinates": [14.049367, 56.808208]}, "properties": {}}, {"type": "Feature", "geometry": {"type": "Point", "coordinates": [3.15005, 36.7217]}, "properties": {}}, {"type": "Feature", "geometry": {"type": "Point", "coordinates": [15.45833, 47.075]}, "properties": {}}, {"type": "Feature", "geometry": {"type": "Point", "coordinates": [-121.60694, 36.6775]}, "properties": {}}, {"type": "Feature", "geometry": {"type": "Point", "coordinates": [-47.077171, -22.870251]}, "properties": {}}, {"type": "Feature", "geometry": {"type": "Point", "coordinates": [-72.958333, 4.095833]}, "properties": {}}, {"type": "Feature", "geometry": {"type": "Point", "coordinates": [5.20474, 52.10559]}, "properties": {}}, {"type": "Feature", "geometry": {"type": "Point", "coordinates": [12.05303, 57.69986]}, "properties": {}}, {"type": "Feature", "geometry": {"type": "Point", "coordinates": [5.40101, 51.88354]}, "properties": {}}, {"type": "Feature", "geometry": {"type": "Point", "coordinates": [12.05257, 57.69976]}, "properties": {}}, {"type": "Feature", "geometry": {"type": "Point", "coordinates": [11.93079, 57.69181]}, "properties": {}}, {"type": "Feature", "geometry": {"type": "Point", "coordinates": [11.93079, 57.69181]}, "properties": {}}, {"type": "Feature", "geometry": {"type": "Point", "coordinates": [5.85673, 52.01181]}, "properties": {}}, {"type": "Feature", "geometry": {"type": "Point", "coordinates": [5.20022, 51.66878]}, "properties": {}}, {"type": "Feature", "geometry": {"type": "Point", "coordinates": [4.45, 52.1]}, "properties": {}}, {"type": "Feature", "geometry": {"type": "Point", "coordinates": [5.86063, 52.0149]}, "properties": {}}, {"type": "Feature", "geometry": {"type": "Point", "coordinates": [5.86063, 52.0149]}, "properties": {}}, {"type": "Feature", "geometry": {"type": "Point", "coordinates": [11.93079, 57.69181]}, "properties": {}}, {"type": "Feature", "geometry": {"type": "Point", "coordinates": [-2.700146, 51.503342]}, "properties": {}}, {"type": "Feature", "geometry": {"type": "Point", "coordinates": [5.85673, 52.01181]}, "properties": {}}, {"type": "Feature", "geometry": {"type": "Point", "coordinates": [12.05303, 57.69986]}, "properties": {}}, {"type": "Feature", "geometry": {"type": "Point", "coordinates": [12.00469, 57.74888]}, "properties": {}}, {"type": "Feature", "geometry": {"type": "Point", "coordinates": [22.359238, 60.464887]}, "properties": {}}, {"type": "Feature", "geometry": {"type": "Point", "coordinates": [13.2027, 55.70403]}, "properties": {}}, {"type": "Feature", "geometry": {"type": "Point", "coordinates": [5.48296, 62.36688]}, "properties": {}}, {"type": "Feature", "geometry": {"type": "Point", "coordinates": [4.308333, 50.836667]}, "properties": {}}, {"type": "Feature", "geometry": {"type": "Point", "coordinates": [2.35222, 48.85661]}, "properties": {}}, {"type": "Feature", "geometry": {"type": "Point", "coordinates": [11.1642, 46.6683]}, "properties": {}}, {"type": "Feature", "geometry": {"type": "Point", "coordinates": [11.98619, 57.71609]}, "properties": {}}, {"type": "Feature", "geometry": {"type": "Point", "coordinates": [10.6783, 59.9064]}, "properties": {}}, {"type": "Feature", "geometry": {"type": "Point", "coordinates": [25.018642, 60.110161]}, "properties": {}}, {"type": "Feature", "geometry": {"type": "Point", "coordinates": [11.93079, 57.69181]}, "properties": {}}, {"type": "Feature", "geometry": {"type": "Point", "coordinates": [11.98619, 57.71609]}, "properties": {}}, {"type": "Feature", "geometry": {"type": "Point", "coordinates": [11.98619, 57.71609]}, "properties": {}}, {"type": "Feature", "geometry": {"type": "Point", "coordinates": [-8.42248, 40.205091]}, "properties": {}}, {"type": "Feature", "geometry": {"type": "Point", "coordinates": [11.93079, 57.69181]}, "properties": {}}, {"type": "Feature", "geometry": {"type": "Point", "coordinates": [5.71814, 58.97009]}, "properties": {}}, {"type": "Feature", "geometry": {"type": "Point", "coordinates": [16.367376, 56.659283]}, "properties": {}}, {"type": "Feature", "geometry": {"type": "Point", "coordinates": [4.90993, 52.3744]}, "properties": {}}, {"type": "Feature", "geometry": {"type": "Point", "coordinates": [14.584658, 56.053257]}, "properties": {}}, {"type": "Feature", "geometry": {"type": "Point", "coordinates": [15.23053, 60.66499]}, "properties": {}}, {"type": "Feature", "geometry": {"type": "Point", "coordinates": [10.6083, 47.0181]}, "properties": {}}, {"type": "Feature", "geometry": {"type": "Point", "coordinates": [11.90524, 58.3496]}, "properties": {}}, {"type": "Feature", "geometry": {"type": "Point", "coordinates": [-113.98372, 46.860202]}, "properties": {}}, {"type": "Feature", "geometry": {"type": "Point", "coordinates": [4.29972, 51.58344]}, "properties": {}}, {"type": "Feature", "geometry": {"type": "Point", "coordinates": [22.178108, 60.458446]}, "properties": {}}, {"type": "Feature", "geometry": {"type": "Point", "coordinates": [23.8652, 61.1689]}, "properties": {}}, {"type": "Feature", "geometry": {"type": "Point", "coordinates": [4.93939, 52.36553]}, "properties": {}}, {"type": "Feature", "geometry": {"type": "Point", "coordinates": [4.90993, 52.3744]}, "properties": {}}, {"type": "Feature", "geometry": {"type": "Point", "coordinates": [0.635501, 47.3829]}, "properties": {}}, {"type": "Feature", "geometry": {"type": "Point", "coordinates": [9.530976, 47.205138]}, "properties": {}}, {"type": "Feature", "geometry": {"type": "Point", "coordinates": [5.05944, 52.0154]}, "properties": {}}, {"type": "Feature", "geometry": {"type": "Point", "coordinates": [14.1378, 66.3133]}, "properties": {}}, {"type": "Feature", "geometry": {"type": "Point", "coordinates": [0.63798, 47.38153]}, "properties": {}}, {"type": "Feature", "geometry": {"type": "Point", "coordinates": [0.63798, 47.38153]}, "properties": {}}, {"type": "Feature", "geometry": {"type": "Point", "coordinates": [17.15445, 58.89029]}, "properties": {}}, {"type": "Feature", "geometry": {"type": "Point", "coordinates": [17.17481, 58.88054]}, "properties": {}}, {"type": "Feature", "geometry": {"type": "Point", "coordinates": [31.23571, 30.04442]}, "properties": {}}, {"type": "Feature", "geometry": {"type": "Point", "coordinates": [7.504649, 47.220911]}, "properties": {}}, {"type": "Feature", "geometry": {"type": "Point", "coordinates": [-64.257778, -31.649722]}, "properties": {}}, {"type": "Feature", "geometry": {"type": "Point", "coordinates": [25.018642, 60.110161]}, "properties": {}}, {"type": "Feature", "geometry": {"type": "Point", "coordinates": [4.61626, 52.37285]}, "properties": {}}, {"type": "Feature", "geometry": {"type": "Point", "coordinates": [22.26714, 42.62673]}, "properties": {}}, {"type": "Feature", "geometry": {"type": "Point", "coordinates": [11.55, 48.12]}, "properties": {}}, {"type": "Feature", "geometry": {"type": "Point", "coordinates": [-2.95756, 38.17398]}, "properties": {}}, {"type": "Feature", "geometry": {"type": "Point", "coordinates": [-3.00643, 38.16958]}, "properties": {}}, {"type": "Feature", "geometry": {"type": "Point", "coordinates": [7.940911, 47.282798]}, "properties": {}}, {"type": "Feature", "geometry": {"type": "Point", "coordinates": [7.940911, 47.282798]}, "properties": {}}, {"type": "Feature", "geometry": {"type": "Point", "coordinates": [7.940911, 47.282798]}, "properties": {}}, {"type": "Feature", "geometry": {"type": "Point", "coordinates": [6.7764, 51.2245]}, "properties": {}}, {"type": "Feature", "geometry": {"type": "Point", "coordinates": [6.78352, 51.22156]}, "properties": {}}, {"type": "Feature", "geometry": {"type": "Point", "coordinates": [17.32879, 60.67813]}, "properties": {}}, {"type": "Feature", "geometry": {"type": "Point", "coordinates": [10.062778, 52.6175]}, "properties": {}}, {"type": "Feature", "geometry": {"type": "Point", "coordinates": [16.60684, 49.19506]}, "properties": {}}, {"type": "Feature", "geometry": {"type": "Point", "coordinates": [16.61502, 49.19992]}, "properties": {}}, {"type": "Feature", "geometry": {"type": "Point", "coordinates": [13.38331, 42.15006]}, "properties": {}}, {"type": "Feature", "geometry": {"type": "Point", "coordinates": [13.38017, 42.111918]}, "properties": {}}]}