{"type": "FeatureCollection", "name": "Matricaria chamomilla", "features": [{"type": "Feature", "geometry": {"type": "Point", "coordinates": [175.273787, -37.74944]}, "properties": {}}, {"type": "Feature", "geometry": {"type": "Point", "coordinates": [-98.887725, 19.488792]}, "properties": {}}, {"type": "Feature", "geometry": {"type": "Point", "coordinates": [-70.312737, -33.355562]}, "properties": {}}, {"type": "Feature", "geometry": {"type": "Point", "coordinates": [-70.309862, -33.349]}, "properties": {}}, {"type": "Feature", "geometry": {"type": "Point", "coordinates": [-98.551999, 17.553415]}, "properties": {}}, {"type": "Feature", "geometry": {"type": "Point", "coordinates": [-61.921948, -37.475856]}, "properties": {}}, {"type": "Feature", "geometry": {"type": "Point", "coordinates": [1.873999, 41.54517]}, "properties": {}}, {"type": "Feature", "geometry": {"type": "Point", "coordinates": [-58.820133, -35.470528]}, "properties": {}}, {"type": "Feature", "geometry": {"type": "Point", "coordinates": [-98.908142, 19.076064]}, "properties": {}}, {"type": "Feature", "geometry": {"type": "Point", "coordinates": [-73.621345, 5.616681]}, "properties": {}}, {"type": "Feature", "geometry": {"type": "Point", "coordinates": [-78.192557, 0.119502]}, "properties": {}}, {"type": "Feature", "geometry": {"type": "Point", "coordinates": [-98.910522, 19.075522]}, "properties": {}}, {"type": "Feature", "geometry": {"type": "Point", "coordinates": [-78.335247, -0.147136]}, "properties": {}}, {"type": "Feature", "geometry": {"type": "Point", "coordinates": [-99.133639, 19.307235]}, "properties": {}}, {"type": "Feature", "geometry": {"type": "Point", "coordinates": [23.738765, 38.00819]}, "properties": {}}, {"type": "Feature", "geometry": {"type": "Point", "coordinates": [-78.37268, -0.226519]}, "properties": {}}, {"type": "Feature", "geometry": {"type": "Point", "coordinates": [23.721954, 37.972978]}, "properties": {}}, {"type": "Feature", "geometry": {"type": "Point", "coordinates": [-78.372358, -0.225249]}, "properties": {}}, {"type": "Feature", "geometry": {"type": "Point", "coordinates": [-78.372676, -0.226488]}, "properties": {}}, {"type": "Feature", "geometry": {"type": "Point", "coordinates": [-78.373071, -0.22477]}, "properties": {}}, {"type": "Feature", "geometry": {"type": "Point", "coordinates": [0.274133, 50.771548]}, "properties": {}}, {"type": "Feature", "geometry": {"type": "Point", "coordinates": [-99.815217, 20.696947]}, "properties": {}}, {"type": "Feature", "geometry": {"type": "Point", "coordinates": [-78.369057, -0.222641]}, "properties": {}}, {"type": "Feature", "geometry": {"type": "Point", "coordinates": [21.732185, 38.235457]}, "properties": {}}, {"type": "Feature", "geometry": {"type": "Point", "coordinates": [-78.372483, -0.225948]}, "properties": {}}, {"type": "Feature", "geometry": {"type": "Point", "coordinates": [-64.109194, -32.160053]}, "properties": {}}, {"type": "Feature", "geometry": {"type": "Point", "coordinates": [28.227223, 36.446727]}, "properties": {}}, {"type": "Feature", "geometry": {"type": "Point", "coordinates": [16.494188, 39.746352]}, "properties": {}}, {"type": "Feature", "geometry": {"type": "Point", "coordinates": [-121.957771, 37.244677]}, "properties": {}}, {"type": "Feature", "geometry": {"type": "Point", "coordinates": [-0.376083, 39.481395]}, "properties": {}}, {"type": "Feature", "geometry": {"type": "Point", "coordinates": [-56.744149, -36.711307]}, "properties": {}}, {"type": "Feature", "geometry": {"type": "Point", "coordinates": [-78.479103, -0.330258]}, "properties": {}}, {"type": "Feature", "geometry": {"type": "Point", "coordinates": [-78.479103, -0.330258]}, "properties": {}}, {"type": "Feature", "geometry": {"type": "Point", "coordinates": [-92.610018, 16.746267]}, "properties": {}}, {"type": "Feature", "geometry": {"type": "Point", "coordinates": [-78.479333, -0.330003]}, "properties": {}}, {"type": "Feature", "geometry": {"type": "Point", "coordinates": [5.15, 52.05]}, "properties": {}}, {"type": "Feature", "geometry": {"type": "Point", "coordinates": [-78.373075, -0.224663]}, "properties": {}}, {"type": "Feature", "geometry": {"type": "Point", "coordinates": [-78.373071, -0.22477]}, "properties": {}}, {"type": "Feature", "geometry": {"type": "Point", "coordinates": [-60.688153, -51.349269]}, "properties": {}}, {"type": "Feature", "geometry": {"type": "Point", "coordinates": [-78.373071, -0.22477]}, "properties": {}}, {"type": "Feature", "geometry": {"type": "Point", "coordinates": [34.881807, 31.595232]}, "properties": {}}, {"type": "Feature", "geometry": {"type": "Point", "coordinates": [4.65, 51.85]}, "properties": {}}, {"type": "Feature", "geometry": {"type": "Point", "coordinates": [-77.522588, -9.532759]}, "properties": {}}, {"type": "Feature", "geometry": {"type": "Point", "coordinates": [1.891337, 41.54517]}, "properties": {}}, {"type": "Feature", "geometry": {"type": "Point", "coordinates": [23.778787, 37.969387]}, "properties": {}}, {"type": "Feature", "geometry": {"type": "Point", "coordinates": [-72.265, -50.32593]}, "properties": {}}, {"type": "Feature", "geometry": {"type": "Point", "coordinates": [-71.176858, -41.28336]}, "properties": {}}, {"type": "Feature", "geometry": {"type": "Point", "coordinates": [9.08535, 48.841446]}, "properties": {}}, {"type": "Feature", "geometry": {"type": "Point", "coordinates": [80.984526, 26.893923]}, "properties": {}}, {"type": "Feature", "geometry": {"type": "Point", "coordinates": [-75.651193, -11.347434]}, "properties": {}}, {"type": "Feature", "geometry": {"type": "Point", "coordinates": [23.464397, 37.734791]}, "properties": {}}, {"type": "Feature", "geometry": {"type": "Point", "coordinates": [-99.071687, 19.459094]}, "properties": {}}, {"type": "Feature", "geometry": {"type": "Point", "coordinates": [23.729663, 37.969278]}, "properties": {}}, {"type": "Feature", "geometry": {"type": "Point", "coordinates": [-122.285956, 37.822091]}, "properties": {}}, {"type": "Feature", "geometry": {"type": "Point", "coordinates": [-78.383689, -0.221448]}, "properties": {}}, {"type": "Feature", "geometry": {"type": "Point", "coordinates": [27.059379, 38.407919]}, "properties": {}}, {"type": "Feature", "geometry": {"type": "Point", "coordinates": [-78.367431, -0.232463]}, "properties": {}}, {"type": "Feature", "geometry": {"type": "Point", "coordinates": [23.79445, 37.993878]}, "properties": {}}, {"type": "Feature", "geometry": {"type": "Point", "coordinates": [4.6, 52.0]}, "properties": {}}, {"type": "Feature", "geometry": {"type": "Point", "coordinates": [-72.357697, -50.380133]}, "properties": {}}, {"type": "Feature", "geometry": {"type": "Point", "coordinates": [7.626105, 51.862713]}, "properties": {}}, {"type": "Feature", "geometry": {"type": "Point", "coordinates": [7.611546, 51.862713]}, "properties": {}}, {"type": "Feature", "geometry": {"type": "Point", "coordinates": [5.7, 53.25]}, "properties": {}}, {"type": "Feature", "geometry": {"type": "Point", "coordinates": [24.699979, 35.382027]}, "properties": {}}, {"type": "Feature", "geometry": {"type": "Point", "coordinates": [18.330103, 45.124707]}, "properties": {}}, {"type": "Feature", "geometry": {"type": "Point", "coordinates": [-99.138649, 19.512725]}, "properties": {}}, {"type": "Feature", "geometry": {"type": "Point", "coordinates": [30.565424, 36.743323]}, "properties": {}}, {"type": "Feature", "geometry": {"type": "Point", "coordinates": [75.831379, 30.937979]}, "properties": {}}, {"type": "Feature", "geometry": {"type": "Point", "coordinates": [-74.084413, 4.621942]}, "properties": {}}, {"type": "Feature", "geometry": {"type": "Point", "coordinates": [20.896661, 37.770211]}, "properties": {}}, {"type": "Feature", "geometry": {"type": "Point", "coordinates": [-8.720588, 41.315476]}, "properties": {}}, {"type": "Feature", "geometry": {"type": "Point", "coordinates": [-99.029717, 19.261855]}, "properties": {}}, {"type": "Feature", "geometry": {"type": "Point", "coordinates": [-77.523242, -9.537633]}, "properties": {}}, {"type": "Feature", "geometry": {"type": "Point", "coordinates": [-103.499825, 25.584219]}, "properties": {}}, {"type": "Feature", "geometry": {"type": "Point", "coordinates": [23.724489, 37.970009]}, "properties": {}}, {"type": "Feature", "geometry": {"type": "Point", "coordinates": [22.94592, 40.63777]}, "properties": {}}, {"type": "Feature", "geometry": {"type": "Point", "coordinates": [71.583423, 41.007927]}, "properties": {}}, {"type": "Feature", "geometry": {"type": "Point", "coordinates": [47.926023, 29.281775]}, "properties": {}}, {"type": "Feature", "geometry": {"type": "Point", "coordinates": [30.567321, 36.741549]}, "properties": {}}, {"type": "Feature", "geometry": {"type": "Point", "coordinates": [-77.529371, -9.521377]}, "properties": {}}, {"type": "Feature", "geometry": {"type": "Point", "coordinates": [1.385159, 43.8141]}, "properties": {}}, {"type": "Feature", "geometry": {"type": "Point", "coordinates": [71.68046, 41.024767]}, "properties": {}}, {"type": "Feature", "geometry": {"type": "Point", "coordinates": [71.68781, 41.023325]}, "properties": {}}, {"type": "Feature", "geometry": {"type": "Point", "coordinates": [71.584135, 41.010273]}, "properties": {}}, {"type": "Feature", "geometry": {"type": "Point", "coordinates": [-77.52584, -9.529692]}, "properties": {}}, {"type": "Feature", "geometry": {"type": "Point", "coordinates": [22.943804, 40.63999]}, "properties": {}}, {"type": "Feature", "geometry": {"type": "Point", "coordinates": [-77.519865, -9.536629]}, "properties": {}}, {"type": "Feature", "geometry": {"type": "Point", "coordinates": [-3.185643, 37.959905]}, "properties": {}}, {"type": "Feature", "geometry": {"type": "Point", "coordinates": [-9.241528, 38.732242]}, "properties": {}}, {"type": "Feature", "geometry": {"type": "Point", "coordinates": [71.580612, 41.008142]}, "properties": {}}, {"type": "Feature", "geometry": {"type": "Point", "coordinates": [34.926756, 32.524076]}, "properties": {}}, {"type": "Feature", "geometry": {"type": "Point", "coordinates": [23.321144, 38.347801]}, "properties": {}}, {"type": "Feature", "geometry": {"type": "Point", "coordinates": [-69.823638, -15.787838]}, "properties": {}}, {"type": "Feature", "geometry": {"type": "Point", "coordinates": [-72.16934, -13.249609]}, "properties": {}}, {"type": "Feature", "geometry": {"type": "Point", "coordinates": [-94.166297, 36.100753]}, "properties": {}}, {"type": "Feature", "geometry": {"type": "Point", "coordinates": [3.570971, 47.787455]}, "properties": {}}, {"type": "Feature", "geometry": {"type": "Point", "coordinates": [23.710213, 37.939514]}, "properties": {}}, {"type": "Feature", "geometry": {"type": "Point", "coordinates": [23.731838, 37.989422]}, "properties": {}}, {"type": "Feature", "geometry": {"type": "Point", "coordinates": [25.183197, 37.529884]}, "properties": {}}, {"type": "Feature", "geometry": {"type": "Point", "coordinates": [-94.129628, 36.136507]}, "properties": {}}, {"type": "Feature", "geometry": {"type": "Point", "coordinates": [71.578727, 41.009555]}, "properties": {}}, {"type": "Feature", "geometry": {"type": "Point", "coordinates": [-1.0645, 37.967394]}, "properties": {}}, {"type": "Feature", "geometry": {"type": "Point", "coordinates": [-68.919774, -46.545794]}, "properties": {}}, {"type": "Feature", "geometry": {"type": "Point", "coordinates": [23.635326, 37.978626]}, "properties": {}}, {"type": "Feature", "geometry": {"type": "Point", "coordinates": [71.686129, 41.02486]}, "properties": {}}, {"type": "Feature", "geometry": {"type": "Point", "coordinates": [-119.728431, 37.090644]}, "properties": {}}, {"type": "Feature", "geometry": {"type": "Point", "coordinates": [22.962253, 40.643082]}, "properties": {}}, {"type": "Feature", "geometry": {"type": "Point", "coordinates": [23.728582, 37.933029]}, "properties": {}}, {"type": "Feature", "geometry": {"type": "Point", "coordinates": [71.583692, 41.007835]}, "properties": {}}, {"type": "Feature", "geometry": {"type": "Point", "coordinates": [24.920167, 37.487893]}, "properties": {}}, {"type": "Feature", "geometry": {"type": "Point", "coordinates": [1.891337, 41.54517]}, "properties": {}}, {"type": "Feature", "geometry": {"type": "Point", "coordinates": [71.583384, 41.00663]}, "properties": {}}, {"type": "Feature", "geometry": {"type": "Point", "coordinates": [71.583618, 41.007899]}, "properties": {}}, {"type": "Feature", "geometry": {"type": "Point", "coordinates": [-74.061362, 4.641103]}, "properties": {}}, {"type": "Feature", "geometry": {"type": "Point", "coordinates": [23.726434, 37.969445]}, "properties": {}}, {"type": "Feature", "geometry": {"type": "Point", "coordinates": [71.583297, 41.006487]}, "properties": {}}, {"type": "Feature", "geometry": {"type": "Point", "coordinates": [-91.01905, 34.593314]}, "properties": {}}, {"type": "Feature", "geometry": {"type": "Point", "coordinates": [47.926098, 29.281762]}, "properties": {}}, {"type": "Feature", "geometry": {"type": "Point", "coordinates": [23.71619, 37.967696]}, "properties": {}}, {"type": "Feature", "geometry": {"type": "Point", "coordinates": [71.583287, 41.00648]}, "properties": {}}, {"type": "Feature", "geometry": {"type": "Point", "coordinates": [30.567292, 36.741542]}, "properties": {}}, {"type": "Feature", "geometry": {"type": "Point", "coordinates": [71.58405, 41.010233]}, "properties": {}}, {"type": "Feature", "geometry": {"type": "Point", "coordinates": [23.718258, 38.038952]}, "properties": {}}, {"type": "Feature", "geometry": {"type": "Point", "coordinates": [4.05, 51.6]}, "properties": {}}, {"type": "Feature", "geometry": {"type": "Point", "coordinates": [7.553309, 51.943577]}, "properties": {}}, {"type": "Feature", "geometry": {"type": "Point", "coordinates": [2.994008, 42.650548]}, "properties": {}}, {"type": "Feature", "geometry": {"type": "Point", "coordinates": [18.361413, 42.559742]}, "properties": {}}, {"type": "Feature", "geometry": {"type": "Point", "coordinates": [-92.633759, 16.704397]}, "properties": {}}, {"type": "Feature", "geometry": {"type": "Point", "coordinates": [71.658277, 41.010641]}, "properties": {}}, {"type": "Feature", "geometry": {"type": "Point", "coordinates": [-89.824722, 38.493845]}, "properties": {}}, {"type": "Feature", "geometry": {"type": "Point", "coordinates": [9.427917, 45.556975]}, "properties": {}}, {"type": "Feature", "geometry": {"type": "Point", "coordinates": [-89.656466, 38.072304]}, "properties": {}}, {"type": "Feature", "geometry": {"type": "Point", "coordinates": [24.188862, 35.427772]}, "properties": {}}, {"type": "Feature", "geometry": {"type": "Point", "coordinates": [-90.724495, 35.657283]}, "properties": {}}, {"type": "Feature", "geometry": {"type": "Point", "coordinates": [4.85, 51.45]}, "properties": {}}, {"type": "Feature", "geometry": {"type": "Point", "coordinates": [3.65, 51.45]}, "properties": {}}, {"type": "Feature", "geometry": {"type": "Point", "coordinates": [6.0, 51.85]}, "properties": {}}, {"type": "Feature", "geometry": {"type": "Point", "coordinates": [4.9, 51.65]}, "properties": {}}, {"type": "Feature", "geometry": {"type": "Point", "coordinates": [4.8, 51.45]}, "properties": {}}, {"type": "Feature", "geometry": {"type": "Point", "coordinates": [3.90628, 50.9714]}, "properties": {}}, {"type": "Feature", "geometry": {"type": "Point", "coordinates": [2.781614, 41.964937]}, "properties": {}}, {"type": "Feature", "geometry": {"type": "Point", "coordinates": [5.3937, 43.230416]}, "properties": {}}, {"type": "Feature", "geometry": {"type": "Point", "coordinates": [-90.805213, 35.4364]}, "properties": {}}, {"type": "Feature", "geometry": {"type": "Point", "coordinates": [2.642462, 41.755347]}, "properties": {}}, {"type": "Feature", "geometry": {"type": "Point", "coordinates": [-90.728856, 35.98305]}, "properties": {}}, {"type": "Feature", "geometry": {"type": "Point", "coordinates": [71.603543, 41.003224]}, "properties": {}}, {"type": "Feature", "geometry": {"type": "Point", "coordinates": [-9.276527, 38.716681]}, "properties": {}}, {"type": "Feature", "geometry": {"type": "Point", "coordinates": [28.034362, 45.45863]}, "properties": {}}, {"type": "Feature", "geometry": {"type": "Point", "coordinates": [23.732597, 37.969013]}, "properties": {}}, {"type": "Feature", "geometry": {"type": "Point", "coordinates": [5.44236, 43.339782]}, "properties": {}}, {"type": "Feature", "geometry": {"type": "Point", "coordinates": [-99.095221, 19.294685]}, "properties": {}}, {"type": "Feature", "geometry": {"type": "Point", "coordinates": [5.386842, 43.340346]}, "properties": {}}, {"type": "Feature", "geometry": {"type": "Point", "coordinates": [23.955445, 37.766749]}, "properties": {}}, {"type": "Feature", "geometry": {"type": "Point", "coordinates": [-89.749315, 38.523342]}, "properties": {}}, {"type": "Feature", "geometry": {"type": "Point", "coordinates": [24.141227, 35.462278]}, "properties": {}}, {"type": "Feature", "geometry": {"type": "Point", "coordinates": [9.703842, 45.705949]}, "properties": {}}, {"type": "Feature", "geometry": {"type": "Point", "coordinates": [-89.913727, 37.921276]}, "properties": {}}, {"type": "Feature", "geometry": {"type": "Point", "coordinates": [19.691963, 44.755745]}, "properties": {}}, {"type": "Feature", "geometry": {"type": "Point", "coordinates": [2.823051, 41.982514]}, "properties": {}}, {"type": "Feature", "geometry": {"type": "Point", "coordinates": [10.781244, 45.100517]}, "properties": {}}, {"type": "Feature", "geometry": {"type": "Point", "coordinates": [19.038301, 47.511983]}, "properties": {}}, {"type": "Feature", "geometry": {"type": "Point", "coordinates": [23.023518, 40.48768]}, "properties": {}}, {"type": "Feature", "geometry": {"type": "Point", "coordinates": [-89.332734, 37.588933]}, "properties": {}}, {"type": "Feature", "geometry": {"type": "Point", "coordinates": [5.400755, 43.337725]}, "properties": {}}, {"type": "Feature", "geometry": {"type": "Point", "coordinates": [23.784235, 38.038001]}, "properties": {}}, {"type": "Feature", "geometry": {"type": "Point", "coordinates": [25.341859, 37.08746]}, "properties": {}}, {"type": "Feature", "geometry": {"type": "Point", "coordinates": [-74.250962, 4.722848]}, "properties": {}}, {"type": "Feature", "geometry": {"type": "Point", "coordinates": [-4.960856, 38.480119]}, "properties": {}}, {"type": "Feature", "geometry": {"type": "Point", "coordinates": [43.43512, 46.030358]}, "properties": {}}, {"type": "Feature", "geometry": {"type": "Point", "coordinates": [2.689681, 41.654387]}, "properties": {}}, {"type": "Feature", "geometry": {"type": "Point", "coordinates": [30.728676, 46.563246]}, "properties": {}}, {"type": "Feature", "geometry": {"type": "Point", "coordinates": [-71.517555, -16.41607]}, "properties": {}}, {"type": "Feature", "geometry": {"type": "Point", "coordinates": [20.270408, 44.7851]}, "properties": {}}, {"type": "Feature", "geometry": {"type": "Point", "coordinates": [-98.977092, 19.337724]}, "properties": {}}, {"type": "Feature", "geometry": {"type": "Point", "coordinates": [4.804172, 45.701219]}, "properties": {}}, {"type": "Feature", "geometry": {"type": "Point", "coordinates": [17.207531, 47.021341]}, "properties": {}}, {"type": "Feature", "geometry": {"type": "Point", "coordinates": [24.009537, 38.002572]}, "properties": {}}, {"type": "Feature", "geometry": {"type": "Point", "coordinates": [23.635599, 38.012879]}, "properties": {}}, {"type": "Feature", "geometry": {"type": "Point", "coordinates": [-68.129169, -16.533798]}, "properties": {}}, {"type": "Feature", "geometry": {"type": "Point", "coordinates": [37.79278, 44.690518]}, "properties": {}}, {"type": "Feature", "geometry": {"type": "Point", "coordinates": [19.244402, 47.477516]}, "properties": {}}, {"type": "Feature", "geometry": {"type": "Point", "coordinates": [-74.085935, 4.622814]}, "properties": {}}, {"type": "Feature", "geometry": {"type": "Point", "coordinates": [16.787243, 47.787123]}, "properties": {}}, {"type": "Feature", "geometry": {"type": "Point", "coordinates": [-66.339669, -17.34987]}, "properties": {}}, {"type": "Feature", "geometry": {"type": "Point", "coordinates": [2.82196, 41.99277]}, "properties": {}}, {"type": "Feature", "geometry": {"type": "Point", "coordinates": [8.474622, 49.075833]}, "properties": {}}, {"type": "Feature", "geometry": {"type": "Point", "coordinates": [-78.568038, -0.50612]}, "properties": {}}, {"type": "Feature", "geometry": {"type": "Point", "coordinates": [19.098936, 47.483691]}, "properties": {}}, {"type": "Feature", "geometry": {"type": "Point", "coordinates": [15.235974, 38.179815]}, "properties": {}}, {"type": "Feature", "geometry": {"type": "Point", "coordinates": [-99.087634, 19.27504]}, "properties": {}}, {"type": "Feature", "geometry": {"type": "Point", "coordinates": [32.83432, 35.131981]}, "properties": {}}, {"type": "Feature", "geometry": {"type": "Point", "coordinates": [21.370869, 38.41288]}, "properties": {}}, {"type": "Feature", "geometry": {"type": "Point", "coordinates": [1.434064, 43.587843]}, "properties": {}}, {"type": "Feature", "geometry": {"type": "Point", "coordinates": [1.813747, 41.728055]}, "properties": {}}, {"type": "Feature", "geometry": {"type": "Point", "coordinates": [32.82825, 37.666695]}, "properties": {}}, {"type": "Feature", "geometry": {"type": "Point", "coordinates": [2.781438, 41.964828]}, "properties": {}}, {"type": "Feature", "geometry": {"type": "Point", "coordinates": [21.091095, 47.733802]}, "properties": {}}, {"type": "Feature", "geometry": {"type": "Point", "coordinates": [-1.542461, 52.455863]}, "properties": {}}, {"type": "Feature", "geometry": {"type": "Point", "coordinates": [18.295366, 49.83927]}, "properties": {}}, {"type": "Feature", "geometry": {"type": "Point", "coordinates": [-8.203997, 43.340071]}, "properties": {}}, {"type": "Feature", "geometry": {"type": "Point", "coordinates": [-68.068804, -16.60295]}, "properties": {}}, {"type": "Feature", "geometry": {"type": "Point", "coordinates": [24.014931, 35.518925]}, "properties": {}}, {"type": "Feature", "geometry": {"type": "Point", "coordinates": [15.763821, 41.648241]}, "properties": {}}, {"type": "Feature", "geometry": {"type": "Point", "coordinates": [16.181661, 39.663792]}, "properties": {}}, {"type": "Feature", "geometry": {"type": "Point", "coordinates": [23.71754, 37.977672]}, "properties": {}}, {"type": "Feature", "geometry": {"type": "Point", "coordinates": [2.840787, 41.98765]}, "properties": {}}, {"type": "Feature", "geometry": {"type": "Point", "coordinates": [2.74655, 41.913375]}, "properties": {}}, {"type": "Feature", "geometry": {"type": "Point", "coordinates": [43.342167, 45.911591]}, "properties": {}}, {"type": "Feature", "geometry": {"type": "Point", "coordinates": [20.596615, 47.820642]}, "properties": {}}, {"type": "Feature", "geometry": {"type": "Point", "coordinates": [66.917654, 39.690214]}, "properties": {}}, {"type": "Feature", "geometry": {"type": "Point", "coordinates": [1.891337, 41.54517]}, "properties": {}}, {"type": "Feature", "geometry": {"type": "Point", "coordinates": [33.483564, 44.592953]}, "properties": {}}, {"type": "Feature", "geometry": {"type": "Point", "coordinates": [24.780018, 40.900833]}, "properties": {}}, {"type": "Feature", "geometry": {"type": "Point", "coordinates": [71.5466, 41.044173]}, "properties": {}}, {"type": "Feature", "geometry": {"type": "Point", "coordinates": [-3.629942, 37.165458]}, "properties": {}}, {"type": "Feature", "geometry": {"type": "Point", "coordinates": [1.42076, 43.83532]}, "properties": {}}, {"type": "Feature", "geometry": {"type": "Point", "coordinates": [25.129506, 37.043893]}, "properties": {}}, {"type": "Feature", "geometry": {"type": "Point", "coordinates": [10.803591, 44.922961]}, "properties": {}}, {"type": "Feature", "geometry": {"type": "Point", "coordinates": [-2.704603, 56.05745]}, "properties": {}}, {"type": "Feature", "geometry": {"type": "Point", "coordinates": [21.072978, 47.613351]}, "properties": {}}, {"type": "Feature", "geometry": {"type": "Point", "coordinates": [29.126025, 37.923356]}, "properties": {}}, {"type": "Feature", "geometry": {"type": "Point", "coordinates": [71.546435, 41.04442]}, "properties": {}}, {"type": "Feature", "geometry": {"type": "Point", "coordinates": [28.964003, 40.461967]}, "properties": {}}, {"type": "Feature", "geometry": {"type": "Point", "coordinates": [1.447744, 43.593894]}, "properties": {}}, {"type": "Feature", "geometry": {"type": "Point", "coordinates": [16.153075, 46.339343]}, "properties": {}}, {"type": "Feature", "geometry": {"type": "Point", "coordinates": [16.160333, 39.658424]}, "properties": {}}, {"type": "Feature", "geometry": {"type": "Point", "coordinates": [71.54698, 41.043135]}, "properties": {}}, {"type": "Feature", "geometry": {"type": "Point", "coordinates": [16.27558, 39.497045]}, "properties": {}}, {"type": "Feature", "geometry": {"type": "Point", "coordinates": [-78.508713, -0.061876]}, "properties": {}}, {"type": "Feature", "geometry": {"type": "Point", "coordinates": [1.866011, 41.7604]}, "properties": {}}, {"type": "Feature", "geometry": {"type": "Point", "coordinates": [1.330882, 43.983877]}, "properties": {}}, {"type": "Feature", "geometry": {"type": "Point", "coordinates": [71.652583, 41.135593]}, "properties": {}}, {"type": "Feature", "geometry": {"type": "Point", "coordinates": [-66.332756, -17.347324]}, "properties": {}}, {"type": "Feature", "geometry": {"type": "Point", "coordinates": [22.878236, 37.90594]}, "properties": {}}, {"type": "Feature", "geometry": {"type": "Point", "coordinates": [23.817229, 38.023263]}, "properties": {}}, {"type": "Feature", "geometry": {"type": "Point", "coordinates": [37.43034, 45.251515]}, "properties": {}}, {"type": "Feature", "geometry": {"type": "Point", "coordinates": [20.570212, 47.822693]}, "properties": {}}, {"type": "Feature", "geometry": {"type": "Point", "coordinates": [21.090927, 47.733532]}, "properties": {}}, {"type": "Feature", "geometry": {"type": "Point", "coordinates": [16.055702, 45.857819]}, "properties": {}}, {"type": "Feature", "geometry": {"type": "Point", "coordinates": [71.646653, 41.135148]}, "properties": {}}, {"type": "Feature", "geometry": {"type": "Point", "coordinates": [24.13971, 35.463145]}, "properties": {}}, {"type": "Feature", "geometry": {"type": "Point", "coordinates": [1.374469, 43.787776]}, "properties": {}}, {"type": "Feature", "geometry": {"type": "Point", "coordinates": [21.704883, 46.839031]}, "properties": {}}, {"type": "Feature", "geometry": {"type": "Point", "coordinates": [-121.615238, 38.515957]}, "properties": {}}, {"type": "Feature", "geometry": {"type": "Point", "coordinates": [71.54553, 41.041477]}, "properties": {}}, {"type": "Feature", "geometry": {"type": "Point", "coordinates": [31.952307, 46.963361]}, "properties": {}}, {"type": "Feature", "geometry": {"type": "Point", "coordinates": [23.721376, 37.975624]}, "properties": {}}, {"type": "Feature", "geometry": {"type": "Point", "coordinates": [22.895252, 40.411476]}, "properties": {}}, {"type": "Feature", "geometry": {"type": "Point", "coordinates": [71.654929, 41.123555]}, "properties": {}}, {"type": "Feature", "geometry": {"type": "Point", "coordinates": [15.241789, 38.242774]}, "properties": {}}, {"type": "Feature", "geometry": {"type": "Point", "coordinates": [2.193545, 41.563486]}, "properties": {}}, {"type": "Feature", "geometry": {"type": "Point", "coordinates": [46.092739, 45.670597]}, "properties": {}}, {"type": "Feature", "geometry": {"type": "Point", "coordinates": [16.170883, 39.660978]}, "properties": {}}, {"type": "Feature", "geometry": {"type": "Point", "coordinates": [-90.632841, 35.830789]}, "properties": {}}, {"type": "Feature", "geometry": {"type": "Point", "coordinates": [22.909284, 40.499348]}, "properties": {}}, {"type": "Feature", "geometry": {"type": "Point", "coordinates": [1.423228, 42.368175]}, "properties": {}}, {"type": "Feature", "geometry": {"type": "Point", "coordinates": [34.844403, 38.640737]}, "properties": {}}, {"type": "Feature", "geometry": {"type": "Point", "coordinates": [20.075211, 46.580899]}, "properties": {}}, {"type": "Feature", "geometry": {"type": "Point", "coordinates": [67.016106, 37.672041]}, "properties": {}}, {"type": "Feature", "geometry": {"type": "Point", "coordinates": [-87.562668, 38.091782]}, "properties": {}}, {"type": "Feature", "geometry": {"type": "Point", "coordinates": [26.814873, 37.80672]}, "properties": {}}, {"type": "Feature", "geometry": {"type": "Point", "coordinates": [-66.148117, -17.400161]}, "properties": {}}, {"type": "Feature", "geometry": {"type": "Point", "coordinates": [71.546823, 41.043155]}, "properties": {}}, {"type": "Feature", "geometry": {"type": "Point", "coordinates": [-9.103961, 38.752752]}, "properties": {}}, {"type": "Feature", "geometry": {"type": "Point", "coordinates": [-100.245705, 21.102456]}, "properties": {}}, {"type": "Feature", "geometry": {"type": "Point", "coordinates": [23.731988, 39.115116]}, "properties": {}}, {"type": "Feature", "geometry": {"type": "Point", "coordinates": [-86.910372, 38.298716]}, "properties": {}}, {"type": "Feature", "geometry": {"type": "Point", "coordinates": [-119.706978, 36.715141]}, "properties": {}}, {"type": "Feature", "geometry": {"type": "Point", "coordinates": [15.241619, 38.243666]}, "properties": {}}, {"type": "Feature", "geometry": {"type": "Point", "coordinates": [19.476186, 40.952033]}, "properties": {}}, {"type": "Feature", "geometry": {"type": "Point", "coordinates": [-0.870131, 38.180871]}, "properties": {}}, {"type": "Feature", "geometry": {"type": "Point", "coordinates": [-80.273642, 36.067484]}, "properties": {}}, {"type": "Feature", "geometry": {"type": "Point", "coordinates": [10.908306, 45.403039]}, "properties": {}}, {"type": "Feature", "geometry": {"type": "Point", "coordinates": [27.429345, 38.608087]}, "properties": {}}, {"type": "Feature", "geometry": {"type": "Point", "coordinates": [-68.067151, -16.594306]}, "properties": {}}, {"type": "Feature", "geometry": {"type": "Point", "coordinates": [5.436464, 43.35958]}, "properties": {}}, {"type": "Feature", "geometry": {"type": "Point", "coordinates": [-1.256073, 51.756118]}, "properties": {}}, {"type": "Feature", "geometry": {"type": "Point", "coordinates": [23.814369, 38.044217]}, "properties": {}}, {"type": "Feature", "geometry": {"type": "Point", "coordinates": [21.006445, 47.574653]}, "properties": {}}, {"type": "Feature", "geometry": {"type": "Point", "coordinates": [71.686222, 41.022352]}, "properties": {}}, {"type": "Feature", "geometry": {"type": "Point", "coordinates": [71.65612, 41.122137]}, "properties": {}}, {"type": "Feature", "geometry": {"type": "Point", "coordinates": [71.546727, 41.038852]}, "properties": {}}, {"type": "Feature", "geometry": {"type": "Point", "coordinates": [65.868317, 38.894668]}, "properties": {}}, {"type": "Feature", "geometry": {"type": "Point", "coordinates": [2.36129, 48.877595]}, "properties": {}}, {"type": "Feature", "geometry": {"type": "Point", "coordinates": [20.400853, 47.555187]}, "properties": {}}, {"type": "Feature", "geometry": {"type": "Point", "coordinates": [14.869943, 48.107085]}, "properties": {}}, {"type": "Feature", "geometry": {"type": "Point", "coordinates": [27.641213, 44.111835]}, "properties": {}}, {"type": "Feature", "geometry": {"type": "Point", "coordinates": [-6.523835, 41.515615]}, "properties": {}}, {"type": "Feature", "geometry": {"type": "Point", "coordinates": [74.602378, 42.935919]}, "properties": {}}, {"type": "Feature", "geometry": {"type": "Point", "coordinates": [-90.804713, 35.43884]}, "properties": {}}, {"type": "Feature", "geometry": {"type": "Point", "coordinates": [16.055458, 41.706055]}, "properties": {}}, {"type": "Feature", "geometry": {"type": "Point", "coordinates": [67.939305, 37.944252]}, "properties": {}}, {"type": "Feature", "geometry": {"type": "Point", "coordinates": [-3.874622, 40.335304]}, "properties": {}}, {"type": "Feature", "geometry": {"type": "Point", "coordinates": [-0.28807, 51.413141]}, "properties": {}}, {"type": "Feature", "geometry": {"type": "Point", "coordinates": [66.909197, 39.695165]}, "properties": {}}, {"type": "Feature", "geometry": {"type": "Point", "coordinates": [71.54573, 41.041103]}, "properties": {}}, {"type": "Feature", "geometry": {"type": "Point", "coordinates": [24.13971, 35.463145]}, "properties": {}}, {"type": "Feature", "geometry": {"type": "Point", "coordinates": [21.428731, 38.366874]}, "properties": {}}, {"type": "Feature", "geometry": {"type": "Point", "coordinates": [12.797622, 41.947817]}, "properties": {}}, {"type": "Feature", "geometry": {"type": "Point", "coordinates": [71.654846, 41.12544]}, "properties": {}}]}